main_id,area,name,address1,address2,parking,homepage,latitude,longitude
1,강진군,백련사,전라남도 강진군 도암면 백련사길 145,,가능,http://www.baekryunsa.net/,34.58775658,126.747892
1,강진군,강진,전라남도 강진군 강진읍 탐진로 111,,가능,http://www.gangjin.go.kr/,34.64172515,126.7673259
1,강진군,다산박물관,전라남도 강진군 도암면 다산로 766-20,,무료,http://dasan.gangjin.go.kr/,34.57641194,126.7499561
1,강진군,한국민화뮤지엄,전라남도 강진군 대구면 청자촌길 61-5,,무료,http://minhwamuseum.com/,34.50867534,126.8041628
1,강진군,고려청자박물관,전라남도 강진군 대구면 청자촌길 33,,무료,http://www.celadon.go.kr/,34.50866203,126.8008374
1,강진군,강진 가우도,전라남도 강진군 도암면 월곶로 473,,,http://www.gaudo.co/,34.52833982,126.7726355
1,고흥군,마복산목재문화체험장,전라남도 고흥군 포두면 우주로 1296,,가능,http://singihan.goheung.go.kr/subPage.phppage=0301,34.54998006,127.3765171
1,고흥군,분청문화박물관,전라남도 고흥군 두원면 분청문화박물관길 99,,가능,http://buncheong.goheung.go.kr/,34.62782423,127.3244711
1,고흥군,고흥군,전라남도 고흥군 고흥읍 고흥군청로 1,,가능,http://www.goheung.go.kr/open_content/main/main.html,34.60495023,127.2760822
1,고흥군,팔영산 편백치유의 숲,전라남도 고흥군 점암면 팔봉길 11-12,,가능,http://singihan.goheung.go.kr/,34.641185,127.4147682
1,고흥군,고흥 우주천문과학관,전라남도 고흥군 도양읍 장기산선암길 353,,가능,http://star.goheung.go.kr/,34.55250154,127.1250552
1,고흥군,소록도,전라남도 고흥군 도양읍 소록해안길 65,,가능,http://www.sorokdo.go.kr/index.jsp,34.51168236,127.1213696
1,고흥군,해창만오토캠핑장,전라남도 고흥군 포두면 팔영로 405,,가능,http://hcmcamping.com/,34.58218258,127.3933248
1,고흥군,용바위,전라남도 고흥군 영남면 용바위길 22,,가능,http://tour.goheung.go.kr/tour/sights/best/04.do,34.59403479,127.5068006
1,고흥군,애도(쑥섬),전라남도 고흥군 봉래면 애도길 43,,,http://www.ssookseom.com/,34.46401499,127.4487907
1,곡성군,섬진강기차마을,전라남도 곡성군 오곡면 기차마을로 232,,가능,http://www.gstrain.co.kr/,35.27753157,127.3082867
1,곡성군,함허정,전라남도 곡성군 입면 청계동로 908-8,,,https://korean.visitkorea.or.kr/detail/ms_detail.docotid=8528c640-c226-4dba-839a-a71cde4d7525,35.32218671,127.2207535
1,곡성군,도림사,전라남도 곡성군 곡성읍 도림로 175,,,http://www.gokseong.go.kr/tour/tourist/regionmode=view&idx=24,35.26727743,127.2575047
1,곡성군,단군전,전라남도 곡성군 곡성읍 영운1길 33,,,http://www.gokseong.go.kr/tour/tourist/tourallmode=view&idx=7,35.28744102,127.2932556
1,곡성군,압록유원지,전라남도 곡성군 죽곡면 조사길 7,,,http://www.gokseong.go.kr/tour/tourist/tourallmode=view&idx=56,35.18841924,127.4017133
1,곡성군,용산재,전라남도 곡성군 목사동면 신숭겸로 226,,,http://www.gokseong.go.kr/tour/tourist/tourallmode=view&idx=28,35.13103091,127.3210133
1,곡성군,관음사,전라남도 곡성군 오산면 성덕관음길 453,,,http://www.gokseong.go.kr/tour/tourist/tourallmode=view&idx=22,35.21469614,127.1653199
1,곡성군,섬진강레일바이크,전라남도 곡성군 오곡면 섬진강로 1877,,가능,http://www.gstrain.co.kr/,35.25896793,127.349235
1,곡성군,섬진강도깨비마을,전라남도 곡성군 곡성읍 중앙로 58-1,,,http://www.dokaebi.co.kr/,35.27855922,127.2899727
1,곡성군,섬진강천문대,전라남도 구례군 구례읍 섬진강로 1234,,가능,http://www.gokseong.go.kr/star/,35.22666779,127.3691674
1,곡성군,기차마을 드림랜드,전라남도 곡성군 오곡면 기차마을로 232,,가능,http://gsdreamland.co.kr/main/http://gsdreamland.co.kr/board/bbs/dk_content.phpht_id=dream5_01,35.27753157,127.3082867
1,곡성군,섬진강기차마을,전라남도 곡성군 오곡면 기차마을로 232,,가능,http://www.gstrain.co.kr/,35.27753157,127.3082867
1,곡성군,곡성군,전라남도 곡성군 곡성읍 군청로 50,,가능,http://www.gokseong.go.kr/main/,35.28215631,127.2926554
1,곡성군,가정역,전라남도 곡성군 오곡면 섬진강로 1465,,,http://www.gokseong.go.kr/tour/tourist/tourallmode=view&idx=78,35.23018353,127.3682034
1,곡성군,기차마을패러글라이딩,전라남도 곡성군 오곡면 덕산양지길 6-12,,,https://www.gspara.com/,35.26597736,127.307915
1,곡성군,조태일시문학기념관,전라남도 곡성군 죽곡면 태안로 622-38,,가능,http://www.gokseong.go.kr/tour/tourist/tourallmode=view&idx=59,35.13351552,127.3685947
1,곡성군,태안사,전라남도 곡성군 죽곡면 태안로 622-215,,무료,http://www.gokseong.go.kr/tour/tourist/9tour/taeansa,35.13195828,127.3863807
1,곡성군,곡성성당(옥터성지),전라남도 곡성군 곡성읍 읍내11길 20,,,http://www.gscatholic.co.kr/default/,35.2823631,127.2929445
1,곡성군,성륜사,전라남도 곡성군 옥과면 미술관로 287,,,http://www.gokseong.go.kr/tour/tourist/9tour/seongnyunsa,35.29700593,127.1208706
1,곡성군,독도사진전시관,전라남도 곡성군 죽곡면 태안로 793,,가능,http://www.gokseong.go.kr/tour/tourist/tourallmode=view&idx=60,35.14821768,127.3603684
1,곡성군,심청한옥마을,전라남도 곡성군 오곡면 심청로 178,,가능,http://www.gokseong.go.kr/tour/tourist/tourallmode=view&idx=89,35.23063008,127.3575518
1,곡성군,섬진강 출렁 다리,전라남도 곡성군 고달면 가정마을길 248,,,http://www.gokseong.go.kr/tour/tourist/tourallmode=view&idx=76,35.23061501,127.3845206
1,광양시,장도전수교육관(장도박물관),전라남도 광양시 광양읍 매천로 771,,가능,http://www.jangdo.org/main.html,34.97705608,127.5805515
1,광양시,LF스퀘어 테라스몰 광양점,전라남도 광양시 광양읍 순광로 466,,무료,http://www.lfsquare.co.kr/gwangyang/,34.9626555,127.5663095
1,광양시,광양시,전라남도 광양시 시청로 33,,가능,http://www.gwangyang.go.kr/index.gwangyang,34.94063191,127.6959677
1,광양시,광양목재문화체험장,전라남도 광양시 옥룡면 백계로 374,,가능,http://bwmt.gwangyang.go.kr,35.0552438,127.599205
1,광양시,광양 죽필,전라남도 광양시 광양읍 서평10길 35,,,http://www.bamboopen.co.kr/,34.98172417,127.5803117
1,광양시,광양목재문화체험장,전라남도 광양시 옥룡면 백계로 374,,가능,http://bwmt.gwangyang.go.kr/bmt/contents/wood/info.jsp,35.0552438,127.599205
1,광양시,백운산 자연휴양림,전라남도 광양시 옥룡면 백계로 337,,승용차 3000 / 일 대형차 5000 / 일,http://bwmt.gwangyang.go.kr/bmt/,35.05164423,127.5985292
1,광양시,도선국사마을,전라남도 광양시 옥룡면 상산길 31,,가능,http://dosun.go2vil.org/,35.0440396,127.5928276
1,광양시,형제의병장마을,전라남도 광양시 봉강면 신촌길 21-6,,,http://br.invil.org/index.html,35.05866184,127.5624014
1,광양시,해달별 천문대,전라남도 광양시 봉강면 하조길 91-20,,가능,http://blog.daum.net/hojun_jeong/40,35.07478024,127.5540516
1,광양시,성불사,전라남도 광양시 봉강면 성불로 1150-183,,가능,http://061-762-2882.pkt114.com/,35.09252216,127.5710171
1,광양시,성불계곡,전라남도 광양시 봉강면 성불로 1150-47,,,http://www.gwangyang.go.kr/tour_culture/board/view.gwangyangboardId=BBS_TOUR_TOUR&menuCd=DOM_000000401006002000&contentsSid=1631&dataSid=282,35.0838015,127.5683422
1,광양시,POSCO 광양제철소,전라남도 광양시 폭포사랑길 20-26,,홈페이지 참조,http://www.posco.co.kr/,34.93238912,127.7360602
1,구례군,매천사,전라남도 구례군 광의면 월곡길 22-3,,,http://tour.gurye.go.kr/jcms/guryetours/famous/0010/0004/cultsId=TOUR_000000000000024,35.25271955,127.4621137
1,구례군,섬진강 벚꽃길,전라남도 구례군 문척면 동해벚꽃로 114,,,http://tour.gurye.go.kr/jcms/guryetours/famous/seomjin/0003/,35.18807948,127.4721297
1,구례군,섬진강 레프팅,전라남도 구례군 토지면 섬진강대로 4915,,,http://tour.gurye.go.kr/jcms/guryetours/famous/seomjin/0008/,35.19265111,127.5383672
1,구례군,구례목재문화체험장,전라남도 구례군 간전면 간전중앙로 601,,가능,http://www.gurye.go.kr/mportal/culture/10/001/index.jsp,35.13930089,127.5407245
1,구례군,지리산호수공원,전라남도 구례군 산동면 산업로 1590-62,,,http://ecopark.gurye.go.kr/,35.27788191,127.4217468
1,구례군,피아골계곡과 단풍,전라남도 구례군 토지면 남산길 13,,,http://tour.gurye.go.kr/jcms/guryetours/famous/0010/0004/cultsId=TOUR_000000000000010,35.24557933,127.5901065
1,구례군,지리산정원 숲속수목가옥,전라남도 구례군 광의면 온동2길 126,,,http://ecopark.gurye.go.kr/,35.28819897,127.439434
1,구례군,방호정,전라남도 구례군 산동면 상관1길 45,,,http://tour.gurye.go.kr/jcms/guryetours/famous/0010/0004/cultsId=TOUR_000000000000049,35.31961167,127.4702903
1,구례군,지리산둘레길,전라남도 구례군 구례읍 서시천로 106,,,https://korean.visitkorea.or.kr/detail/ms_detail.docotid=0a4cd7c1-31db-43a4-b925-bf87b9dd643c,35.2166161,127.4668741
1,구례군,장죽전 녹차 시배지,전라남도 구례군 토지면 운조루길 56,,,http://tour.gurye.go.kr/jcms/guryetours/famous/0010/0004/cultsId=TOUR_000000000000038,35.20525291,127.5143399
1,구례군,지리산온천랜드,전라남도 구례군 산동면 지리산온천로 261,,가능,http://www.spaland.co.kr/main.php,35.31796916,127.4570388
1,구례군,화엄사,전라남도 구례군 마산면 화엄사로 539,,,http://www.hwaeomsa.com/index3.php,35.25731602,127.4977197
1,구례군,지리산정원 구례생태숲,전라남도 구례군 광의면 난동길 79-80,,,http://ecopark.gurye.go.kr/,35.28708898,127.4445417
1,구례군,지리산정원 지리산자생식물원,전라남도 구례군 광의면 난동길 79-80,,,http://ecopark.gurye.go.kr/,35.28708898,127.4445417
1,구례군,천왕봉,전라남도 구례군 구례읍 섬진강로 286-59,,,https://korean.visitkorea.or.kr/detail/ms_detail.docotid=50a30171-a8aa-4934-8567-b2596ee373ec,35.18663212,127.4349614
1,구례군,운흥정,전라남도 구례군 산동면 한천길 33,,,https://korean.visitkorea.or.kr/detail/ms_detail.docotid=a977e930-47c8-46ff-b8d1-7a215ec59179,35.30832329,127.4378797
1,구례군,지리산정원 구례산수유자연휴양림,전라남도 구례군 산동면 탑동1길 125,,,http://ecopark.gurye.go.kr/,35.30387891,127.4506685
1,구례군,구산리입석,전라남도 구례군 토지면 섬진강대로 5077,,,http://tour.gurye.go.kr/jcms/guryetours/famous/0010/0004/cultsId=TOUR_000000000000052,35.19877525,127.5225897
1,구례군,용호정,전라남도 구례군 토지면 예촌길 9-21,,,http://tour.gurye.go.kr/jcms/guryetours/famous/0010/0004/cultsId=TOUR_000000000000090,35.19957519,127.497927
1,구례군,석주관칠의사묘,전라남도 구례군 토지면 섬진강대로 4638-8,,,http://tour.gurye.go.kr/jcms/guryetours/famous/0010/0004/cultsId=TOUR_000000000000025,35.19759452,127.5661912
1,구례군,남악사,전라남도 구례군 마산면 화엄사로 539,,,http://tour.gurye.go.kr/jcms/guryetours/famous/0010/0004/cultsId=TOUR_000000000000050,35.25731602,127.4977197
1,구례군,문수사,전라남도 구례군 토지면 문수사길 138,,,http://tour.gurye.go.kr/jcms/guryetours/famous/0010/0004/cultsId=TOUR_000000000000004,35.25268869,127.5388979
1,구례군,연곡사,전라남도 구례군 토지면 피아골로 774,,,http://www.yeongoksa.kr/,35.2547119,127.5892682
1,구례군,천은사,전라남도 구례군 광의면 노고단로 209,,,http://www.choneunsa.org/,35.27309271,127.4763048
1,구례군,구례군,전라남도 구례군 구례읍 봉성로 1,,가능,http://www.gurye.go.kr/kr/,35.20190636,127.4639001
1,구례군,지리산정원 구례수목원,전라남도 구례군 산동면 탑동1길 125,,,http://ecopark.gurye.go.kr/,35.30387891,127.4506685
1,구례군,방산서원,전라남도 구례군 산동면 둔사길 36-13,,,http://tour.gurye.go.kr/jcms/guryetours/famous/0010/0004/cultsId=TOUR_000000000000098,35.28468719,127.4157224
1,구례군,동편제 판소리 전수관,전라남도 구례군 구례읍 동편제길 53,,,https://korean.visitkorea.or.kr/detail/ms_detail.docotid=a23d123b-752e-4cef-96e5-e7dee07dcb48,35.21561721,127.4579852
1,구례군,수락폭포,전라남도 구례군 산동면 수락폭포로 264-23,,,https://korean.visitkorea.or.kr/main/main.do,35.33905379,127.4571043
1,구례군,야생화테마랜드,전라남도 구례군 광의면 온동2길 124,,,http://ecopark.gurye.go.kr/subPage.phppage=020201,35.28722643,127.4388392
1,구례군,쌍산재,전라남도 구례군 마산면 장수길 3-2,,,https://korean.visitkorea.or.kr/main/main.do,35.21570044,127.4979306
1,구례군,운조루,전라남도 구례군 토지면 운조루길 59,,,https://korean.visitkorea.or.kr/detail/ms_detail.docotid=0dcafaec-af97-4338-a539-3d497963f1e7,35.20594498,127.5152886
1,구례군,윤문효공신도비,전라남도 구례군 산동면 둔사길 36-13,,,http://tour.gurye.go.kr/jcms/guryetours/famous/0010/0004/cultsId=TOUR_000000000000066,35.28468719,127.4157224
1,구례군,지리산나들이장터,전라남도 구례군 산동면 지리산온천로 280,,가능,http://www.ojnj.co.kr/,35.31861155,127.4602188
1,구례군,월전리입석,전라남도 구례군 문척면 수달생태로 265,,,https://korean.visitkorea.or.kr/detail/ms_detail.docotid=a977e930-47c8-46ff-b8d1-7a215ec59179,35.19273726,127.4894996
1,구례군,의병장 고광순 순절비,전라남도 구례군 토지면 피아골로 806-16,,,http://tour.gurye.go.kr/jcms/guryetours/famous/0010/0004/cultsId=TOUR_000000000000101,35.25698373,127.5851772
1,구례군,지리산치즈랜드,전라남도 구례군 산동면 구만제로 677,,가능,http://jcheeseland.co.kr/,35.28486789,127.424835
1,구례군,섬진강어류생태관,전라남도 구례군 간전면 간전중앙로 47,,가능,http://sjfish.jeonnam.go.kr/,35.18745224,127.5465226
1,구례군,석주관성,전라남도 구례군 토지면 토지송정길 41-1,,,http://tour.gurye.go.kr/jcms/guryetours/famous/0010/0004/cultsId=TOUR_000000000000054,35.20269219,127.5711117
1,구례군,구례향제줄풍류,전라남도 구례군 구례읍 봉성산길 16,,,https://korean.visitkorea.or.kr/detail/ms_detail.docotid=2cc6dd85-89cb-4cea-a086-50198a3f9150,35.20840816,127.462755
1,구례군,노고단,전라남도 구례군 토지면 문수사길 58-44,,,http://www.knps.or.kr/front/portal/visit/visitCourseMain.doparkId=120100&menuNo=7020100,35.24846888,127.5412295
1,구례군,반야봉,전라북도 남원시 산내면 지리산로 1078-132,,,http://www.knps.or.kr/front/portal/visit/visitCourseMain.doparkId=120100&menuNo=7020100,35.38172718,127.6016522
1,구례군,산수유사랑공원,전라남도 구례군 산동면 상관1길 45,,,https://korean.visitkorea.or.kr/main/main.do,35.31961167,127.4702903
1,구례군,사성암,전라남도 구례군 문척면 사성암길 303,,,https://korean.visitkorea.or.kr/detail/ms_detail.docotid=c195aa97-a0ac-4f9b-a3bd-e01bd6562058,35.18012828,127.4806054
1,구례군,반달가슴곰 생태학습장,전라남도 구례군 마산면 화엄사로 402-31,,홈페이지참조,http://tour.gurye.go.kr/jcms/guryetours/famous/best/0010/,35.24234515,127.4904726
1,구례군,산수유사랑공원,전라남도 구례군 산동면 상관1길 45,,,https://korean.visitkorea.or.kr/main/main.do,35.31961167,127.4702903
1,구례군,구례자연드림파크,전라남도 구례군 용방면 용산로 107-66,,홈페이지참조,http://www.naturaldreampark.co.kr/,35.27323197,127.4141682
1,구례군,구례예술인마을,전라남도 구례군 광의면 난동길 10,,,http://cafe.daum.net/guryeartcity,35.27570841,127.4457612
1,구례군,지리산피아골 오토캠핑장,전라남도 구례군 토지면 원기양지길 26,,가능,http://ecopark.gurye.go.kr/,35.22749717,127.5896615
1,구례군,오미 은하수마을,전라남도 구례군 토지면 운조루길 49-1,,가능,http://www.omidong.com/,35.20618824,127.5142107
1,구례군,구례자연드림파크,전라남도 구례군 용방면 용산로 107-66,,홈페이지참조,http://www.naturaldreampark.co.kr/,35.27323197,127.4141682
1,구례군,산수유시목지 및 산수유테마파크,전라남도 구례군 산동면 계척길 41,,,http://tour.gurye.go.kr/jcms/guryetours/famous/0010/0004/cultsId=TOUR_000000000000030,35.33776938,127.4381215
1,구례군,산수유문화관,전라남도 구례군 산동면 상관1길 45,,,https://korean.visitkorea.or.kr/main/main.do,35.31961167,127.4702903
1,나주시,나주시,전라남도 나주시 시청길 22,,가능,http://www.naju.go.kr/,35.01578414,126.7108389
1,나주시,나주학생독립운동기념관,전라남도 나주시 죽림길 26,,가능,http://www.najusim.or.kr/,35.02806317,126.7262445
1,나주시,국립나주박물관,전라남도 나주시 반남면 고분로 747,,박물관 내 주차장 이용,http://naju.museum.go.kr/html/kr/index.html,34.91485383,126.6589014
1,나주시,불회사,전라남도 나주시 다도면 다도로 1224-142,,가능,http://www.bulhoesa.org/,34.90877918,126.8234812
1,나주시,국립나주박물관,전라남도 나주시 반남면 고분로 747,,가능,http://naju.museum.go.kr/html/kr/index.html,34.91485383,126.6589014
1,나주시,나주시천연염색박물관(한국천연염색박물관),전라남도 나주시 다시면 백호로 379,,가능,http://www.naturaldyeing.or.kr/,34.99403168,126.6625254
1,나주시,전라남도산림자원연구소(산포수목원),전라남도 나주시 산포면 다도로 7,,,https://jnforest.jeonnam.go.kr/,35.00576695,126.8257901
1,담양군,이이남아트센터,전라남도 담양군 담양읍 서원길 27-8,,가능,http://www.juknokwon.go.kr/index.juknokmenuCd=DOM_000000102003000000,35.32802998,126.9870917
1,담양군,한국대나무박물관,전라남도 담양군 담양읍 죽향문화로 35,,가능,http://www.damyang.go.kr/museum/,35.30934367,126.9764088
1,담양군,담양금성산성오토캠핑장,전라남도 담양군 금성면 새덕굴길 135-88,,가능,http://www.gscamp.co.kr/,35.36592836,127.0354425
1,담양군,대담 미술관,전라남도 담양군 담양읍 언골길 5-4,,가능,http://daedam.kr/,35.32531625,126.9834517
1,담양군,보임쉔 공예미술관,전라남도 담양군 대전면 신룡길 79-3,,가능,http://www.artbaum.co.kr/default/main/main.php,35.24869707,126.8795976
1,담양군,담양군,전라남도 담양군 담양읍 추성로 1371,,가능,damyang.go.kr/,35.32065,126.9885732
1,담양군,해동문화예술촌,전라남도 담양군 담양읍 지침1길 6,,,http://dycf.or.kr/,35.31755724,126.9838342
1,담양군,죽녹원,전라남도 담양군 담양읍 죽녹원로 119,,가능,http://www.juknokwon.go.kr/index.juknok,35.32535666,126.9866155
1,담양군,추억의 골목,전라남도 담양군 금성면 금성산성길 282-6,,,https://damyanggolmok.modoo.at/,35.37229616,127.0195824
1,담양군,담양대나무축제,전라남도 담양군 담양읍 향교길 32,,,http://www.bamboofestival.co.kr/,35.32677941,126.9857469
1,담양군,신계꽃차마을,전라남도 담양군 월산면 박산길 41,,가능,https://dyjukbuin.modoo.at/,35.37339292,126.9218418
1,담양군,용오름마을,전라남도 담양군 월산면 용흥사길 224,,가능,http://www.yongohreum.com/,35.35519855,126.8994545
1,담양군,죽화경,전라남도 담양군 봉산면 유산길 11-7,,가능,http://www.bambooflower.co.kr/,35.25530189,126.9584275
1,담양군,호남기후변화체험관,전라남도 담양군 담양읍 메타세쿼이아로 45,,가능,http://gihoo.damyang.go.kr/index.damyang,35.32495533,127.0062507
1,목포시,목포요트마리나,전라남도 목포시 삼학로 88-56,,무료,http://www.mokpo-marina.com/,34.78351409,126.3898655
1,목포시,목포어린이바다과학관,전라남도 목포시 삼학로92번길 98,,,http://mmsm.mokpo.go.kr/html/edu1_1.htm,34.78195651,126.388849
1,목포시,김대중 노벨평화상 기념관,전라남도 목포시 삼학로92번길 68,,무료,http://www.kdjnpmemorial.or.kr/main.htm,34.78285177,126.3922506
1,목포시,국립해양문화재연구소,전라남도 목포시 남농로 136,,무료승용차 50대/대형차 15대,http://www.seamuse.go.kr/seamuseweb/main/Index.domn=KO_01,34.79250238,126.421301
1,목포시,목포자연사박물관,전라남도 목포시 남농로 135,,무료,http://museum.mokpo.go.kr/2011/kor/,34.79372717,126.4210674
1,목포시,평화광장과 춤추는 바다분수,전라남도 목포시 평화로 82,,,http://www.mokpo.go.kr/seafountain,34.79666213,126.4337909
1,무안군,원갑사,전라남도 무안군 해제면 산길로 266-27,,,,35.09074466,126.2621877
1,무안군,느러지 전망대,전라남도 나주시 동강면 동강로 307-226,,,,34.91679126,126.5408977
1,무안군,무안군,전라남도 무안군 무안읍 무안로 530,,가능,http://www.muan.go.kr/,34.99065842,126.4826927
1,무안군,초의선사탄생지,전라남도 무안군 삼향읍 초의길 30,,가능,,34.85383098,126.416084
1,무안군,무안군오승우미술관,전라남도 무안군 삼향읍 초의길 7,,무료,http://museum.muan.go.kr/home/museum,34.85259195,126.4152432
1,무안군,분청사기 명장 전시관,전라남도 무안군 몽탄면 몽탄로 940,,무료,,34.9247849,126.499876
1,무안군,승달산,전라남도 무안군 몽탄면 법천길 529,,,,34.91454004,126.4568274
1,무안군,영산강 자전거길,전라남도 무안군 일로읍 백련로 493-1,,,https://bike.go.kr/nation/14_1,34.86227322,126.5363346
1,무안군,밀리터리 테마파크,전라남도 무안군 몽탄면 우명길 21,,가능,,34.96539664,126.5152333
1,무안군,홀통해수욕장,전라남도 무안군 현경면 홀통길 198-1,,,,35.06163962,126.3321694
1,무안군,톱머리해수욕장,전라남도 무안군 망운면 톱머리길 66-1,,,,34.96877234,126.3834293
1,무안군,조금나루,전라남도 무안군 운남면 운해로 595-1,,,,34.96160211,126.3421124
1,무안군,클린밸리,전라남도 무안군 청계면 태봉길 33-100,,,http://www.muancleanvalley.com/03course/course01.asp,34.94460236,126.4548638
1,무안군,파도목장,전라남도 무안군 현경면 해운로 185-10,,가능,http://www.padofarm.co.kr/,35.06522562,126.4506951
1,보성군,구 보성여관,전라남도 보성군 벌교읍 태백산맥길 19,,무료,http://www.boseonginn.org/,34.843846,127.3432515
1,보성군,득량역 추억의 거리,전라남도 보성군 득량면 방죽길 12-3,,가능,,34.76090791,127.168013
1,보성군,보성 메타세콰이어 가로수길,전라남도 보성군 복내면 복내회룡길 1,,,,34.85476969,127.1095951
1,보성군,보성비봉마리나,전라남도 보성군 득량면 공룡로 822-74,,무료,https://bbmrn2017.modoo.at/,34.70613107,127.1951527
1,보성군,오충사,전라남도 보성군 보성읍 중앙로 80,,,,34.76998464,127.0827465
1,보성군,보성군천문과학관,전라남도 보성군 보성읍 녹차로 773,,가능,http://www.bscamp.kr/,34.71844107,127.0829402
1,보성군,보성군립백민미술관,전라남도 보성군 문덕면 죽산길 168-14,,가능,-,34.9669474,127.1600655
1,보성군,우종미술관,전라남도 보성군 조성면 조성3길 338,,무료,http://www.ujongart.com/default/main/main.php,34.81709589,127.2217642
1,보성군,보성 CC,전라남도 보성군 조성면 조성3길 338,,가능,http://www.bosungcc.co.kr/,34.81709589,127.2217642
1,보성군,강골전통민속마을,전라남도 보성군 득량면 강골길 32-17,,가능,,34.76380972,127.1878377
1,보성군,주월산 패러글라이딩,전라남도 보성군 조성면 높은담2길 39-78,,가능,http://cafe.daum.net/para2009,34.81178783,127.2239401
1,보성군,티벳박물관,전라남도 보성군 문덕면 죽산길 520-1,,무료,http://www.tibetan-museum.org/,34.95915165,127.132037
1,보성군,충절사 (최대성 장군),전라남도 보성군 득량면 충의로 1651,,,,34.77217674,127.155847
1,보성군,대한다원1농원(보성녹차밭),전라남도 보성군 보성읍 녹차로 763-67,,무료,http://dhdawon.com/page/main.asp,34.71565391,127.0787951
1,보성군,보성 이종선 가옥,전라남도 보성군 보성읍 예동길 52,,,,34.74012004,127.0325291
1,보성군,율포해수풀장,전라남도 보성군 회천면 우암길 8,,가능,http://www.boseong.go.kr/tour/theme/seawaterpool/yulposea_pool/facilities_guide,34.66994157,127.0873737
1,보성군,천봉산,전라남도 보성군 문덕면 죽산길 477-6,,,,34.95897202,127.1365826
1,보성군,한국차박물관,전라남도 보성군 보성읍 녹차로 775,,가능,http://www.boseong.go.kr/tea,34.71987643,127.0817099
1,보성군,태백산맥문학관,전라남도 보성군 벌교읍 홍암로 89-19,,가능,http://www.boseong.go.kr/tbsm,34.8492229,127.3522516
1,보성군,율포솔밭해수욕장,전라남도 보성군 회천면 우암길 24,,가능,http://www.boseong.go.kr/tour/tourist/9tour/yulpo_beach,34.67002926,127.0890241
1,보성군,율포해수녹차센터,전라남도 보성군 회천면 우암길 21,,가능,http://www.boseong.go.kr/tour/theme/seawaterpool/yulposea_greentea,34.67091336,127.0886868
1,보성군,보성비봉공룡공원,전라남도 보성군 득량면 공룡로 822-51,,가능,http://bibongdinopark.com/,34.70748031,127.1963382
1,보성군,제암산 자연휴양림,전라남도 보성군 웅치면 대산길 330,,일일 소형 3000 / 대형 5000 / 경차 1500,http://www.jeamsan.go.kr/,34.70050445,126.9855072
1,보성군,일월사,전라남도 보성군 율어면 유신길 195,,,http://www.ilwolsa.co.kr/index.do,34.86765722,127.2300991
1,순천시,순천만국가정원,전라남도 순천시 국가정원1호길 47,,6583대,http://garden.sc.go.kr/,34.92888669,127.4999574
1,순천시,순천시립그림책도서관,전라남도 순천시 도서관길 33,,승용차 20대,https://library.sc.go.kr/pblibrary/,34.95798517,127.4860248
1,순천시,순천드라마촬영장,전라남도 순천시 비례골길 24,,대형 1500 / 소형 500/  경차 250,,34.95810919,127.5378026
1,순천시,송광사,전라남도 순천시 송광면 송광사안길 100,,가능,http://www.songgwangsa.org/,35.00236255,127.2748706
1,순천시,사후면세특화거리,전라남도 순천시 서문성터길 2,,,,34.95839068,127.4828894
1,순천시,아랫장 (아랫장 야시장),전라남도 순천시 장평로 60,,가능,http://aretjang.kr/,34.94514679,127.49609
1,순천시,웃장,전라남도 순천시 북부시장3길 40,,가능,,34.95873386,127.4856854
1,순천시,선암사,전라남도 순천시 승주읍 선암사길 450,,가능,http://www.seonamsa.net/,34.99618213,127.327356
1,순천시,고인돌공원,전라남도 순천시 송광면 고인돌길 543,,가능,https://www.dolmenpark.kr/,34.9798518,127.2255364
1,순천시,순천시,전라남도 순천시 장명로 30,,가능,https://www.suncheon.go.kr/kr/,34.95018842,127.4873744
1,순천시,순천만습지,전라남도 순천시 순천만길 513-25,,승용차 630대,http://www.suncheonbay.go.kr/,34.88579701,127.5092833
1,순천시,낙안읍성,전라남도 순천시 낙안면 충민길 30,,565대,http://nagan.suncheon.go.kr/,34.90640107,127.3418227
1,순천시,순천만습지공예점,전라남도 순천시 순천만길 513-25,,승용차 630대,http://www.suncheonbay.go.kr/,34.88579701,127.5092833
1,신안군,임자해변승마공원,전라남도 신안군 임자면 한틀길 194-46,,,,35.11071734,126.0865883
1,신안군,신안군,전라남도 신안군 압해읍 천사로 1004,,가능,http://www.shinan.go.kr/,34.83360218,126.3514253
1,신안군,대동염전,전라남도 신안군 비금면 서남문로 200,,,,34.7693809,125.9814442
1,신안군,소금박물관,전라남도 신안군 증도면 지도증도로 1058,,가능,http://www.saltmuseum.org/,34.99631801,126.1755207
1,신안군,김대중대통령생가,전라남도 신안군 하의면 후광길 255,,,http://www.pa.go.kr/online_contents/birthplace/sanga/sanga_kdj_info.jsppresident=kdj,34.63188251,126.0296383
1,신안군,문준경전도사 순교기념지,전라남도 신안군 증도면 문준경길 234,,,http://www.mjk1004.org/,35.00243388,126.1353643
1,여수시,여수세계박람회장,전라남도 여수시 박람회길 1,,승용차 1000/1시간5000/일버스 5000/일,http://www.expo2012.kr/main.html,34.75218956,127.7465005
1,여수시,여수밤바다,전라남도 여수시 이순신광장로 101,,,,34.73916504,127.7369093
1,여수시,진남관,전라남도 여수시 동문로 11,,무료,,34.74134982,127.7365704
1,여수시,거문도,전라남도 여수시 삼산면 거문길 103,,,,34.02745182,127.308915
1,여수시,영취산 진달래,전라남도 여수시 흥국사길 160,,,,34.82281621,127.7016059
1,여수시,유월드 루지 테마파크,전라남도 여수시 소라면 안심산길 155,,,http://u-world.kr/,34.7479095,127.6414635
1,여수시,여수해상케이블카,전라남도 여수시 돌산읍 돌산로 3600-1,,무료,http://yeosucablecar.com/,34.73058792,127.7415247
1,여수시,여수시,전라남도 여수시 시청로 1,,가능,http://www.yeosu.go.kr/index.jsp,34.76014841,127.661568
1,영광군,백수해안도로,전라남도 영광군 백수읍 해안로 957,,가능,,35.35373193,126.3892814
1,영광군,백제불교최초도래지,전라남도 영광군 법성면 백제문화로 203,,가능,,35.36194462,126.4311349
1,영광군,원불교 영산성지,전라남도 영광군 백수읍 성지로 1345,,가능,https://guide.won.or.kr/pages/sungji/youngsan,35.3272946,126.4433023
1,영광군,기독교인 순교지,전라남도 영광군 염산면 향화로5길 34-30,,가능,,35.21303014,126.3762932
1,영광군,천주교인 순교지,전라남도 영광군 영광읍 중앙로2길 40,,가능,,35.27272113,126.5140028
1,영광군,불갑사,전라남도 영광군 불갑면 불갑사로 450,,가능,http://kb1.templestay.com/index.aspt_id=bulgapsa11,35.19967508,126.5500476
1,영광군,칠산타워,전라남도 영광군 염산면 향화로 2-10,,가능,,35.16863371,126.3603067
1,영광군,영광군,전라남도 영광군 영광읍 중앙로 203,,가능,http://www.yeonggwang.go.kr/,35.27689466,126.5123473
1,영광군,송이도 (송이도마을),전라남도 영광군 낙월면 송이길 25-1,,,,35.27503595,126.1518608
1,영광군,가마미 해수욕장,전라남도 영광군 홍농읍 가마미로 357-21,,,,35.39849556,126.4089878
1,영광군,불갑저수지수변공원,전라남도 영광군 불갑면 방마로 151,,가능,,35.2214976,126.5142309
1,영광군,숲쟁이공원,전라남도 영광군 법성면 백제문화로 67,,가능,,35.36448505,126.4346074
1,영광군,천일염전,전라남도 영광군 백수읍 백수로3길 257-26,,,,35.27767231,126.3388733
1,영암군,전라남도 농업박물관,전라남도 영암군 삼호읍 녹색로 653-15,,가능,https://www.jam.go.kr/website_id=19,34.77733107,126.4590438
1,영암군,영암군,전라남도 영암군 영암읍 군청로 1,,가능,http://www.yeongam.go.kr/,34.80019063,126.6968002
1,영암군,영암 목재문화체험장,전라남도 영암군 군서면 상대포로 37,,가능,http://www.gitree.org/www/,34.75757748,126.6253009
1,영암군,월출산 국립공원,전라남도 영암군 군서면 도갑사로 286,,가능,http://www.knps.or.kr/front/portal/visit/visitCourseMain.doparkId=121700&menuNo=7020098,34.75388528,126.659103
1,영암군,월출산 기찬랜드,전라남도 영암군 영암읍 기찬랜드로 41-13,,무료,,34.79093791,126.6857737
1,영암군,왕인박사유적지,전라남도 영암군 군서면 왕인로 440,,소형 1500 / 중형 2000 / 대형 2500,,34.75653038,126.6291211
1,영암군,도갑사와 도선국사,전라남도 영암군 군서면 도갑사로 306,,경차 2000 / 중.소형 4~5000 / 대형 6~7000,https://www.dogapsa.com/,34.75337646,126.6625133
1,영암군,영암국제자동차경주장,전라남도 영암군 삼호읍 에프원로 2,,가능,https://www.koreacircuit.kr:442/web,34.73812626,126.4155932
1,완도군,가고싶은섬 여서도,전라남도 완도군 청산면 여서도길 1,,,,33.98802653,126.9237437
1,완도군,완도타워,전라남도 완도군 완도읍 장보고대로 330,,가능,,34.31443839,126.763267
1,완도군,장도청해진유적지,전라남도 완도군 완도읍 청해진로1369번길 51,,,http://www.wando.go.kr/tour,34.35900154,126.7328206
1,완도군,신지 명사십리해수욕장,전라남도 완도군 신지면 명사십리길 85-105,,,,34.32731753,126.8088597
1,완도군,완도수목원,전라남도 완도군 군외면 초평1길 156,,경차 1500 / 소형 3000 / 대형 무료,http://www.wando-arboretum.go.kr/2011/main.html,34.36065258,126.6635321
1,완도군,주도(천연기념물28호),전라남도 완도군 완도읍 장보고대로 339,,,,34.31652049,126.7611504
1,완도군,완도군,전라남도 완도군 완도읍 청해진남로 51,,,http://www.wando.go.kr/,34.31097244,126.7549613
1,완도군,보길도 윤선도 원림,전라남도 완도군 보길면 부황길 29,,,https://www.wando.go.kr/tour/attraction/main_tour/wonlim,34.16515591,126.5580466
1,완도군,완도 장보고 기념관,전라남도 완도군 완도읍 청해진로 1455,,,http://www.wando.go.kr/changpogo,34.3550953,126.730162
1,완도군,해조류센터,전라남도 완도군 완도읍 해변공원로 84,,가능,http://www.wando.go.kr/tour,34.32078312,126.7487929
1,완도군,장보고기념관 (장보고공원),전라남도 완도군 완도읍 청해진로 1455,,가능,,34.3550953,126.730162
1,완도군,청해포구세트장,전라남도 완도군 완도읍 청해진서로 1161-8,,무료,http://www.wandoro.co.kr/,34.32293555,126.6705189
1,완도군,정도리구계등(명승제3호),전라남도 완도군 완도읍 정도1길 80,,무료,http://www.wando.go.kr/tour,34.29904878,126.7025153
1,장성군,금곡영화마을,전라남도 장성군 북일면 영화마을길 238,,,http://www.jangseong.go.kr/home/tour,35.39488288,126.7349701
1,장성군,입암산성,전라남도 장성군 북하면 남창로 400,,,http://www.jangseong.go.kr/home/tour,35.45924975,126.8416583
1,장성군,장성군,전라남도 장성군 장성읍 영천로 200,,가능,http://www.jangseong.go.kr/,35.30191231,126.7848767
1,장성군,요월정원림,전라남도 장성군 황룡면 요월정로 84-5,,,http://www.jangseong.go.kr/home/tour/spectacle/cultural_assets/provinces/show/32page=1,35.27756282,126.7462588
1,장성군,축령산 편백숲(편백치유의숲),전라남도 장성군 서삼면 추암로 455-26,,,,35.34829901,126.7310239
1,장성군,홍길동테마파크,전라남도 장성군 황룡면 홍길동로 431,,가능,http://www.jangseong.go.kr/home/honggildong,35.31862071,126.7265578
1,장성군,백양사,전라남도 장성군 북하면 백양로 1239,,가능,http://baekyangsa.kr/,35.43972649,126.8828606
1,장성군,장성호 1지,전라남도 장성군 북하면 백양로 591-4,,가능,,35.413732,126.8508165
1,장성군,황룡 전적지,전라남도 장성군 황룡면 물뫼길 25,,,https://korean.visitkorea.or.kr/detail/ms_detail.docotid=a47be7a0-13f3-40a9-a649-618c37e2e65d,35.29578028,126.754415
1,장성군,필암서원,전라남도 장성군 황룡면 필암서원로 184,,,http://www.jangseong.go.kr/home/tour/spectacle/view/view_06,35.31095965,126.7519306
1,장성군,박수량 백비,전라남도 장성군 황룡면 백비길 45,,,http://www.jangseong.go.kr/home/tour/spectacle/cultural_assets/provinces/show/29page=1,35.32674542,126.7315101
1,장성군,방장산 자연휴양림 (방장산),전라남도 장성군 북이면 방장로 353,,,,35.44405218,126.7514053
1,장성군,고산서원,전라남도 장성군 진원면 고산로 68,,,http://www.jangseong.go.kr/home/tour/spectacle/cultural_assets/provinces/show/33page=1,35.27253541,126.8418215
1,장성군,봉암서원,전라남도 장성군 장성읍 화차길 159,,,http://www.jangseong.go.kr/home/tour/spectacle/cultural_assets/provinces/show/34page=2,35.32218231,126.7879206
1,장성군,장성호수변길,전라남도 장성군 장성읍 신흥로 94-5,,,http://www.jangseong.go.kr/home/tour,35.35042233,126.8177329
1,장흥군,천관산,전라남도 장흥군 관산읍 천관산길 103,,,,34.54895033,126.9363958
1,장흥군,탐진강,전라남도 장흥군 회진면 가학회진로 1212,,,http://festival.jangheung.go.kr/festival/device_mode=system_change&device=default,34.46225674,126.9403846
1,장흥군,소등섬,전라남도 장흥군 용산면 정남진해안로 1445,,,,34.59638607,126.9953212
1,장흥군,천관문학관,전라남도 장흥군 대덕읍 천관산문학길 160,,가능,,34.51564909,126.9034541
1,장흥군,제암산,전라남도 장흥군 장동면 신북1길 41-10,,,,34.75057592,126.9955616
1,장흥군,유치자연휴양림,전라남도 장흥군 유치면 휴양림길 154,,일일 소형 3000 / 대형 5000,http://www.jangheung.go.kr/yuCHN,34.76806422,126.832351
1,장흥군,정남진 물과학관,전라남도 장흥군 장흥읍 행원강변길 20,,가능,http://www.jangheung.go.kr/water,34.686038,126.9001079
1,장흥군,정남진 천문과학관,전라남도 장흥군 장흥읍 평화우산길 180-608,,,http://star.jangheung.go.kr/,34.65811173,126.9258628
1,장흥군,장흥목재문화체험장,전라남도 장흥군 장흥읍 우드랜드길 180,,,http://www.jhwoodland.co.kr/,34.66960328,126.9336692
1,장흥군,정남진 장흥토요시장,전라남도 장흥군 장흥읍 토요시장3길 15,,가능,http://www.jangheung.go.kr/jnjmarket,34.67636797,126.9028619
1,장흥군,선학동 유채 마을,전라남도 장흥군 회진면 회진중앙길 12,,,,34.48135076,126.9394337
1,장흥군,심천공원 오토캠핑장,전라남도 장흥군 부산면 심천공원길 25-38,,가능,http://www.sccamp.kr/,34.75115767,126.8940519
1,장흥군,해동사,전라남도 장흥군 장동면 만수길 25-121,,가능,,34.74758258,126.9385711
1,장흥군,장흥향교,전라남도 장흥군 장흥읍 교촌남외길 33,,,,34.67427463,126.8933262
1,장흥군,장흥동학농민혁명기념관,전라남도 장흥군 장흥읍 읍성로 2,,가능,,34.66918564,126.8953519
1,장흥군,보림사,전라남도 장흥군 유치면 보림사로 224,,가능,,34.80723488,126.8970543
1,장흥군,장흥군,전라남도 장흥군 장흥읍 장흥로 21,,가능,http://www.jangheung.go.kr/,34.68170119,126.9070145
1,장흥군,정남진해양낚시공원,전라남도 장흥군 회진면 해양낚시길 137,,가능,http://www.jhfishingpark.kr/,34.4702621,126.976925
1,장흥군,정남진전망대,전라남도 장흥군 관산읍 정남진해안로 242-58,,가능,,34.51173109,126.974628
1,장흥군,방촌유물전시관,전라남도 장흥군 관산읍 장흥대로 1645,,가능,,34.55098982,126.9432525
1,장흥군,정남진 편백숲 우드랜드,전라남도 장흥군 장흥읍 우드랜드길 180,,가능,http://www.jhwoodland.co.kr/site=basic,34.66960328,126.9336692
1,완도군,완도 장보고 기념관,전라남도 완도군 완도읍 청해진로 1455,,,http://www.wando.go.kr/changpogo,34.3550953,126.730162
1,진도군,진도군,전라남도 진도군 진도읍 철마길 25,,가능,https://www.jindo.go.kr/home/main.cs,34.48683211,126.2635764
1,진도군,배중손사당,전라남도 진도군 임회면 진도대로 4212,,,,34.36942678,126.1997742
1,진도군,동석산 천종사,전라남도 진도군 지산면 하심동길 14-36,,,,34.4164157,126.1236505
1,진도군,국립진도자연휴양림,전라남도 진도군 임회면 동령개길 1-92,,일일 경차 1500 / 중소형 3000 / 대형 5000,http://www.huyang.go.kr/comforestmain.actiondprtmId=0201,34.3575367,126.1864388
1,진도군,국립남도국악원,전라남도 진도군 임회면 진도대로 3818,,가능,https://jindo.gugak.go.kr/,34.38597825,126.2258479
1,진도군,장전미술관 (구 남진미술관),전라남도 진도군 임회면 하미길 39,,무료,,34.4297596,126.2379554
1,진도군,토요민속여행 상설공연,전라남도 진도군 진도읍 진도대로 7197,,무료,,34.47970593,126.2685772
1,진도군,진도민속문화예술단공연,전라남도 진도군 진도읍 해창길 39,,문의,http://www.jindominsok.com/,34.48596493,126.2368948
1,함평군,함평군,전라남도 함평군 함평읍 중앙길 200,,가능,https://www.hampyeong.go.kr/,35.06584835,126.5162188
1,함평군,함평양서파충류생태공원,전라남도 함평군 신광면 학동로 1398-9,,가능,http://www.hampyeong.go.kr/herptile/,35.13834005,126.4937003
1,함평군,함평해수찜,전라남도 함평군 손불면 석산로 79,,가능,,35.10119296,126.4641385
1,함평군,일강김철선생기념관,전라남도 함평군 신광면 일강로 873-12,,,http://www.hampyeong.go.kr/ilgang/,35.18893103,126.4801235
1,함평군,용천사 꽃무릇공원,전라남도 함평군 해보면 용천사길 209,,가능,,35.18352786,126.5452774
1,함평군,함평자연생태공원,전라남도 함평군 대동면 학동로 1398-77,,무료,http://www.hampyeong.go.kr/ecopark/,35.13500032,126.5057
1,함평군,함평엑스포공원,전라남도 함평군 함평읍 곤재로 27,,가능,http://www.hampyeong.go.kr/expopark/,35.05813923,126.5226056
1,함평군,농촌체험마을 모평,전라남도 함평군 해보면 산내길 55-63,,,,35.1757362,126.5542579
1,해남군,해남군,전라남도 해남군 해남읍 군청길 4,,가능,http://www.haenam.go.kr/,34.57347896,126.5990654
1,해남군,해남군,전라남도 해남군 해남읍 군청길 4,,가능,http://www.haenam.go.kr/tour/,34.57347896,126.5990654
1,해남군,땅끝해양자연사박물관,전라남도 해남군 송지면 중대동길 5-4,,,,34.3249046,126.5672054
1,해남군,해남 대흥사,전라남도 해남군 삼산면 대흥사길 400,,주차요금 : 3000원,http://www.daeheungsa.co.kr/,34.47714631,126.6166275
1,해남군,고산윤선도 유적지,전라남도 해남군 해남읍 녹우당길 135,,,http://www.haenam.go.kr/tour/,34.55101668,126.6219247
1,화순군,죽수서원,전라남도 화순군 한천면 학포로 1786-45,,무료,,34.98525854,126.9726776
1,화순군,화순8경 세량지,전라남도 화순군 화순읍 세량길 17-1,화순군 화순읍 세량리 100,,,35.07453133,126.914315
1,화순군,화순향교,전라남도 화순군 화순읍 교동2길 14,,무료,,35.06518796,126.9825724
1,화순군,화순7경 연둔리 숲정이,전라남도 화순군 동복면 연동길 134,전라남도 화순군 동복면 연둔리 472-1,,,35.04277628,127.1123924
1,화순군,능주향교,전라남도 화순군 능주면 교촌길 36,,,,34.9895869,126.9513475
1,화순군,해망서원,전라남도 화순군 춘양면 섶메길 37-1,,무료,,34.9590356,126.9403357
1,화순군,도원서원,전라남도 화순군 동복면 연곡길 137,,무료,,35.08122469,127.1203321
1,화순군,만연사,전라남도 화순군 화순읍 진각로 367,,무료,http://xn--lz2bu9jsxe.kr/manyeon/index.asp,35.08310037,126.9844229
1,화순군,운주사,전라남도 화순군 도암면 천태로 91-44,,무료,https://www.unjusa.kr/,34.92906333,126.8825635
1,화순군,환산정,전라남도 화순군 동면 백천로 236-1,,,,35.0539299,127.0358099
1,화순군,화순6경 이서 규봉암,전라남도 화순군 이서면 도원길 40-28,,,,35.11813095,127.0157838
1,화순군,화순4경 고인돌 유적지,전라남도 화순군 춘양면 지동길 10,,,,34.96675034,126.9431973
1,화순군,화순군,전라남도 화순군 화순읍 동헌길 23,,가능,http://www.hwasun.go.kr/,35.06459009,126.9861688
1,화순군,화순5경 만연산 철쭉공원,전라남도 화순군 화순읍 안양산로 294,,,,35.08486112,127.001008
1,화순군,화순2경 운주사,전라남도 화순군 도암면 천태로 91-44,,,,34.92906333,126.8825635
1,화순군,화순1경 화순적벽,전라남도 화순군 이서면 적벽로 630-1,,,http://tour.hwasun.go.kr,35.1122037,127.1159188
1,화순군,만연산 철쭉공원,전라남도 화순군 화순읍 안양산로 294,,노변주차 / 주차장 조성 예정,,35.08486112,127.001008
1,화순군,도곡온천,전라남도 화순군 도곡면 온천1길 45,,가능,,35.02927955,126.9027909
1,화순군,화순온천(금호리조트),전라남도 화순군 화순읍 쌍충로 88,,가능,,35.05960521,126.9819593
1,화순군,무등산양떼목장,전라남도 화순군 화순읍 안양산로 537,,가능,http://mudeungsan-yangtte.co.kr/gnuboard4/,35.09530318,127.0118772
1,화순군,오지호기념관,전라남도 화순군 동복면 독상1길 10,,가능,,35.06802572,127.1309502
1,화순군,천불천탑사진문화관,전라남도 화순군 도암면 천태로 91-20,,가능,http://art.hwasun.go.kr/index.doS=S12,34.91804535,126.8776541
1,화순군,화순군립석봉미술관,전라남도 화순군 화순읍 진각로 249-8,,가능,http://sbart.or.kr/,35.0733094,126.9875228
1,화순군,무등산편백휴양림,전라남도 화순군 이서면 안양산로 685,,소중형 2000 / 일  대형 5000/일,http://moodoong.com/,35.09354584,127.0267775
1,화순군,한천휴양림,전라남도 화순군 한천면 죽헌로 719,,소중형 3000 / 일  대형 4000/일,http://forest.hwasun.go.kr/index.doS=FOREST,34.98834269,127.0454818