main_id,area,name,address1,parking,homepage,tel,menu,holiday,latitude,longitude,landmark
2,광양시,백운목장,전라남도 광양시 동광1길 6,가능,,061-794-6292,육류,일요일,34.940116,127.7006108,구봉산 전망대
2,광양시,옛고을 그향기,전라남도 광양시 발섬4길 17-6 1층,가능,,061-791-5134,한정식,연중무휴,34.9344907,127.7007269,이순신대교
2,광양시,왕창국밥,전라남도 광양시 눈소로 36,가능,,061-793-0695,국밥,일요일,34.9361483,127.705178,이순신대교
2,광양시,가마솥뚝배기,전라남도 광양시 행정1길 2,가능,,061-794-9339,감자탕,"첫째,세째 일요일",34.9416364,127.6936383,구봉산 전망대
2,광양시,통뼈감자탕 동광양점,전라남도 광양시 오류4길 20 1층,가능,http://www.gamjatang.com/,061-791-0233,감자탕,연중무휴,34.9366775,127.697494,구봉산 전망대
2,광양시,청주본가 광양점,전라남도 광양시 항만9로 134 1층,가능,,061-795-9208,,연중무휴,34.926938,127.698245,이순신대교
2,광양시,금정,전라남도 광양시 시청로 27,가능,,061-792-3000,육류,연중무휴,34.9398469,127.6948161,구봉산 전망대
2,광양시,삼대전주옥전주콩나물해장국,전라남도 광양시 길호1길 11 1층,가능,http://3jeonjuok.modoo.at/,061-791-2888,국밥,연중무휴,34.9310208,127.6971799,이순신대교
2,광양시,정원,전라남도 광양시 광장로 148-9 1층,가능,,061-791-9935,샤브샤브,첫째주 셋째주 일요일,34.9373496,127.6960863,구봉산 전망대
2,광양시,남도식당,전라남도 광양시 중마청룡길 6-5,가능,,061-795-3434,게요리,연중무휴,34.940185,127.699471,구봉산 전망대
2,광양시,백년백세고려삼계탕,전라남도 광양시 사동로 231,가능,,061-793-1034,백숙,"2, 4주 일요일",34.953839,127.6953234,구봉산 전망대
2,광양시,만리장성,전라남도 광양시 광영로 28,가능,,061-791-0084,중식,첫째 세째 일요일,34.9621885,127.7259827,배알도 수변공원
2,광양시,광양순대국,전라남도 광양시 금영로 175-1,가능,,061-793-0018,육류,일요일,34.965853,127.718501,광양 윤동주 유고보존 정병욱 가옥
2,광양시,해정맛집,전라남도 광양시 정수2길 20,가능,,061-792-8640,한식,일요일,34.9626022,127.7207521,배알도 수변공원
2,광양시,박여사국밥,전라남도 광양시 남산1길 12,가능,,061-794-5666,국밥,"2, 4주 일요일",34.961476,127.7244083,배알도 수변공원
2,광양시,가마솥뚝배기 광영점,전라남도 광양시 영수길 102,가능,,061-791-2202,한식,"2, 4주 일요일",34.9656594,127.7176234,광양 윤동주 유고보존 정병욱 가옥
2,광양시,가야골식당,전라남도 광양시 남산길 40,가능,,061-793-8868,한식,,34.961566,127.726212,배알도 수변공원
2,광양시,포항물횟집,전라남도 광양시 광영로 150-1 포항물횟집,가능,,061-792-9834,생선회,연중무휴,34.9660385,127.7173152,광양 윤동주 유고보존 정병욱 가옥
2,광양시,동해횟집,전라남도 광양시 나룻1길 42,가능,,061-793-3007,생선회,일요일,34.9616777,127.7282597,배알도 수변공원
2,광양시,백리향,전라남도 광양시 삼봉산로 21,가능,,061-794-2349,중식,"첫째,세째 일요일",34.9361,127.745215,배알도 수변공원
2,광양시,매화곱창,전라남도 광양시 광양읍 서평1길 88,,,061-763-6402,"곱창,막창,양",일요일,34.9826096,127.5790875,광양만권 경제자유구역 홍보관
2,광양시,시민국밥,전라남도 광양시 광양읍 서천2길 19-1,,,061-762-9285,한식,"2, 4주 일요일",34.9710925,127.5802464,보광사(광양)
2,광양시,해동가든,전라남도 광양시 광양읍 서천1길 27,,,061-762-5417,돼지고기,월요일,34.9683851,127.5803962,보광사(광양)
2,광양시,진주명가,전라남도 광양시 광양읍 서북3길 38,,http://061-761-0601.okqr.co.kr,061-761-0601,냉면,연중무휴,34.973651,127.5764091,보광사(광양)
2,광양시,모은정,전라남도 광양시 광양읍 서북로 23,가능,,061-763-0664,한식,일요일,34.9729373,127.5788542,보광사(광양)
2,광양시,왕창국밥,전라남도 광양시 광양읍 희양현로 30,,,061-762-4870,"찌개,전골",연중무휴,34.9744699,127.5857924,광양문화원
2,광양시,신가가마솥,전라남도 광양시 광양읍 희양현로 30,,,061-763-7556,순대국,"2, 4주 일요일",34.9744513,127.5859125,광양문화원
2,광양시,우진식당,전라남도 광양시 광양읍 개성3길 8-31,,,061-763-3382,"사철,영양탕","첫째,세째/일요일",34.9731617,127.5926414,광양문화원
2,광양시,필브라더,전라남도 광양시 광양읍 매천로 745,,,061-763-8651,한식,일요일,34.9782721,127.5782441,광양 장도박물관
2,광양시,뼈통묵은지감자탕,전라남도 광양시 광양읍 인덕로 901,가능,,061-763-6001,감자탕,연중무휴,34.9635513,127.5787125,보광사(광양)
2,광양시,지곡산장,전라남도 광양시 광양읍 서북로 59,가능,,061-761-3335,닭요리,매주월요일,34.975522,127.5765211,보광사(광양)
2,강진군,둥지식당,전라남도 강진군 강진읍 보은로3길 48-3,가능,,061-433-2080,한정식,,34.6412371,126.7700624,강진군도서관
2,강진군,가족회관,전라남도 강진군 강진읍 영랑로4길 28,가능,,061-433-1236,돼지고기,,34.6398338,126.7708187,강진군도서관
2,강진군,강진한우직판장,전라남도 강진군 강진읍 영랑로1길 3,가능,,061-433-6190,육류,일요일,34.6374498,126.7696787,강진문화원
2,강진군,오뚜기식당,전라남도 강진군 강진읍 영랑로3길 10-1,가능,,061-433-6161,한식,,34.638506,126.769692,강진문화원
2,강진군,은행나무,전라남도 강진군 강진읍 영랑로4길 30,가능,,061-433-2366,한정식,,34.6399404,126.7709625,강진군도서관
2,강진군,금강산식당,전라남도 강진군 강진읍 영랑로4길 21 1층,가능,,061-434-8833,돼지고기,,34.6397518,126.770268,강진군도서관
2,강진군,오케이식당,전라남도 강진군 강진읍 영랑로1길 23-1,가능,,061-432-8072,한식,,34.6385897,126.771429,강진문화원
2,강진군,거목촌식당,전라남도 강진군 강진읍 서성안길 4,가능,,061-434-2106,육류,,34.6392874,126.7681052,강진군도서관
2,강진군,복섬,전라남도 강진군 강진읍 영랑로3길 15,가능,,061-434-1226,맥주,"2, 4주 월요일",34.6388539,126.7698881,강진문화원
2,강진군,다복,전라남도 강진군 강진읍 보은로3길 12,가능,http://cityfood.co.kr/h9/namseonglidabok,061-434-4774,한식,일요일,34.638692,126.77247,강진 오감통
2,강진군,유미정,전라남도 강진군 강진읍 탐진로 60 201동 111호,가능,,061-433-6222,돼지고기,,34.6382518,126.7639687,강진영랑생가
2,강진군,명동식당,전라남도 강진군 강진읍 서성안길 5,가능,,061-433-2147,한정식,,34.6389852,126.7673183,강진군도서관
2,강진군,이바돔감자탕 강진점,전라남도 강진군 강진읍 탐진로 61,가능,http://www.ebadom.com/,061-433-8535,감자탕,,34.6383591,126.7636509,강진영랑생가
2,강진군,참숯골,전라남도 강진군 강진읍 송계로 20,가능,,061-433-5240,육류,"2, 마지막주 일요일",34.6340663,126.7596425,강진영랑생가
2,강진군,청자골한식뷔페,전라남도 강진군 강진읍 해강로 974,가능,,061-433-7403,육류,,34.5973153,126.7342249,강진 백련사 동백나무 숲
2,강진군,백악관,전라남도 강진군 군동면 종합운동장길 50-16,가능,,061-433-0508,육류,,34.6436111,126.7806724,강진 오감통
2,강진군,남강식당,전라남도 강진군 군동면 청자로 255,가능,,061-433-9570,한식,,34.623312,126.796516,금산원
2,강진군,대지식당,전라남도 강진군 칠량면 칠량로 73,가능,,061-432-2333,한식,"2, 4주 일요일",34.5721167,126.7990639,강진만
2,강진군,매자리식당,전라남도 강진군 칠량면 청자로 1157,가능,,061-433-7035,한식,"2, 4주 월요일",34.548543,126.801109,하저어촌체험마을
2,강진군,송학가든횟집,전라남도 강진군 도암면 해안관광로 1317,가능,,061-433-8544,생선회,"첫째주,셋째주 월요일",34.553825,126.767638,가우도 출렁다리
2,강진군,석문정,전라남도 강진군 도암면 백도로 2059-7,가능,,061-434-6660,오리요리,"첫째주,셋째주 일요일",34.5582261,126.7236994,해남윤씨 영모당
2,강진군,선창식당,전라남도 강진군 신전면 운주로 636,가능,,061-434-0790,생선회,,34.4724679,126.7524,강진 갯들소리마을
2,강진군,만호성,전라남도 강진군 마량면 미항로 5-17,가능,,061-433-2209,육류,일요일,34.458452,126.815718,강진마도진만호성지
2,강진군,치킨아이,전라남도 강진군 마량면 미항로 145-1,가능,,061-433-3310,치킨,,34.449531,126.8181773,마량미항(마량항)
2,강진군,정가네감자탕,전라남도 강진군 마량면 마량5길 20,가능,,061-433-3132,한식,,34.450054,126.817576,마량미항(마량항)
2,해남군,꽃담,전라남도 해남군 해남읍 교육청길 29-7,가능,,061-536-8218,오리요리,월요일,34.5680373,126.6096402,해촌서원
2,해남군,마루,전라남도 해남군 해남읍 남부순환로 13-3,,,061-533-6436,낙지,,34.569774,126.607216,해남향교
2,해남군,이학식당,전라남도 해남군 해남읍 북부순환로 83,가능,,061-532-0203,백반,,34.5731417,126.602675,해남문화원
2,해남군,유락횟집,전라남도 해남군 해남읍 남부순환로 25,가능,,061-534-1449,일식,일요일,34.5688375,126.6064286,해남문화원
2,해남군,아지매식당,전라남도 해남군 해남읍 읍내길 32,,,061-536-2885,백반,,34.5713131,126.5999858,해남문화원
2,해남군,태평양횟집,전라남도 해남군 해남읍 북부순환로 92,가능,,061-534-8131,생선회,일요일,34.5682755,126.6063543,해남문화원
2,해남군,진성,전라남도 해남군 해남읍 북부순환로 108,가능,,061-537-7667,추어탕,토요일,34.5742136,126.6001106,해남문화원
2,해남군,성내,전라남도 해남군 해남읍 명문길 19-1,가능,,061-533-4774,샤브샤브,일요일,34.5757194,126.597662,해남문화예술회관
2,해남군,반갑다친구야,전라남도 해남군 해남읍 천변2길 53,가능,,061-536-1531,육류,일요일,34.5719994,126.6022485,해남문화원
2,해남군,돌고개가든,전라남도 해남군 해남읍 고산로 287 돌고개가든,가능,,061-537-7100,닭요리,,34.54145,126.6120625,고산유물전시관
2,해남군,진일관,전라남도 해남군 해남읍 명량로 3009,가능,,061-532-9932,한식,,34.5808041,126.5814621,해남문화예술회관
2,해남군,향원,전라남도 해남군 해남읍 구교2길 33,가능,,061-534-2100,육류,"2, 4주 토요일",34.578139,126.593299,해남문화예술회관
2,해남군,어성장어센타,전라남도 해남군 삼산면 해남화산로 464,가능,,061-534-4944,장어,,34.525472,126.5564049,김남주 생가
2,해남군,팔도강산,전라남도 해남군 삼산면 대흥사길 88-30,가능,,061-532-2233,한식,,34.4970166,126.6235749,두륜산케이블카
2,해남군,한오백년,전라남도 해남군 삼산면 대흥사길 158 한오백년,가능,,061-534-5633,한식,,34.4970016,126.6170489,두륜산케이블카
2,해남군,북일기사식당,전라남도 해남군 북일면 백도로 783 북일기사식당,가능,,061-535-2558,한식,,34.4626631,126.6728065,성도사
2,해남군,육일시한우촌,전라남도 해남군 마산면 산이로 322,가능,,061-532-6162,소고기구이,"매월 첫째, 세째주 일요일",34.6096421,126.528379,해남 해바라기농장
2,해남군,물레방아뷔페식당,전라남도 해남군 마산면 명량로 2876,가능,,061-535-1119,한식,연중무휴,34.5837381,126.5676707,해남문화예술회관
2,해남군,궁전회관,전라남도 해남군 황산면 시등로 86-1,가능,,061-533-3881,육류,매주일요일,34.5765532,126.4348891,우항리 공룡화석 자연사유적지
2,해남군,명승,전라남도 해남군 문내면 명량로 43-18,가능,,061-534-7770,생선회,첫째주 월요일,34.5830161,126.3105126,해남 명량대첩비
2,해남군,사천성,전라남도 해남군 화원면 청용길 42,가능,,061-532-0020,중식,,34.668383,126.329489,서동사(해남)
2,여수시,오성회관,전라남도 여수시 이순신광장로 206,,,061-663-5982,육류,,34.7394564,127.7450243,여수시문화원
2,여수시,오동도회관,전라남도 여수시 오동도로 98-1,가능,,061-662-5074,생선회,,34.7417818,127.7519937,엑스포해양공원
2,여수시,녹원갈비,전라남도 여수시 공화남3길 22-1,,,061-665-8729,육류,연중무휴,34.747575,127.74534,아쿠아플라넷 여수
2,여수시,호남갈비,전라남도 여수시 동문로 93-1,가능,,061-662-3501,소고기구이,첫째주 수요일,34.7450401,127.7419041,여수 진남관
2,여수시,북경반점,전라남도 여수시 동문로 38-1,,,061-662-5544,중식,월요일,34.7410596,127.7393375,여수 타루비
2,여수시,노래미식당,전라남도 여수시 중앙1길 10,가능,,061-662-3782,일식,"첫째, 세째 일요일",34.740116,127.736647,이순신광장
2,여수시,광양숯불고기,전라남도 여수시 통제영2길 8-10,,http://www.ok114.co.kr/0616629797,061-662-9797,육류,연중무휴,34.7406394,127.7333378,이순신광장
2,여수시,어육촌,전라남도 여수시 충무로 58-10,,,061-663-6669,한정식,매주일요일,34.7417044,127.731674,여수향교
2,여수시,약수닭집,전라남도 여수시 구봉산길 77-8,가능,,061-642-8500,백숙,"10월 ~3월 매월 둘째,네째주 화요일 4월~9월 무휴",34.7386554,127.7132144,한산사(여수)
2,여수시,청운갈비,"전라남도 여수시 신월로 638, 1층 (국동)",가능,,061-643-7734,돼지고기,"매월 둘째,네째 수요일",34.728582,127.715164,한산사(여수)
2,여수시,혜미횟집,전라남도 여수시 어항단지로 115,가능,,061-641-8500,생선회,,34.726445,127.721123,외동어촌체험마을
2,여수시,구봉산장식당,전라남도 여수시 구봉2길 10,가능,,061-643-0008,백숙,"매월 둘째,네째 화요일",34.7323151,127.7120538,한산사(여수)
2,여수시,생금생오리,전라남도 여수시 신월로 620,가능,,061-642-5501,오리요리,1주 화요일,34.727655,127.7137349,한산사(여수)
2,여수시,섹시한돼지,전라남도 여수시 여문문화1길 76,,,061-654-6924,돼지고기,일요일,34.7503798,127.7007183,한산사(여수)
2,여수시,콩산소,전라남도 여수시 여문문화길 64,,http://cityfood.co.kr/h9/jeonju4310,061-653-4310,국밥,,34.7516607,127.7010587,한산사(여수)
2,여수시,참치마을,전라남도 여수시 여문문화1길 40,,,061-651-7070,생선회,일요일,34.7527443,127.7033555,한산사(여수)
2,여수시,우사골,전라남도 여수시 여서1로 116,가능,,061-654-3005,곰탕,연중무휴,34.7537621,127.7096396,한산사(여수)
2,여수시,일송정,전라남도 여수시 여문문화1길 80,가능,,061-651-1676,육류,"일요일(둘째주, 넷째주)",34.7501125,127.7005531,한산사(여수)
2,여수시,동백꽃식당,전라남도 여수시 어항단지로 43,,,061-653-9400,장어,매월 2회,34.726002,127.715042,외동어촌체험마을
2,여수시,대성장어,전라남도 여수시 문수로 116 다보빌딩,,,061-654-3050,장어,연중무휴,34.7551369,127.7073898,한산사(여수)
2,여수시,한국가나식당,전라남도 여수시 여문문화1길 83,가능,,061-652-6933,냉면,연중무휴,34.749698,127.700581,한산사(여수)
2,여수시,수복갈비,전라남도 여수시 문수로 53,,,061-654-1159,한식,"2, 4주 일요일",34.75281,127.701357,한산사(여수)
2,여수시,봉황,전라남도 여수시 웅남1길 13-5,,,061-653-7799,일식,일요일,34.7491659,127.6763256,이순신공원(여수)
2,여수시,깊은바다,전라남도 여수시 여문문화길 88,,,061-653-6863,일식,첫째 세째 일요일,34.7498228,127.6999353,한산사(여수)
2,여수시,파도소리,전라남도 여수시 여문문화2길 60(문수동),가능,,061-655-3057,생선회,,34.751818,127.700907,한산사(여수)
2,여수시,여수밤바다포차,전라남도 여수시 이순신광장로 159,가능,,061-666-9253,포장마차,연중무휴,34.7373923,127.7413753,여수구항 해양공원
2,여수시,뜰식당,전라남도 여수시 망양로 244,가능,http://gardenps.com/,061-654-0177,,"첫째,세째 일요일",34.7744656,127.7427036,만성리 검은모래해변
2,여수시,미림횟집,전라남도 여수시 대경도길 2(경호동),,,061-666-6677,생선회,,34.7219137,127.7224128,외동어촌체험마을
2,여수시,바다장어숯불구이,전라남도 여수시 장성1길 12,가능,,061-683-6660,장어,일요일,34.7546666,127.65585,여수시청소년수련관
2,여수시,싱싱횟집,전라남도 여수시 소호로 488,가능,,061-682-1160,생선회,화요일,34.7455745,127.6542728,소호동동다리
2,여수시,돌고래횟집,전라남도 여수시 소호로 490,가능,,061-683-1322,생선회,,34.745698,127.654525,소호동동다리
2,여수시,동동海,전라남도 여수시 소호로 486,가능,,061-692-5588,생선회,,34.7454846,127.6541625,소호동동다리
2,여수시,장수횟집,전라남도 여수시 소호1길 86,,,061-685-8033,생선회,,34.746125,127.654676,소호동동다리
2,여수시,좌수영횟집,전라남도 여수시 소호로 482-1,가능,,061-684-5985,한식,화요일(한달에 2번),34.7452707,127.6537701,소호동동다리
2,여수시,밀터,전라남도 여수시 소호로 253,가능,,061-683-3900,한식,월요일,34.728064,127.641782,디오션리조트 워터파크
2,여수시,순천돌곱창,"전라남도 여수시 흥국상가길 15, 2층(신기동)",,,061-684-0392,한식,연중무휴,34.7603464,127.6686405,여수시청소년수련관
2,여수시,유군초밥,전라남도 여수시 새터로 76,,,061-682-4858,초밥,연중무휴,34.762669,127.674805,여수 선소유적
2,완도군,서민회관,전라남도 완도군 완도읍 개포로 3 서민회관,가능,,061-554-8067,백반,연중무휴,34.31713,126.751482,주도
2,완도군,미원횟집,전라남도 완도군 완도읍 해변공원로 65,,,061-554-2506,전복요리,"첫째,셋째 일요일휴무",34.3194213,126.7490527,완도문화원
2,완도군,고향갈비촌,전라남도 완도군 완도읍 해변공원로113번길 6-10,가능,,061-552-4844,육류,,34.324003,126.747692,완도문화원
2,완도군,대성회식당,전라남도 완도군 완도읍 해변공원로 59,가능,http://seastar.kr/,061-554-5164,전복요리,연중무휴,34.3189671,126.749477,주도
2,완도군,신지횟집,전라남도 완도군 완도읍 해변공원로 117,가능,,061-552-5244,생선회,연중무휴,34.323897,126.747989,완도문화원
2,완도군,수산시장55호,전라남도 완도군 완도읍 해변공원로 130,가능,,061-553-1458,생선회,연중무휴,34.3249945,126.7487533,완도문화원
2,완도군,초계산가든,전라남도 완도군 완도읍 청해진서로 142,가능,,061-552-2747,한식,,34.3053833,126.7428,신흥사(완도)
2,순천시,목우마을,전라남도 순천시 호남길 5 목우마을,가능,,061-751-1919,한식,연중무휴,34.9568426,127.483378,웃장 국밥골목
2,순천시,돼지마을,전라남도 순천시 삼산2길 36,,,061-752-7879,육류,토요일,34.969061,127.485867,순천문화예술회관
2,순천시,등뼈가,전라남도 순천시 순천대2길 36,가능,http://www.thegamjatang.co.kr/,061-752-3737,감자탕,연중무휴,34.9690971,127.4861689,순천문화예술회관
2,순천시,순창국밥,전라남도 순천시 석현길 67 순창국밥,가능,,061-755-8336,한식,일요일,34.974108,127.474639,향림사(순천)
2,순천시,홍천뚝배기,전라남도 순천시 중앙로 303,가능,,061-751-0544,한식,일요일,34.9725495,127.4819305,향림사(순천)
2,순천시,순천보리밥뷔페,전라남도 순천시 중앙로 305,가능,http://cityfood.co.kr/h9/suncheonbolibab,061-752-3802,보리밥,연중무휴,34.9726662,127.4819555,향림사(순천)
2,순천시,복사골,전라남도 순천시 중앙로 307,가능,,061-755-1300,한정식,연중무휴,34.9729745,127.4820679,향림사(순천)
2,순천시,별미보쌈,전라남도 순천시 삼산로 92-28,가능,,061-753-9768,족발,,34.9714459,127.4937799,두레아트(관광두레 주민사업체)
2,순천시,도화정,전라남도 순천시 죽도봉길 157 도화정,가능,,061-752-5947,오리요리,연중무휴,34.955602,127.4953421,죽도봉공원
2,순천시,오리파티,전라남도 순천시 대석3길 50-12,,,061-727-5292,오리요리,,34.946725,127.5263,순천 기적의도서관
2,순천시,용전갈치,전라남도 순천시 덕연로 64,가능,,061-742-1045,해물,월요일,34.94859,127.513102,순천역 (철도체험학습장)
2,순천시,현대옥 순천연향점,전라남도 순천시 팔마3길 14-6,,,061-721-5554,국밥,연중무휴,34.934662,127.5167397,옥계서원(순천)
2,순천시,명지원,전라남도 순천시 연향상가길 31 명지원,가능,http://www.ok114.co.kr/0617232392,061-723-2392,육류,연중무휴,34.9529611,127.5209898,순천 기적의도서관
2,순천시,송미정,전라남도 순천시 우명길 55 1층 송미정,가능,,061-746-1174,육류,연중무휴,34.9466214,127.5127236,순천역 (철도체험학습장)
2,순천시,먹물,전라남도 순천시 장자보1길 61,,,061-745-5445,해물,토요일,34.9474487,127.5160919,옥계서원(순천)
2,순천시,통나무식당,전라남도 순천시 백강로 36,가능,http://blog.naver.com/nellicious/,061-721-8801,,연중무휴,34.9362134,127.5225901,옥계서원(순천)
2,순천시,도모,전라남도 순천시 하대석길 60 도모,,https://baemin.me/O8X4PDj-zB,061-723-8883,일식,일요일,34.9475072,127.5250068,순천 기적의도서관
2,해남군,해진정육식당,전라남도 해남군 해남읍 수성2길 33,가능,,061-533-7475,소고기구이,일요일,34.5720163,126.5995837,해남문화예술회관
2,해남군,원조장수통닭,전라남도 해남군 해남읍 고산로 295 장수통닭,가능,,061-535-1003,치킨,,34.5406022,126.6126688,고산유물전시관
2,해남군,해초한우정,전라남도 해남군 해남읍 남부순환로 42,가능,,061-537-3554,소고기구이,"2, 4주 일요일",34.5676548,126.6052127,해남문화원
2,해남군,레이크하우스,전라남도 해남군 삼산면 대흥사길 180,가능,,061-534-1771,이탈리아음식,,34.494637,126.616705,두륜산도립공원
2,해남군,산마루터,전라남도 해남군 삼산면 대흥사길 88-33,가능,,061-532-2233,한식,,34.4973248,126.6238567,두륜산케이블카
2,순천시,태풍은불어도철가방은간다,전라남도 순천시 남산로 33,,,061-741-6678,중식,목요일,34.9398928,127.4921749,순천역 (철도체험학습장)
2,순천시,돼지꿈,전라남도 순천시 장명로 8-6,가능,,061-745-5106,돼지고기,"첫째, 셋째주 일요일",34.9507076,127.4847017,옥천서원(순천)
2,순천시,낙원회관,전라남도 순천시 중앙3길 5-1 낙원회관,가능,,061-745-0112,한정식,,34.9501929,127.4856875,옥천서원(순천)
2,순천시,정락회관,전라남도 순천시 장천2길 7,,,061-744-6369,,일요일,34.9484039,127.489765,흥륜사(순천)
2,순천시,명궁관,전라남도 순천시 중앙2길 7,가능,http://instagram.com/myeonggunggwan,061-741-2020,한정식,매주 월요일 셋째주 월요일은 정상운영,34.9497836,127.4862382,옥천서원(순천)
2,순천시,도미초밥,전라남도 순천시 연자로 7-1,,,061-755-0005,초밥,,34.9553457,127.4849968,순천시립 그림책 도서관
2,순천시,스시마루,전라남도 순천시 중앙7길 9,,http://blog.naver.com/suna2978,061-755-0089,초밥,,34.9557049,127.4852958,순천시립 그림책 도서관
2,순천시,흑산도횟집,전라남도 순천시 강남로 121-1,가능,,061-751-2030,생선회,,34.9554186,127.486293,순천시립 그림책 도서관
2,순천시,청해일식,전라남도 순천시 순천만길 31,가능,,061-742-1717,일식,,34.92514,127.4941413,순천시생태관광체험학습센터
2,순천시,미주농원,전라남도 순천시 상사호길 120 미주농원,가능,,061-744-5292,오리요리,,34.9208806,127.4734674,순천시생태관광체험학습센터
2,순천시,순천만갈대밭식당,전라남도 순천시 순천만길 656,가능,,061-741-0727,한식,연중무휴,34.8877737,127.508721,순천만 용산전망대 (S자 물길)
2,순천시,황소곱창구이,전라남도 순천시 장선배기길 10 황소곱창구이,가능,,061-721-9246,"곱창,막창,양",일요일,34.952689,127.523461,순천 기적의도서관
2,순천시,국일설렁탕,전라남도 순천시 충효로 117,가능,,061-745-7800,백반,일요일,34.949311,127.515168,순천 기적의도서관
2,순천시,다미원,전라남도 순천시 비봉2길 7-19,,,061-725-5711,중식,매주화요일,34.9712179,127.5211625,곡수서원
2,순천시,백송금당점,전라남도 순천시 장선배기길 6-4,가능,,061-727-4001,돼지고기,연중무휴,34.9524612,127.5225522,순천 기적의도서관
2,순천시,원조의정부부대찌개,전라남도 순천시 장선배기길 8,가능,,061-726-0015,"찌개,전골",,34.9525955,127.5231638,순천 기적의도서관
2,순천시,몽돌해물탕조례점,전라남도 순천시 남신월길 35,가능,,061-721-5222,해물,연중무휴,34.9564309,127.5205495,곡수서원
2,순천시,왕창국밥,전라남도 순천시 장선배기길 17,,,061-723-6542,국밥,일요일,34.953284,127.524298,순천 기적의도서관
2,순천시,만석꾼조례점,전라남도 순천시 남신월2길 1,,,061-726-1001,해물,매주일요일휴무,34.9556929,127.5188625,순천 기적의도서관
2,순천시,금성가든,전라남도 순천시 선암사길 358,가능,,061-754-6060,육류,연중무휴,34.9893703,127.3544431,신광수 다원
2,순천시,제일식당,전라남도 순천시 서면 청소길 43 제일식당,가능,,061-752-7970,한식,,34.996239,127.506175,두레아트(관광두레 주민사업체)
2,순천시,선호가든,전라남도 순천시 서면 청소길 239 선호가든,가능,http://blog.naver.com/howlman2,061-755-3538,백숙,,35.0312916,127.5037874,천축사(순천)
2,순천시,유명가든,전라남도 순천시 서면 청소길 243 유명가든,가능,https://blog.naver.com/myeong7470,061-755-7470,닭요리,,35.0320833,127.5035875,천축사(순천)
2,순천시,들물관광농원,전라남도 순천시 서면 청소길 477 들물관광농원,가능,http://www.instagram.com/explore/locations/1370100026362457,061-755-8181,한식,,35.0764032,127.5104829,정혜사(순천)
2,순천시,낙지나라,전라남도 순천시 별량면 고장길 101 낙지나라,가능,,061-742-2667,낙지,월요일,34.8415044,127.4577652,거차뻘배마을
2,순천시,솔가든,전라남도 순천시 상사면 상사호길 218 솔가든,가능,,061-745-1615,한식,,34.9304305,127.4645327,이천서원
2,완도군,청실횟집,전라남도 완도군 완도읍 해변공원로 51-1,가능,,061-552-4559,생선회,연중무휴,34.3185009,126.7498524,주도
2,완도군,삼거리식당,전라남도 완도군 완도읍 장보고대로 298,가능,,061-554-8988,한식,,34.3147719,126.757327,주도
2,완도군,홍가네갈비탕,전라남도 완도군 완도읍 개포로114번길 43-5,가능,,061-552-0441,한정식,,34.3186583,126.746,완도문화원
2,완도군,최선장식당,전라남도 완도군 완도읍 군내3번길 23-5,가능,,061-554-3002,복어요리,연중무휴,34.3143332,126.7574624,주도
2,완도군,날마다식당,전라남도 완도군 완도읍 해변공원로 75,가능,,061-552-2177,한식,연중무휴,34.3201769,126.7484093,완도문화원
2,완도군,통뼈감자탕 완도점,전라남도 완도군 완도읍 장보고대로 231,가능,http://www.gamjatang.com/,061-554-8878,감자탕,연중무휴,34.316405,126.7505902,주도
2,여수시,명품나루터,전라남도 여수시 돌산읍 진두공원길 21,가능,,061-644-6686,생선회,수요일,34.7330655,127.7402562,여수 해상케이블카
2,여수시,엑스포식당,전라남도 여수시 여수산단로 238,,,061-683-4178,한식,,34.8039329,127.666341,여수 국가산업단지
2,여수시,일조오리닭,전라남도 여수시 무선로 249-1 (화장동),가능,,061-685-4799,오리요리,매주일요일,34.7800496,127.6466847,"여수 석보(구, 석창성지)"
2,여수시,또바기,전라남도 여수시 여문문화길 77,,,061-652-2781,한식,연중무휴,34.7503951,127.7005555,한산사(여수)
2,여수시,율촌돌판오리,전라남도 여수시 율촌면 여순로 1022-47,,,061-691-5292,오리요리,월요일,34.8820785,127.5730788,여수 율촌역
2,여수시,원조여수서대회,전라남도 여수시 돌산읍 강남해안로 51,,,061-643-5989,한식,연중무휴,34.7210036,127.7461336,돌산공원
2,여수시,정가네갓·갈치조림생선구이,전라남도 여수시 돌산읍 진두해안길 68,가능,,061-642-5008,생선구이,연중무휴,34.7330817,127.7426258,돌산공원
2,여수시,오뚜기식당,전라남도 여수시 남산로 70,,,061-643-6585,한식,수요일,34.7367249,127.7315603,이순신광장
2,여수시,가사리꽃님이네,전라남도 여수시 소라면 가사안길 27,가능,,061-685-4265,한식,,34.7487828,127.5994875,여수 가사리 갈대밭
2,여수시,덕양곱창,전라남도 여수시 성산5길 60 (화장동 (1층)),가능,,061-691-4856,곱창,연중무휴,34.7742256,127.6437049,"여수 석보(구, 석창성지)"
2,여수시,광장미가,전라남도 여수시 중앙로 72-22 (중앙동 (1층)),가능,,061-662-1870,생선구이,화요일,34.7397474,127.7351631,이순신광장
2,여수시,개미식당,전라남도 여수시 시청서2길 51-4,,,061-686-7496,한식,화요일,34.7600914,127.6602375,여수시청소년수련관
2,여수시,여수꽃게살비빔밥,전라남도 여수시 시청서1길 50-7,,,061-681-4022,게요리,"2, 4주 화요일",34.7580688,127.6598967,여수시청소년수련관
2,여수시,장안복집,전라남도 여수시 시청서2길 39-5,,,061-684-4946,복어요리,,34.7605264,127.6599009,여수시청소년수련관
2,여수시,한려식당,전라남도 여수시 중앙로 81-1,,,061-662-2691,한식,연중무휴,34.7399417,127.7366285,이순신광장
2,여수시,하얀집낙지전문점,전라남도 여수시 장성1길 19 (안산동),가능,,061-683-3257,,일요일,34.7543524,127.6548203,여수시청소년수련관
2,여수시,홍보석,전라남도 여수시 여서동1길 14 (여서동),,,061-653-5202,,일요일(첫째주),34.7537714,127.7085353,한산사(여수)
2,여수시,남원 춘향골,전라남도 여수시 남산로 60-31 (남산동),가능,,061-665-8777,한식,"1, 3주 화요일",34.7368326,127.7328889,이순신광장
2,여수시,정현정육식식당,전라남도 여수시 봉산1로 12 (봉산동),가능,,061-642-5388,,,34.7321557,127.7224122,장군도(수중성)
2,여수시,안성식당,전라남도 여수시 동문로 55-2 (관문동),가능,,061-662-1755,한식,연중무휴,34.7419435,127.7402464,여수 타루비
2,여수시,우리집오리,전라남도 여수시 어항로 9 (봉산동),,,061-652-7006,오리요리,"1, 3주 화요일",34.7326317,127.7197838,한산사(여수)
2,여수시,밤골백반식당,전라남도 여수시 율촌면 봉정길 6-28,가능,,061-686-9268,한식,월요일,34.860266,127.5911484,여수 율촌역
2,여수시,황금코다리,전라남도 여수시 소호로 255 (소호동),가능,,061-686-5291,한식,,34.7282677,127.6418802,디오션리조트 워터파크
2,여수시,소반,전라남도 여수시 진남체육관길 27 (오림동),가능,,061-653-1002,한식,연중무휴,34.7597909,127.7187267,석천사(여수)
2,여수시,육해공 숙회천국,전라남도 여수시 문수로 36-1 (문수동),,,061-651-8816,한식,,34.7514627,127.7004803,한산사(여수)
2,여수시,조선화로집 여수시청점,전라남도 여수시 망마로 5,,,061-681-3316,한식,,34.7611434,127.6641053,여수시청소년수련관
2,여수시,돌산게장명가,전라남도 여수시 봉산1로 49 1층 (봉산동),가능,,061-644-1199,게요리,연중무휴,34.735462,127.7239775,장군도(수중성)
2,여수시,용궁횟집,전라남도 여수시 돌산읍 강남10길 49,가능,,061-686-5291,생선회,연중무휴,34.7156865,127.7523552,돌산공원
2,여수시,군산횟집,전라남도 여수시 국포1로 51 2층 3층 (국동),가능,,061-644-2740,생선회,,34.726314,127.7209012,외동어촌체험마을
2,여수시,금바우식당,전라남도 여수시 돌산읍 강남로 42,,,061-643-5551,한식,연중무휴,34.7192182,127.7505285,돌산공원
2,여수시,사계절횟집,전라남도 여수시 어항로 35 1 2층 (봉산동),가능,,061-644-4880,생선회,연중무휴,34.7315341,127.7222255,장군도(수중성)
2,여수시,한일관,전라남도 여수시 봉산2로 32,가능,,061-654-0091,한정식,,34.7325088,127.7261509,장군도(수중성)
2,순천시,순천굿모링가,전라남도 순천시 팔마5길 25,,,061-727-5005,한식,일요일,34.9338217,127.5146973,옥계서원(순천)
2,순천시,이순임김치찌개,전라남도 순천시 팔마4길 15,,,061-725-0902,"찌개,전골",연중무휴,34.9338348,127.51629,옥계서원(순천)
2,순천시,명장진국설렁탕,전라남도 순천시 장선배기1길 10-33,가능,,061-727-0775,설렁탕,매주일요일,34.9542012,127.523943,순천 기적의도서관
2,순천시,obzee(오브제),전라남도 순천시 오천2길 17-1,가능,,061-745-5990,카페,,34.9298579,127.4956261,순천시생태관광체험학습센터
2,순천시,순천식당,전라남도 순천시 외서면 쌍향수길 481,가능,,061-755-1047,한식,일요일,34.9163265,127.273762,낙안온천
2,순천시,오천초밥,전라남도 순천시 오천6길 13,가능,,061-743-7177,,,34.9341845,127.4948278,순천시생태관광체험학습센터
2,순천시,한베식당,전라남도 순천시 장천4길 15-5,,,061-744-0143,한식,월요일,34.9492059,127.4907336,흥륜사(순천)
2,순천시,송치골가든,전라남도 순천시 서면 순천로 860,가능,,061-755-1369,한식,일요일,35.0458352,127.4292072,순천 향매실마을
2,순천시,장터맛집,전라남도 순천시 장평1길 6,,,061-745-6564,해물탕,,34.945593,127.4937255,흥륜사(순천)
2,순천시,남흥회관,전라남도 순천시 장명2길 4,가능,,061-744-9736,한식,,34.9513388,127.48674,흥륜사(순천)
2,순천시,해강,전라남도 순천시 장명4길 12,가능,,061-742-8803,한식,수요일,34.9517791,127.4880523,흥륜사(순천)
2,순천시,쌍암추어탕,전라남도 순천시 역전장1길 42,가능,,061-725-6111,추어탕,일요일,34.9433651,127.5053106,순천역 (철도체험학습장)
2,순천시,모메존 황칠백숙,전라남도 순천시 환선로 112,가능,,061-755-5233,,연중무휴,34.9654085,127.4878974,순천문화예술회관
2,순천시,춘천거시기닭갈비,전라남도 순천시 순천대2길 42,가능,,061-753-9593,닭갈비,일요일,34.969083,127.4863899,순천문화예술회관
2,순천시,북촌손만두 순천대점,전라남도 순천시 순천대2길 26,,,061-727-6999,한식,토요일,34.9689607,127.4854951,순천문화예술회관
2,순천시,용우동 순대점,전라남도 순천시 순천대2길 10-17,,,061-752-7934,우동,일요일,34.9683942,127.4854213,순천문화예술회관
2,순천시,고래고래이모네곱창,전라남도 순천시 연향번영8길 15,,,061-744-1161,곱창,일요일,34.9499864,127.516728,순천 기적의도서관
2,순천시,자갈치산꼼장어,전라남도 순천시 도장안길 2,,,061-725-1661,,일요일,34.9406943,127.5263719,순천 기적의도서관
2,순천시,동산가든,전라남도 순천시 섬진강로 232,가능,,061-782-1943,한식,연중무휴,35.1644969,127.4517454,구례 섬진강 벚꽃길
2,순천시,진등뼈,전라남도 순천시 오천6길 6-10,가능,,061-742-2009,감자탕,,34.9343209,127.4941368,순천시생태관광체험학습센터
2,순천시,소담소반,전라남도 순천시 중앙3길 10,가능,,061-745-3382,한식,셋째주 일요일,34.95004,127.4862158,옥천서원(순천)
2,순천시,유갤러리,전라남도 순천시 상사면 우산보길 86,가능,,061-741-8887,카페,수요일,34.9341865,127.4570377,이천서원
2,순천시,건봉국밥,전라남도 순천시 장평로 65,,,061-752-0900,국밥,,34.9455407,127.4939572,흥륜사(순천)
2,순천시,기린본집,전라남도 순천시 원용당길 2,가능,,061-727-6065,한식,"첫째주, 셋째주 월요일",34.9720238,127.48937,순천문화예술회관
2,순천시,자금성,전라남도 순천시 충효로 123,가능,,061-743-8770,,연중무휴,34.949962,127.5154145,순천 기적의도서관
2,순천시,한정식 신화정,전라남도 순천시 구암길 26,가능,,061-741-4300,한정식,연중무휴,34.946303,127.5134487,옥계서원(순천)
2,순천시,소락정,전라남도 순천시 구암길 5,가능,,061-744-0468,한식,일요일,34.9478234,127.5143829,순천역 (철도체험학습장)
2,나주시,신토불이한식뷔페,전라남도 나주시 산포면 등정덕례길 9 (신토불이한식뷔페),,,061-337-0898,한식뷔페,매주일요일,35.043243,126.8192685,남평향교
2,나주시,도래회관,전라남도 나주시 남평읍 세남로 1593,가능,,061-335-2020,한식,연중무휴,35.0301895,126.8327861,남평향교
2,나주시,돼지모듬숯불구이,전라남도 나주시 세지면 세지로 446,가능,,061-331-5042,,매뭘 첫째주 일요일 매월 셋째주 일요일,34.9195984,126.7478479,나주 철천리 마애칠불상과 석조여래입상
2,나주시,산포양푼이동태탕,"전라남도 나주시 산포면 산남로 137, 좌측첫번째칸",가능,,061-334-0775,,매주일요일,35.0455751,126.8278598,남평향교
2,나주시,연화식당,전라남도 나주시 남평읍 남평2로 45-52,가능,,061-333-9333,한식,연중무휴,35.045691,126.8396009,남평향교
2,나주시,구미식당,전라남도 나주시 대호길 90-15,가능,,061-333-5236,한식,매주일요일,35.0439504,126.7170778,정열사비
2,나주시,화로닭발,전라남도 나주시 대호길 5,가능,,061-332-1006,닭발,첫째세째화요일,35.0364239,126.7183741,나주 순교성지
2,나주시,덕고개가든,전라남도 나주시 세지면 동창로 95,가능,,061-331-0990,한식,추석 구정만 휴일,34.9167353,126.7475513,법흥사(영암)
2,나주시,나주아구찜,전라남도 나주시 남외1길 13-11,가능,,061-333-5133,,매주화요일,35.0267654,126.722212,남고문(나주읍성 남문)
2,나주시,큰집나주곰탕,전라남도 나주시 우정로 10,가능,,061-333-8892,,매주 일요일 휴무,35.0247136,126.7818814,빛가람 전망대
2,나주시,쿵쿵따생삼겹,전라남도 나주시 대호길 82-1,,,061-333-5934,,첫째 세째주 월요일,35.0429915,126.7173151,정열사비
2,나주시,송림,전라남도 나주시 남평읍 지석로 59,가능,,,한식,매주 일요일  휴무,35.0428852,126.8423161,남평향교
2,나주시,충만치킨영산포점,전라남도 나주시 이창1길 3-1,가능,,061-930-9292,,연중무휴,34.9956016,126.71378,일본인지주가옥
2,나주시,미도방,"전라남도 나주시 재신길 10 (청원돼지갈비), (1층)",가능,,061-334-3777,한식,"2, 4주 일요일",35.022077,126.7142423,나주 완사천
2,나주시,메주애꽃,전라남도 나주시 금성길 52,가능,,061-333-9253,,연중무휴,35.0336451,126.7179845,나주 금성관
2,나주시,숭이네,전라남도 나주시 대호길 59-5,가능,,061-332-0435,,첫째 세째주 일요일,35.041104,126.7175714,심향사(나주)
2,나주시,착한고기집,전라남도 나주시 남평읍 남평2로 46-9,가능,,061-331-4121,한식,매주 일요일 휴무,35.046718,126.8432319,남평향교
2,나주시,영산포홍어,전라남도 나주시 영산3길 6,가능,,061-337-5000,한식,연중무휴,34.9998837,126.7107301,영산포 홍어거리
2,나주시,남경,전라남도 나주시 대호길 59-20,가능,,061-334-2179,,첫째세째주 월요일,35.0416845,126.7175609,심향사(나주)
2,나주시,울엄마밥상,전라남도 나주시 금영로 14-4 (우성사료),가능,,061-334-8913,한식,연중무휴,34.9945639,126.7155102,일본인지주가옥
2,나주시,초원의집,전라남도 나주시 다시면 무숙로 776-25,가능,,061-336-4566,한식,"2, 4주 일요일",35.0165914,126.6382772,보산정사
2,나주시,김장열의짜장나라,전라남도 나주시 정보화길 34,가능,,061-337-8584,,연중무휴,35.0231569,126.79772,빛가람 전망대
2,나주시,오리앤갈비,전라남도 나주시 중앙로 30 (티월드),가능,,061-337-3650,,"2, 4주 일요일(점심)",35.0320021,126.7199094,남고문(나주읍성 남문)
2,나주시,옥희네밥상,전라남도 나주시 정보화길 34,가능,,061-337-6412,한식,,35.0231617,126.7976947,빛가람 전망대
2,나주시,진미국밥,전라남도 나주시 황동2길 4-15,가능,,061-334-9988,국밥,매주일요일,35.0136152,126.7736761,빛가람 전망대
2,나주시,소문난식당,전라남도 나주시 노안면 노안로 535,,,061-336-2001,한식,매주일요일,35.0652221,126.7484592,동신대 카메라박물관(문화박물관)
2,나주시,민물장어,"전라남도 나주시 풍물시장2길 20-3 (한우협회직매장), 풍물시장 2길20-3",가능,,061-333-6999,,연중무휴,34.9927884,126.7079655,영산포 등대
2,나주시,빛고을가든,전라남도 나주시 성북2길 8,가능,,061-333-3390,한식,일요일인데 예약 있으면 합니다.,35.0349558,126.7197271,나주 금성관
2,나주시,육감,전라남도 나주시 도민길 24-36,가능,,061-332-6429,한식,매주 일요일 휴무,35.0227868,126.8000319,빛가람 전망대
2,나주시,나주활어횟집,전라남도 나주시 남고문로 36-15,가능,,061-332-0026,생선회,일요일,35.0268845,126.7152066,나빌레라 문화센터
2,나주시,돈우랑,전라남도 나주시 황동2길 17-3,가능,,061-332-6900,,매주일요일,35.0141543,126.7733751,빛가람 전망대
2,나주시,전주현대옥나주혁신도시점,전라남도 나주시 석전2길 12-4,가능,,061-333-9885,한식,매주 토요일  휴무,35.0247674,126.7791151,빛가람 전망대
2,나주시,진차이나,전라남도 나주시 상야4길 11 203호,가능,,061-332-8877,,"토, 일요일",35.0227076,126.793239,빛가람 전망대
2,나주시,강남생복집,전라남도 나주시 도민길 3-26,가능,,,복어요리,매주 토요일  휴무,35.0218118,126.7986196,빛가람 전망대
2,나주시,뚝배기생태탕,"전라남도 나주시 상야4길 21, (131.132호)",가능,,061-334-0811,,매주 일요일 휴무,35.0220379,126.7920996,빛가람 전망대
2,나주시,거북이,전라남도 나주시 풍물시장2길 35-6,가능,,061-333-8591,한식,첫째 셋째 일요일,34.9943969,126.7087209,영산포 등대
2,나주시,고모네뽈찜,"전라남도 나주시 호수로 74, (다일빌딩203호)",가능,,061-334-1986,,매주일요일,35.0133215,126.7905357,빛가람 전망대
2,나주시,우촌,"전라남도 나주시 나주로 83-9 (금부숯불갈비), 나주로 83-9 (우촌)",가능,,061-337-9290,소고기구이,"2, 4주 월요일",35.0260978,126.716002,나빌레라 문화센터
2,나주시,나주쌍치민물매운탕,전라남도 나주시 황동1길 69,가능,,061-336-2926,,연중무휴,35.0156201,126.7744165,빛가람 전망대
2,나주시,상하이,"전라남도 나주시 이창1길 14 (효성떡방앗간), 1층",가능,,061-336-7200,,"첫째,세째월요일",34.9958286,126.7127214,일본인지주가옥
2,나주시,전설의김또깡고깃집빛가람점,"전라남도 나주시 배멧1길 10, 휴먼프라자114.115호",가능,,061-334-9691,한식,매주일요일,35.018135,126.7933583,빛가람 전망대
2,나주시,나주식당,전라남도 나주시 내동길 10-3,가능,,061-334-8880,한식,연중무휴,35.0141872,126.712624,나주 완사천
2,나주시,끼니회관,"전라남도 나주시 정렬사길 15, 2층",가능,,061-333-2744,한식,"2, 4주 일요일",35.0435471,126.7146863,정열사비
2,나주시,식당바를정,"전라남도 나주시 대호길 85-16, 1층",가능,,061-337-3004,한식,첫째수요일 들째네째주 일요일,35.0424997,126.7161595,심향사(나주)
2,나주시,100돼지,전라남도 나주시 풍물시장1길 22,가능,,061-336-6999,,연중무휴,34.9940754,126.7084762,영산포 등대
2,나주시,모아반점,전라남도 나주시 금천면 금영로 953-1,가능,,061-331-6870,,매주일요일,35.0324908,126.7536425,나주배박물관
2,나주시,마이킹,"전라남도 나주시 다도면 다도로 752, 1층",가능,,061-337-3068,카페,연중무휴,34.948026,126.8270876,나주호
2,나주시,월광추어탕소머리국밥,전라남도 나주시 다시면 영산로 4471 (신토불이식당),가능,,061-335-7110,추어탕,연중무휴,35.0229106,126.6350332,보산정사
2,나주시,박경원낙지천국,전라남도 나주시 남평읍 지석로 15,가능,,061-333-1163,,연중무휴,35.0457547,126.8392915,남평향교
2,나주시,청원모밀나주혁신점,전라남도 나주시 우정로 10,가능,,061-336-1001,분식,매월 둘째 토요일 넷째 토요일 휴무,35.0247136,126.7818814,빛가람 전망대
2,나주시,곰바우,전라남도 나주시 재신길 32-1,가능,,061-334-1131,한식,일요일 오후 휴무,35.023038,126.7141022,나주 완사천
2,나주시,참깨와들깨김밥&멸치육전국수,전라남도 나주시 나주로 115 (참샘포크),가능,,061-332-9992,김밥,연중무휴,35.0291563,126.7174759,나빌레라 문화센터
2,나주시,꽃씨도둑,전라남도 나주시 남평읍 광촌길 182,가능,,,카페,목요일,35.0692645,126.8714988,남평역(나주)
2,나주시,즐거운하누,전라남도 나주시 남평읍 강변1길 33-20,가능,,061-332-8265,소고기구이,연중무휴,35.0435118,126.8499154,남평향교
2,나주시,깐깐한족발,전라남도 나주시 상야1길 21,가능,,061-331-2292,,연중무휴,35.0225882,126.7878799,빛가람 전망대
2,나주시,나주참봅집,전라남도 나주시 황동1길 70,가능,,061-331-6780,복어요리,매주일요일,35.0154588,126.7740307,빛가람 전망대
2,나주시,아랫장참오리맛집,전라남도 나주시 남평읍 강변2길 7,가능,,061-333-1300,오리요리,매주 화요일 휴무,35.0403854,126.8513125,남평향교
2,나주시,그집쭈꾸미나주혁신점,전라남도 나주시 상야4길 16-16 1층,가능,,,,연중무휴,35.0238873,126.7930456,빛가람 전망대
2,나주시,밥이랑면이랑,"전라남도 나주시 석전2길 12-4, ks주차빌딩 1동 104호",가능,,,분식,연중무휴,35.0247674,126.7791151,빛가람 전망대
2,나주시,소행성651,전라남도 나주시 봉황면 금봉로 651,가능,,,카페,연중무휴,34.9623798,126.7945435,미륵사(나주)
2,나주시,돈곱창,"전라남도 나주시 상야1길 7, 예가람타워 135.136호",가능,,,한식,매주 일요일 휴무,35.0226405,126.785873,빛가람 전망대
2,나주시,나무와새,"전라남도 나주시 남평읍 강변1길 33-16, 101호",가능,,,한식,매월 첫째주 토요일 매월 셋째주 토요일,35.0433667,126.8502965,남평향교
2,나주시,본참치,"전라남도 나주시 상야1길 20, 엘타워 112.113호",가능,,,생선회,매주 일요일 휴무,35.0220292,126.7870818,빛가람 전망대
2,나주시,홍어1번지,전라남도 나주시 영산3길 2-1 (영실미곡상회),가능,,061-332-7444,한식,매주월요일,34.9997805,126.7104228,영산포 홍어거리
2,나주시,천해,전라남도 나주시 남평읍 나주호로 885 (천해),가능,,061-337-0107,한식,연중무휴,34.9947125,126.8802069,화순양동호가옥
2,나주시,천안문,전라남도 나주시 풍물시장1길 10-5,가능,,061-333-5234,,"첫째, 세째 화요일",34.9934244,126.7097432,영산포 등대
2,나주시,구진포제일장어,전라남도 나주시 다시면 구진포로 92,가능,,061-336-0579,,연중무휴,35.0044156,126.6748156,나주 구진포 장어거리
2,나주시,부영식육식당맛대맛,전라남도 나주시 남평읍 지석로 10,가능,,061-334-9255,,2주 월요일,35.045756,126.8382837,남평향교
2,나주시,청록회포차,"전라남도 나주시 이창1길 12 (청록활어회센터), (1층)",가능,,061-332-9233,생선회,"2, 4주 월요일",34.9958065,126.7128058,일본인지주가옥
2,나주시,신목사골칼국수,전라남도 나주시 나주로 83-10 (사랑방),가능,,061-334-6788,칼국수,매주월요일,35.0264181,126.7157704,나빌레라 문화센터
2,나주시,나주곰탕하얀집,전라남도 나주시 금성관길 6-1 (하얀집),가능,,061-333-4292,,"첫째,월요일",35.0322424,126.717233,정수루
2,나주시,들깨랑팥이랑,"전라남도 나주시 남평읍 지석로 180, 좌측칸",가능,,061-332-1617,한식,연중무휴,35.0372159,126.8521287,남평향교
2,나주시,행복한토종닭,전라남도 나주시 다시면 영산로 4796,가능,,061-336-8683,닭요리,매주화요일,35.0099271,126.6669835,나주 구진포 장어거리
2,나주시,황금어장,전라남도 나주시 도민길 24-30,가능,,061-333-3332,생선회,매주 일요일 휴무,35.0231793,126.7995662,빛가람 전망대
2,나주시,목포낙지전문점,"전라남도 나주시 상야1길 21, 킹덤프라자 C동203호",가능,,061-334-1611,,매주 토 일요일 휴무,35.0225882,126.7878799,빛가람 전망대
2,나주시,예향,전라남도 나주시 시청길 15-9 (로또회관),가능,,061-333-8818,한식,매주일요일,35.0151739,126.7126866,나주 완사천
2,나주시,통큰짜장,전라남도 나주시 석전2길 12-20,가능,,061-333-3379,,매주 화요일 휴무,35.0247593,126.7787505,빛가람 전망대
2,나주시,해아추어탕,전라남도 나주시 호수로 70,가능,,061-334-8820,추어탕,첫째 세째주월요일,35.0133066,126.7902377,빛가람 전망대
2,나주시,나주곰탕원조집60년남평할매집,전라남도 나주시 금성관길 1-1,가능,,061-334-4682,,"2, 4주 화요일",35.0314977,126.7166986,정수루
2,나주시,광목기사식당,전라남도 나주시 문평면 영산로 4201,가능,,061-336-4786,한식,연중무휴,35.030444,126.606867,함평 고막천 석교
2,나주시,명성횟집,전라남도 나주시 시청길 16-9,가능,,061-334-4153,생선회,연중무휴,35.0167994,126.7120258,나주문화원
2,나주시,하나나주곰탕,전라남도 나주시 나주로 209 (종합신발백화점),가능,,061-333-6936,,연중무휴,35.0352901,126.72152,나주 금성관
2,나주시,대승장어,전라남도 나주시 다시면 구진포로 91 (구진포대승장어),가능,,061-336-1265,,연중무휴,35.0045191,126.6752867,나주 구진포 장어거리
2,나주시,소문장,전라남도 나주시 이창1길 38 (소문장),가능,,061-332-4933,,"2, 4주 일요일",34.9967786,126.7107038,영산포 등대
2,나주시,금성식당,전라남도 나주시 문평면 영산로 4265,가능,,061-336-0920,한식,첫째세째주일요일,35.0288685,126.6137199,함평 고막천 석교
2,나주시,너른터갈비,전라남도 나주시 남평읍 세남로 1772-7 (너른터),가능,,061-331-8877,,연중무휴,35.0457745,126.8376294,남평향교
2,나주시,군계기사님식당,전라남도 나주시 세지면 예향로 3009 (식당),가능,,061-333-1418,한식,연중무휴,34.9272278,126.7075431,영팔정
2,나주시,다다회관,전라남도 나주시 건재로 182 (다다회관),가능,,061-336-7786,한식,연중무휴,35.0496514,126.721023,동신대 카메라박물관(문화박물관)
2,나주시,주샘골한우촌식육식당,전라남도 나주시 산포면 재성길 53 (주샘골한우촌),가능,,061-337-5411,소고기구이,매주일요일,35.0360163,126.7918482,빛가람 전망대
2,나주시,예향,전라남도 나주시 나주천1길 79 (예향),,,061-333-1009,한정식,첫째 세째 월요일,35.030061,126.7147593,나빌레라 문화센터
2,나주시,청학동,전라남도 나주시 나주로 33,가능,,061-333-2066,한식,연중무휴,35.0220785,126.7151243,나주 완사천
2,나주시,나주추어탕,전라남도 나주시 향청길 16,가능,,061-332-3337,추어탕,"첫째,세째 일요일",35.0339352,126.7173353,나주 금성관
2,나주시,황금코다리나주점,전라남도 나주시 나주로 77,가능,,061-337-7755,한식,월요일,35.02591,126.7164531,나빌레라 문화센터
2,나주시,문암가든,전라남도 나주시 다시면 영산로 4844 (문암가든),가능,,061-335-7679,한식,첫째세째일요일,35.0124947,126.670784,나주 구진포 장어거리
2,나주시,조선참숯불구이,전라남도 나주시 남교1길 26 (조선참숯불구이),가능,,061-336-3392,한식,일요일,34.9959585,126.7172716,일본인지주가옥
2,나주시,거북가든,전라남도 나주시 대호길 59 (거북가든),가능,,061-334-4800,한식,연중무휴,35.0413732,126.7178386,심향사(나주)
2,나주시,공산한우촌,"전라남도 나주시 공산면 공산로 101-1 (공산한우촌), 729-5",가능,,061-335-1806,소고기구이,매주 들째주 일요일 매주 넷째주 일요일,34.9411861,126.61042,나주 영상테마파크
2,나주시,조선옛날국밥,전라남도 나주시 왕곡면 예향로 3631,가능,,061-334-1463,국밥,일요일,34.9815955,126.7035847,영산포 등대
2,나주시,신가네,전라남도 나주시 왕건길 22-3,가능,,061-333-2286,한식,일요일,35.0186811,126.7110571,나주문화원
2,나주시,월출산흑염소,전라남도 나주시 왕곡면 예향로 3685,가능,,061-335-3842,한식,매월 둘째주 일요일 매월 넷째주 일요일,34.9865899,126.7037752,영산포 등대
2,나주시,영양,전라남도 나주시 흥룡길 3-7,가능,,061-331-3592,한식,연중무휴,35.019697,126.7125254,나주문화원
2,광양시,한마음식당,전라남도 광양시 중마로 273 1층,가능,,061-791-7945,한식,토요일,34.9488608,127.6910839,구봉산 전망대
2,광양시,"원조고가네대구탕,찜해물찜전문","전라남도 광양시 오류로 114, ",가능,,061-795-7175,,일요일,34.9484057,127.6971324,구봉산 전망대
2,광양시,영덕고래불회,"전라남도 광양시 눈소4길 20-9, 1층전부",가능,,061-793-8698,생선회,일요일,34.9377073,127.7058359,이순신대교
2,광양시,은성면옥,전라남도 광양시 길호4길 10 1층,가능,,061-794-1245,냉면,월요일,34.9309874,127.6985527,이순신대교
2,광양시,일등한우,전라남도 광양시 가야로 326,가능,,061-792-5980,소고기구이,"2, 4주 일요일",34.9629134,127.7142529,광양 윤동주 유고보존 정병욱 가옥
2,광양시,송인정,"전라남도 광양시 사동로 211, 1층 전체",,,061-794-1256,한식,"2, 4주 일요일",34.9548826,127.6933005,구봉산 전망대
2,광양시,바른짬뽕,전라남도 광양시 항만9로 136 1층,가능,,061-795-1957,,일요일,34.9271257,127.6983239,이순신대교
2,광양시,제일냉면,전라남도 광양시 광양읍 서천2길 6,,,061-761-5808,냉면,매주월요일,34.9706426,127.5786267,보광사(광양)
2,광양시,봄내,"전라남도 광양시 눈소1길 54, 1층",가능,,061-793-8889,한식,첫주 일요일,34.9373943,127.7020331,이순신대교
2,광양시,슬록,"전라남도 광양시 눈소2길 77-12, 1층",가능,,,스페인음식,연중무휴,34.9358163,127.7049248,이순신대교
2,광양시,백운국수방,"전라남도 광양시 눈소5길 45-7, 2층중1층전부",가능,,061-792-9404,국수,연중무휴,34.9382914,127.7102689,배알도 수변공원
2,광양시,마동국밥,"전라남도 광양시 눈소5길 36-1, 1층전부",가능,,061-792-0110,국밥,일요일,34.9374002,127.7105533,배알도 수변공원
2,광양시,맛찬들왕소금구이 광양점,전라남도 광양시 눈소로 8 1층,가능,,061-790-6692,,연중무휴,34.9356279,127.7021568,이순신대교
2,광양시,고깃집진가,"전라남도 광양시 눈소로 68, 1층",가능,,061-791-4590,,연중무휴,34.9378802,127.7083096,배알도 수변공원
2,광양시,길호한식뷔페,전라남도 광양시 항만13로 42-24 1층,가능,,061-795-5808,한식뷔페,일요일,34.927662,127.6988742,이순신대교
2,광양시,화둥숯불갈비,전라남도 광양시 발섬4길 7-10 1층,가능,,061-792-1918,,2주 일요일,34.934953,127.6996432,이순신대교
2,광양시,사골국밥 중마점,전라남도 광양시 아미1길 15 1층,가능,,061-791-6933,국밥,연중무휴,34.9372798,127.7004204,구봉산 전망대
2,광양시,황제능이버섯해신탕,전라남도 광양시 발섬6길 14 1층,가능,,061-795-6607,한식,연중무휴,34.9330634,127.7001266,이순신대교
2,광양시,대나무향가득한집 중마점,전라남도 광양시 발섬2길 21 1층,가능,,061-792-1222,한식,연중무휴,34.9336095,127.7012414,이순신대교
2,광양시,갓바위회,전라남도 광양시 발섬4길 20,가능,,061-795-8910,생선회,일요일,34.9341272,127.7007004,이순신대교
2,광양시,련,전라남도 광양시 발섬4길 17-18 1층,가능,,061-791-5123,생선회,연중무휴,34.9350064,127.7006941,이순신대교
2,광양시,하면옥,전라남도 광양시 발섬6길 10 1층,가능,,061-795-3737,냉면,연중무휴,34.9327663,127.7000855,이순신대교
2,광양시,상하이요리집,전라남도 광양시 중마로 534 1층,가능,,061-793-0114,,연중무휴,34.9368848,127.7009622,이순신대교
2,광양시,화가,전라남도 광양시 항만13로 39 1층,가능,,050-7131-4819,한식,화요일,34.9271029,127.6987118,이순신대교
2,광양시,면반장,전라남도 광양시 발섬길 1 1층,가능,,061-793-1964,,월요일,34.932133,127.6985696,이순신대교
2,광양시,참일능이버섯백숙,전라남도 광양시 발섬길 30 1층,가능,,061-791-1117,,연중무휴,34.9344868,127.6988467,이순신대교
2,광양시,생선공방,전라남도 광양시 항만13로 7-8 1층,가능,,061-791-1088,,연중무휴,34.9261213,127.6988306,이순신대교
2,광양시,황금명태본가 광양점,전라남도 광양시 발섬6길 12 1층,가능,,061-795-0518,,연중무휴,34.9329099,127.7001593,이순신대교
2,광양시,청풍한우,전라남도 광양시 중마로 61 1층,가능,,061-793-0042,소고기구이,연중무휴,34.9301401,127.6882848,구봉산 전망대
2,광양시,풀하우스참치,"전라남도 광양시 길호3길 8 1, 2층",가능,,061-795-5537,,일요일,34.9318059,127.6992189,이순신대교
2,광양시,백운관,"전라남도 광양시 항만13로 23-7, 1층 108~111, 115~118호",가능,,061-793-3366,한식,일요일,34.926284,127.698326,이순신대교
2,광양시,한우명가,전라남도 광양시 공영로 99 2층,가능,,061-791-1755,소고기구이,연중무휴,34.9360526,127.7001639,이순신대교
2,광양시,명가해물전골손칼국수,"전라남도 광양시 중마로 328-1, 1층전",가능,,061-791-8995,칼국수,연중무휴,34.9499888,127.6967766,구봉산 전망대
2,광양시,바다마을횟집,"전라남도 광양시 광영로 4, ",,,,생선회,연중무휴,34.9622669,127.7283436,배알도 수변공원
2,광양시,황금덕장 광양점,"전라남도 광양시 중마로 326, 1697-6 ",가능,,061-795-6565,한식,매주일요일,34.949967,127.696396,구봉산 전망대
2,광양시,송학,"전라남도 광양시 폭포사랑길 99 (백운쇼핑센터), 716 폭포사랑길 99",가능,,061-791-9004,한식,"첫째,세째 일요일",34.9402884,127.7319563,배알도 수변공원
2,광양시,감나무골집,전라남도 광양시 옥곡면 금영로 263,가능,,061-772-0055,닭요리,연중무휴,34.9726898,127.7151866,광양 윤동주 유고보존 정병욱 가옥
2,광양시,영일관,"전라남도 광양시 옥곡면 신금산단5길 76, 1588-1 신금산단5길 76",가능,,061-791-2231,한식,연중무휴,34.9750757,127.7191239,광양 윤동주 유고보존 정병욱 가옥
2,광양시,바우네나주곰탕광양시청점,"전라남도 광양시 행정2길 2, 1층일부",가능,,061-791-0791,,매주일요일,34.9415471,127.6964264,구봉산 전망대
2,광양시,조선옥숯불갈비,전라남도 광양시 광영로 22,가능,,061-792-8559,,"2, 4주 일요일",34.9621867,127.7264539,배알도 수변공원
2,광양시,대나무향가득한집 광양점,전라남도 광양시 광양읍 서천2길 17,,,061-763-8111,한식,"명절(설,추석)당일",34.9710905,127.5798981,보광사(광양)
2,광양시,장원회관,전라남도 광양시 광양읍 매천로 821-5,가능,,061-761-6006,한식,연중무휴,34.9758097,127.5851567,광양문화원
2,광양시,이정재한우식육식당,전라남도 광양시 광양읍 서평7길 52,가능,,061-761-1622,소고기구이,월요일,34.9792876,127.5814846,광양만권 경제자유구역 홍보관
2,광양시,내가찜한코다리찜,전라남도 광양시 광양읍 서북로 30,,,061-761-9393,한식,연중무휴,34.9735997,127.5788151,보광사(광양)
2,광양시,황금코다리 광양점,전라남도 광양시 광양읍 매천로 752-1,가능,,061-762-0077,한식,연중무휴,34.977523,127.5782724,광양 장도박물관
2,광양시,마로현목장,전라남도 광양시 광양읍 인덕로 922,가능,,061-762-9290,한식,연중무휴,34.965084,127.5795932,보광사(광양)
2,담양군,흥부네추어탕,전라남도 담양군 수북면 한수동로 609,가능,,061-381-6600,추어탕,4주 화요일,35.3043019,126.9261358,영산강
2,담양군,한재골가든,전라남도 담양군 대전면 병풍로 374,가능,,061-382-8839,한식,연중무휴,35.2942667,126.8806584,담양우표박물관
2,담양군,국보966옛날두부,전라남도 담양군 가사문학면 장단길 31,가능,,061-383-5118,,연중무휴,35.1322532,127.0855963,물염정
2,담양군,들풀산채정식,전라남도 담양군 고서면 분향용대길 3-6,가능,,061-381-7370,한식,연중무휴,35.2055791,126.9863164,창평향교
2,담양군,쓰촨,전라남도 담양군 고서면 가사문학로 341,가능,,061-382-0888,,연중무휴,35.2222571,126.9744457,창평향교
2,담양군,추원추어탕&오겹살,전라남도 담양군 담양읍 무정로 47-1,가능,,061-381-7667,추어탕,월요일,35.3081003,126.9861188,남희정
2,담양군,담양황금횟집,전라남도 담양군 담양읍 지침3길 7-21,가능,,061-381-7933,생선회,"첫째주,셋째주 일요일",35.3164181,126.9841789,해동문화예술촌
2,담양군,담양죽순게장,전라남도 담양군 담양읍 객사2길 11-37,가능,,061-383-2201,게요리,연중무휴,35.3238142,126.9826028,아트센터 대담
2,담양군,계륵장군,전라남도 담양군 담양읍 미리산길 64 (B동),가능,,061-381-3223,한식,연중무휴,35.3139871,126.9864119,용화사(담양)
2,담양군,소나무집,전라남도 담양군 담양읍 세솔길 2,가능,,061-382-2304,한식,연중무휴,35.3388097,126.990999,죽녹원
2,담양군,돈돈오모이다스,전라남도 담양군 담양읍 객사9길 20,가능,,061-383-3340,,월요일,35.3225946,126.9875149,담양 음식테마거리
2,담양군,고부정,전라남도 담양군 담양읍 지침6길 53,가능,,061-383-8505,한식,연중무휴,35.3175721,126.9876244,해동문화예술촌
2,담양군,김영희동태찜&코다리냉면,전라남도 담양군 담양읍 중앙로 91,가능,,061-382-9995,냉면,연중무휴,35.3213723,126.9820422,해동문화예술촌
2,담양군,등뼈본가,전라남도 담양군 담양읍 객사5길 3,가능,,061-382-5335,감자탕,일요일,35.321595,126.9856097,담양 음식테마거리
2,담양군,초원정,"전라남도 담양군 대전면 대전로 39, ",가능,,061-382-1972,한식,연중무휴,35.2735496,126.8888548,담양우표박물관
2,담양군,제일숯불갈비,전라남도 담양군 담양읍 마두길 4,가능,,061-381-1234,,연중무휴,35.300651,126.9798936,남희정
2,담양군,한상근대통밥집,전라남도 담양군 월산면 담장로 113,,,061-382-1999,한식,연중무휴,35.3338256,126.9645252,아트센터 대담
2,담양군,국보966,전라남도 담양군 금성면 담순로 11,가능,,061-381-9662,한식,연중무휴,35.3355223,127.0179647,개구리생태공원
2,담양군,맛있는 밥상,전라남도 담양군 담양읍 죽녹원로 66,가능,,061-383-4021,한식,일요일,35.3207276,126.9853691,해동문화예술촌
2,담양군,죽향풍천장어,전라남도 담양군 담양읍 객사3길 23-11,가능,,061-383-7873,,연중무휴,35.3238639,126.982382,아트센터 대담
2,담양군,칠우대패삼겹살,"전라남도 담양군 담양읍 지침6길 38, 2층",가능,,061-383-7575,,일요일,35.3163769,126.9867981,해동문화예술촌
2,담양군,순우리촌뚜부와도토리수제비,"전라남도 담양군 대전면 병풍로 376, ",가능,,061-383-0799,한식,연중무휴,35.2940183,126.8804093,담양우표박물관
2,담양군,항아리,전라남도 담양군 용면 금성산성길 553,가능,,061-382-6697,한식,월요일,35.3752024,126.9961536,담양호
2,담양군,옛날제일식당,전라남도 담양군 담양읍 마두길 6,가능,,061-381-2404,한식,연중무휴,35.3008871,126.9799518,남희정
2,담양군,병풍산방,전라남도 담양군 대전면 대치5길 131,가능,,061-381-9282,한식,목요일,35.2868209,126.8813985,담양우표박물관
2,담양군,죽녹원갈비,전라남도 담양군 담양읍 죽녹원로 147,가능,,061-381-0480,,연중무휴,35.3269183,126.9882046,플라타너스 별빛 달빛 길
2,담양군,남도마당,전라남도 담양군 가사문학면 가사문학로 1861,가능,,061-381-7492,한식,연중무휴,35.1355855,127.07494,화순 야사리 은행나무
2,담양군,한방한재골하얀집,"전라남도 담양군 대전면 방축동길 4, ",가능,,061-381-5282,한식,월요일,35.2854028,126.8882515,담양우표박물관
2,담양군,담원,전라남도 담양군 담양읍 천변5길 29,가능,,061-383-8787,한식,연중무휴,35.3171235,126.97916,해동문화예술촌
2,담양군,송죽정본점,전라남도 담양군 담양읍 죽향대로 1171,가능,,061-381-9988,한식,연중무휴,35.3106062,126.9805562,한국대나무박물관
2,담양군,수북회관꿀꿀갈비,전라남도 담양군 수북면 한수동로 586,가능,,061-382-7043,,수요일,35.3034438,126.9288315,영산강
2,담양군,죽향숯불갈비,전라남도 담양군 담양읍 죽녹원로 131,가능,,061-381-4499,,연중무휴,35.3257431,126.987495,플라타너스 별빛 달빛 길
2,담양군,참숯골갈비,전라남도 담양군 담양읍 지침3길 7-5,가능,,061-381-0879,,월요일,35.3161731,126.9840058,해동문화예술촌
2,담양군,영빈관,전라남도 담양군 담양읍 지침6길 45,가능,,061-381-0966,한식,연중무휴,35.3171301,126.9871486,해동문화예술촌
2,담양군,복돼지숯불갈비,전라남도 담양군 수북면 한수동로 579,가능,,061-383-8181,,월요일,35.3028053,126.9286927,영산강
2,담양군,담주부로이,전라남도 담양군 담양읍 추성로 1134,가능,,061-381-6788,한식,연중무휴,35.3172558,126.9628245,한국대나무박물관
2,담양군,대치한우,전라남도 담양군 대전면 추성1로 159,가능,,061-382-9393,소고기구이,연중무휴,35.2755014,126.8843045,담양우표박물관
2,담양군,명가정,전라남도 담양군 담양읍 깊은실길 16,가능,,061-382-0560,한식,수요일,35.3220439,127.0038004,담양 메타프로방스
2,담양군,소쇄원채식뷔페,전라남도 담양군 가사문학면 지실길 103,가능,,061-383-5255,한식뷔페,월요일,35.1849572,127.0097462,담양 소쇄원
2,담양군,이대가(李大家)메밀,전라남도 담양군 담양읍 객사4길 41,가능,,061-383-0220,음식점,연중무휴,35.3236108,126.9840244,아트센터 대담
2,담양군,행복한임금님,전라남도 담양군 담양읍 지침6길 78-9,가능,,061-381-3050,한정식,명절,35.3181933,126.9902381,해동문화예술촌
2,담양군,댓잎홍팥죽,전라남도 담양군 담양읍 메타프로방스4길 11,가능,,061-381-6888,죽,연중무휴,35.3220935,127.0054408,담양 메타세쿼이아길
2,담양군,다연정식,전라남도 담양군 고서면 가사문학로 300,가능,,061-381-7300,한정식,월요일,35.2248176,126.9713844,창평향교
2,담양군,여수복집,전라남도 담양군 담양읍 죽향대로 1146,가능,,061-382-5454,복어요리,연중무휴,35.308348,126.9818757,한국대나무박물관
2,곡성군,맹성식당,전라남도 곡성군 입면 송전로 6,가능,,061-363-1431,한식,연중무휴,35.3053158,127.1877852,의마총
2,곡성군,통나무집,전라남도 곡성군 죽곡면 대황강로 1598-19,가능,,061-362-3090,한식,연중무휴,35.1893983,127.3727339,압록유원지
2,곡성군,우리회관,전라남도 곡성군 곡성읍 중앙로 118,가능,,061-363-8321,,명절에,35.2811052,127.2955917,곡성레저문화센터
2,곡성군,청국장과흑두부,전라남도 곡성군 옥과면 천변로 19,가능,,061-362-0104,,"2, 4주 월요일",35.267207,127.1260381,옥과향교
2,곡성군,석곡돼지한마리,전라남도 곡성군 석곡면 석곡2길13,가능,,061-362-3077,,연중무휴,35.130216,127.2549055,대황강 자연휴식공원
2,곡성군,통큰통갈비,전라남도 곡성군 옥과면 리문4길 10,가능,,061-362-2030,,연중무휴,35.2749948,127.1351237,옥과향교
2,곡성군,제일식당,전라남도 곡성군 오곡면 기차마을로 143,가능,,061-363-2955,한식,,35.2717147,127.314656,섬진강기차마을
2,곡성군,오가네붕어찜,전라남도 곡성군 곡성읍 곡성로 782,가능,,061-363-1311,한식,명절에만 휴무,35.2763615,127.2902437,곡성레저문화센터
2,곡성군,도림장어,전라남도 곡성군 석곡면 주석로 623-12,가능,,061-363-8000,,연중무휴,35.1271926,127.2509559,대황강 자연휴식공원
2,곡성군,석곡식당,전라남도 곡성군 석곡면 석곡로 60,,,061-362-3133,한식,연중무휴,35.1324076,127.253838,대황강 자연휴식공원
2,곡성군,새수궁가든,전라남도 곡성군 죽곡면 섬진강로 1015-2,가능,,061-363-4633,한식,연중무휴,35.1914099,127.3750582,압록유원지
2,곡성군,옥과백련찜탕,전라남도 곡성군 옥과면 미술관로 72,가능,,061-363-6213,,연중무휴,35.2826043,127.1335071,옥과향교
2,곡성군,약대추산장,전라남도 곡성군 오곡면 미산길 118-13,가능,,061-363-2625,,"2, 4주 월요일",35.250567,127.3020287,덕양사
2,곡성군,궁전회관,전라남도 곡성군 곡성읍 중앙로 54,가능,,061-362-1539,한정식,매주 토.일 예약있을때는 영업함,35.2782812,127.2894854,곡성레저문화센터
2,곡성군,용궁산장,전라남도 곡성군 죽곡면 대황강로 1598-17,가능,,061-362-8346,한식,연중무휴,35.189736,127.3732045,압록유원지
2,곡성군,청수산장,전라남도 곡성군 죽곡면 섬진강로 1015-1,가능,,061-362-8382,한식,연중무휴,35.1916336,127.3753341,압록유원지
2,곡성군,송원,전라남도 곡성군 옥과면 리문4길 5,가능,,061-362-7070,한식,매주화요일,35.2755014,127.1350762,옥과향교
2,곡성군,섬진강민물장어,전라남도 곡성군 옥과면 리문 6길 32,가능,,061-363-9155,,매주화요일,35.2743586,127.1369633,옥과향교
2,곡성군,함박가든,전라남도 곡성군 곡성읍 곡성로 805,가능,,061-363-8484,한식,연중무휴,35.278018,127.2922573,곡성레저문화센터
2,곡성군,사계절횟집,전라남도 곡성군 오곡면 대황강로 1589,가능,,061-362-1933,생선회,연중무휴,35.1905607,127.3712639,압록유원지
2,곡성군,삼화관광농원,전라남도 곡성군 겸면 입면로 208,가능,,061-362-8586,오리요리,"설날, 추석 (2일)",35.2872239,127.1667206,삼화관광농원
2,곡성군,우마루plus,전라남도 곡성군 곡성읍 곡성로 822,가능,,061-363-9955,,연중무휴,35.2780794,127.2941595,곡성레저문화센터
2,곡성군,송다원,전라남도 곡성군 옥과면 가곡길 129-1,가능,,061-362-4700,,연중무휴,35.2610127,127.1326423,옥과향교
2,곡성군,미연복집,전라남도 곡성군 오산면 오산로 968,가능,,061-362-9552,복어요리,연중무휴,35.2646867,127.121209,옥과향교
2,구례군,삼겹살데이,전라남도 구례군 구례읍 5일시장작은길20,가능,,061-783-5831,,,35.2101515,127.4700805,구례문화원
2,구례군,두레박,전라남도 구례군 구례읍 오일시장작은길 20,가능,,061-783-0056,감자탕,,35.2431734,127.1209353,옥과향교
2,구례군,지리산면옥,전라남도 구례군 구례읍 봉남리 56-1,가능,,061-782-5723,냉면,,35.2036096,127.4625686,구례향제줄풍류전수관
2,구례군,당동솔밭가든,전라남도 구례군 산동면 당골길 86-3,가능,,061-783-1929,한식,,35.3134061,127.4854261,위안 산촌마을
2,구례군,당골식당,전라남도 구례군 산동면 당골길 86-31,가능,,061-783-1689,한식,화요일,35.3142125,127.4870911,위안 산촌마을
2,구례군,참나무가든,전라남도 구례군 토지면 섬진강대로 5057,가능,,061-781-3338,,,35.1977789,127.5246652,구례 운조루 고택
2,구례군,윤채밥상,전라남도 구례군 광의면 은행정1길32-12,가능,,061-781-9288,한식,일요일,35.2435696,127.4529926,매천사
2,구례군,고향가든,전라남도 구례군 구례읍 섬진강로 15-17,가능,,061-783-3730,한식,,37.6731592,127.1632824,중대리계곡
2,구례군,한갤러리레스토랑,전라남도 구례군 광의면 예술인길 57,가능,,061-781-0688,한식,,35.2753753,127.4498445,구례오픈스튜디오 (관광두레 주민사업체)
2,구례군,산골집,전라남도 구례군 산동면 우와길 63-4,가능,,061-782-2521,한식,화요일,35.2782143,127.4117467,자연드림파크(구례)
2,구례군,지리산수라간,전라남도 구례군 마산면 화엄사로 336,가능,,061-783-1033,한식,,35.2396591,127.4874565,반달가슴곰생태학습장
2,구례군,한가네식당,전라남도 구례군 구례읍 구례1길 59,가능,,061-782-0095,한식,일요일,35.2106172,127.4658921,구례향제줄풍류전수관
2,구례군,동바리해장국,전라남도 구례군 구례읍 구례로 502,가능,,061-783-0042,해장국,"첫째주, 셋째주 화요일",35.2060444,127.4691023,구례문화원
2,구례군,계산관광농원식당,전라남도 구례군 구례읍 섬진강로 595,가능,,061-783-3001,한식,,35.1914735,127.402272,섬진강 다무락마을 [녹색관광마을]
2,구례군,까막정가든,전라남도 구례군 구례읍 택지2길 32-2,가능,,061-781-7575,닭요리,,35.214328,127.461074,동편제 판소리전수관
2,구례군,구례밥상,전라남도 구례군 구례읍 5일시장큰길 28-1,,,061-781-0015,한식,일요일,35.2104255,127.4707638,구례문화원
2,구례군,하림회관,전라남도 구례군 마산면 화엄사로 286,가능,,061-782-8600,"찌개,전골",,35.2350525,127.4880592,반달가슴곰생태학습장
2,구례군,청솔가든,전라남도 구례군 용방면 용방로 484,가능,,061-782-4280,한식,일요일,35.2517333,127.431128,매천사
2,구례군,산동진미식당,전라남도 구례군 산동면 관산구산길 42,가능,,061-783-8429,한식,,35.3183683,127.4640917,방호정(구례)
2,구례군,시골밥상,전라남도 구례군 광의면 매천로 349,가능,,061-781-6050,한식,,35.2566825,127.4655812,매천사
2,구례군,이지원육개장,전라남도 구례군 산동면 지리산온천로 192,가능,,061-781-8858,한식,화요일,35.3129218,127.4512383,지리산온천랜드
2,구례군,큰맘할매순대국전남구례점,전라남도 구례군 구례읍 중앙로 60,가능,,061-782-2488,,"2, 4주 화요일",35.2109219,127.4681918,구례문화원
2,구례군,해화수산,전라남도 구례군 구례읍 택지2길 20-6,가능,,061-781-8089,생선회,일요일,35.214411,127.4627474,동편제 판소리전수관
2,구례군,소문난오돌뼈,전라남도 구례군 구례읍 5일시장작은길 34,가능,,061-782-7080,,일요일,35.2111675,127.4714006,구례문화원
2,구례군,초원가든,전라남도 구례군 구례읍 섬진강로 610,가능,,061-782-1776,한식,,35.1915567,127.4004755,섬진강 다무락마을 [녹색관광마을]
2,구례군,호수공원식당,전라남도 구례군 산동면 구만제로 677,가능,,061-781-9967,한식,,35.2848679,127.424835,지리산호수공원
2,구례군,통뼈감자탕구례점,전라남도 구례군 구례읍 봉성산길 4,,,061-782-3561,감자탕,,35.2087361,127.4639859,구례향제줄풍류전수관
2,구례군,기사식당,전라남도 구례군 구례읍 중앙로 9,가능,,061-781-4000,한식,"첫째주, 마지막주 월요일",35.206495,127.4676165,구례문화원
2,구례군,십이월이십오일,전라남도 구례군 광의면 예술인길 59,가능,,061-782-8900,음식점,,35.2756587,127.4498742,구례오픈스튜디오 (관광두레 주민사업체)
2,구례군,주부가든,전라남도 구례군 마산면 화엄사로 213,가능,,061-782-6282,한식,,35.2285844,127.4880043,반달가슴곰생태학습장
2,구례군,뜨란채,전라남도 구례군 구례읍 로터리골목길 4,,,061-782-9155,한식,,35.2083928,127.4649357,구례향제줄풍류전수관
2,구례군,송이식당,전라남도 구례군 마산면 화엄사로 255,가능,,061-782-5785,한식,,35.2323423,127.487919,반달가슴곰생태학습장
2,구례군,지리산초원흑돈,전라남도 구례군 산동면 관산구산길 1,가능,,061-783-0061,,,35.3189546,127.4605363,지리산온천랜드
2,구례군,남도식당,전라남도 구례군 간전면 하천길 27,,,061-783-1315,한식,둘째주.넷째주 .월요일,35.1817459,127.6209345,구례 석주관성
2,구례군,한국회관,전라남도 구례군 산동면 지리산온천로 266-8,가능,,061-783-9700,닭요리,,35.3163994,127.4570301,지리산온천랜드
2,구례군,백련맛집,전라남도 구례군 구례읍 택지길 52,가능,,061-781-7101,한식,수요일,35.2151359,127.4621522,동편제 판소리전수관
2,구례군,온정,전라남도 구례군 산동면 지리산온천로 266-1,가능,,061-783-4541,한식,,35.3168554,127.4573869,지리산온천랜드
2,구례군,전원가든,전라남도 구례군 구례읍 섬진강로 76,가능,,061-782-4733,한식,월요일,35.1693992,127.448527,구례 섬진강 벚꽃길
2,구례군,만리장성,전라남도 구례군 구례읍 서시천로 80,가능,,061-783-9339,,월요일,35.2149687,127.4669843,동편제 판소리전수관
2,구례군,무안뻘낙지,전라남도 구례군 구례읍 숲거리길 20,가능,,061-783-8822,,,35.2138641,127.4659568,구례향제줄풍류전수관
2,구례군,천수식당,전라남도 구례군 구례읍 섬진강로 15-16,가능,,061-782-7738,한식,,35.1665898,127.453787,구례 섬진강 벚꽃길
2,구례군,황토가든,전라남도 구례군 산동면 관산구산길 7,가능,,061-783-1806,한식,,35.3185539,127.4609228,지리산온천랜드
2,구례군,들녘밥상,전라남도 구례군 토지면 운조루길49-1,가능,,061-781-5225,한식,월요일,35.2061882,127.5142107,구례 운조루 고택
2,구례군,목화식당,전라남도 구례군 구례읍 구례2길33,가능,,061-782-9171,한식,,35.2092358,127.4633206,구례향제줄풍류전수관
2,구례군,덕인관,전라남도 구례군 산동면 지리산온천로 143-18,가능,,061-781-7881,한식,,35.3126784,127.4444429,운흥정
2,구례군,구례밥도둑,전라남도 구례군 구례읍 5일시장작은길 3-1,가능,,061-782-1007,한식,"일요일(장날3,8일영업)",35.2113247,127.468173,구례문화원
2,구례군,함흥냉면,전라남도 구례군 마산면 화엄사로 15,,,061-782-4326,냉면,,35.2121633,127.4809067,구례문화원
2,구례군,지리산한우식당,전라남도 구례군 산동면 용산로 607,가능,,061-781-8838,소고기구이,,35.3103071,127.4299529,운흥정
2,구례군,민속마을,전라남도 구례군 구례읍 봉서산정길 4,가능,,061-782-8413,,,35.1985838,127.4635801,농업기술센터 자연생태학습장
2,구례군,동문식당,전라남도 구례군 구례읍 중앙로 29,가능,,061-782-5020,한식,,35.2082092,127.4675813,구례문화원
2,구례군,보양식당,전라남도 구례군 구례읍 중앙로4,가능,,061-783-0036,한식,,35.2059954,127.4680465,구례문화원
2,구례군,지리산갈비촌,전라남도 구례군 구례읍 의료원길 37,가능,,061-783-5400,,토요일,35.2152682,127.4605829,동편제 판소리전수관
2,구례군,백제회관,전라남도 구례군 산동면 지리산온천로 260-7,가능,,061-783-2867,한식,,35.3163458,127.4568572,지리산온천랜드
2,구례군,두마례,전라남도 구례군 구례읍 택지2길 5-1,가능,,061-781-5507,한식,일요일,35.213995,127.4640466,동편제 판소리전수관
2,구례군,달빛마루,전라남도 구례군 마산면 화엄사로 386-3,가능,,061-783-9600,카페,,35.2433346,127.4894289,국립공원공단 종복원기술원
2,구례군,남해수산,전라남도 구례군 구례읍 구례로 500,가능,,061-782-4976,생선회,화요일,35.2059794,127.4689357,구례문화원
2,구례군,구례정식당,전라남도 구례군 구례읍 구례로 558,가능,,061-781-6677,한식,,35.2095415,127.4734211,구례문화원
2,구례군,매화식당,전라남도 구례군 간전면 운천리 16,가능,,061-783-6577,한식,,35.1826457,127.6217905,구례 석주관성
2,구례군,운수대통,전라남도 구례군 구례읍 중앙로 67,가능,,061-783-8833,한식,,35.2116044,127.467478,구례향제줄풍류전수관
2,구례군,봉성식당,전라남도 구례군 구례읍 봉동길 8-9,가능,,061-782-7262,한식,"일요일(단, 일요일 장날 3일8일 영업)",35.2089774,127.4686626,구례문화원
2,구례군,산하산장,전라남도 구례군 간전면 선창길 290,가능,,061-781-2882,,,35.1372352,127.5660514,백운산 구시폭포
2,고흥군,다복,전라남도 고흥군 풍양면 죽시장터길 30,가능,,061-834-7507,한식,매월 첫째.셋째 일요일,34.5749769,127.2412578,고흥 유자공원
2,고흥군,고향숯불갈비,전라남도 고흥군 도양읍 목넘가는길 2,가능,,061-844-9213,,매월 첫째.셋째일요일,34.5276582,127.1344557,녹동항
2,고흥군,달맞이숯불갈비,전라남도 고흥군 도화면 천마로 2265,가능,,061-832-3406,,수요일,34.508718,127.3198062,충무사(고흥)
2,고흥군,아리랑산장어구이,전라남도 고흥군 도양읍 비봉로 177,가능,,061-842-7797,,매주수요일,34.5256568,127.135796,녹동항 바다정원
2,고흥군,경성식당,전라남도 고흥군 도덕면 학동1길 30,가능,,061-843-9909,한식,연중무휴,34.565652,127.1733652,고흥우주천문과학관
2,고흥군,금탑회관,전라남도 고흥군 고흥읍 학교길 47,가능,,061-832-2220,한식,매주일요일,34.6076327,127.2903667,고흥 존심당 및 아문
2,고흥군,대진,전라남도 고흥군 도양읍 비봉로 257,가능,,061-842-0003,생선회,연중무휴,34.5241592,127.1431591,녹동항 바다정원
2,고흥군,담양숯불갈비,"전라남도 고흥군 고흥읍 고흥로 1723 (음식점), 1층",,,061-833-9922,,매월둘째넷째일요일,34.6069244,127.2831514,고흥 존심당 및 아문
2,고흥군,도야숯불갈비,전라남도 고흥군 고흥읍 홍교길 10 1층,,,061-833-9292,,연중무휴,34.6096797,127.284937,고흥 존심당 및 아문
2,고흥군,해변횟집,전라남도 고흥군 두원면 두원로 1307,가능,,061-835-8535,생선회,연중무휴,34.7120513,127.2694926,대전해수욕장
2,고흥군,한우촌,전라남도 고흥군 금산면 거금중앙길 126-1,가능,,061-844-4664,소고기구이,연중무휴,34.4622509,127.1278198,송광암
2,고흥군,청정산장어구이,전라남도 고흥군 도화면 천마로 2281,가능,,061-835-1026,,연중무휴,34.5087765,127.3213464,충무사(고흥)
2,고흥군,진미회관,전라남도 고흥군 봉래면 나로도항길 135,가능,,061-833-6615,감자탕,매달첫째화요일,34.4651336,127.4538737,힐링파크 쑥섬쑥섬 (애도)
2,고흥군,백상회관,전라남도 고흥군 고흥읍 봉황길 26-8,,,061-835-8788,한식,연중무휴,34.6088608,127.2841848,고흥 존심당 및 아문
2,고흥군,늘푸른식당,전라남도 고흥군 고흥읍 고흥로 1688,가능,,061-833-0037,한식,매주일요일,34.6043087,127.2806298,남열해돋이해수욕장
2,고흥군,성천관광횟집,전라남도 고흥군 동일면 덕흥양쪽길 118,가능,,061-835-1213,생선회,연중무휴,34.5289677,127.4584632,덕흥해수욕장
2,고흥군,송월관,전라남도 고흥군 도양읍 녹동남촌1길 6-3,가능,,061-842-2228,한식,매월첫째.셋째일요일,34.5293143,127.1378062,녹동항
2,고흥군,녹동별난국밥,전라남도 고흥군 도양읍 비봉로 263,가능,,061-843-8898,국밥,연중무휴,34.5241253,127.1437773,녹동항 바다정원
2,고흥군,고흥맛집,전라남도 고흥군 동강면 고흥로 4271,가능,,061-833-8442,한식,연중무휴,34.7805516,127.3337861,재동서원
2,고흥군,월포가든,전라남도 고흥군 금산면 오룡동길 19,가능,,061-842-8425,한식,매주수요일,34.4875013,127.2006147,적대봉
2,고흥군,소나무집가든,전라남도 고흥군 고흥읍 봉남봉동길81,가능,,061-833-0300,한식,매주월요일,34.6031226,127.2900819,고흥 존심당 및 아문
2,고흥군,소담,전라남도 고흥군 고흥읍 서문여산길 38 1층,,,061-835-3633,한식,"2, 4주 토요일",34.6089646,127.2828087,고흥 존심당 및 아문
2,고흥군,장수골,전라남도 고흥군 도양읍 녹동남촌2길18,,,061-842-6669,한식,연중무휴,34.529075,127.1380035,녹동항
2,고흥군,청록,전라남도 고흥군 도양읍 녹동1길11-6,,,061-842-3519,한식,첫째세째수요일,34.5246146,127.1396592,녹동항 바다정원
2,고흥군,대복식당,전라남도 고흥군 고흥읍 장전신전길 6,가능,,061-833-9280,한식,연중무휴,34.5948611,127.2748797,남열해돋이해수욕장
2,고흥군,영남만나식당,전라남도 고흥군 영남면 해맞이로 15,가능,,061-834-8115,한식,매주일요일,34.6017883,127.4570119,남포미술관
2,고흥군,티파니,전라남도 고흥군 포두면 내산길 3-6,가능,,061-833-8416,카페,매주월요일,34.5447348,127.3692953,마복산 목재문화체험장
2,고흥군,백세갈비,전라남도 고흥군 도화면 중심길7-6,가능,,061-832-5700,,매월 첫째.세째 월요일,34.50925,127.3174372,충무사(고흥)
2,고흥군,미성참갈비,전라남도 고흥군 도양읍 녹동남촌3길22 101호,가능,,061-842-0045,,매주화요일,34.52865,127.1386182,녹동항 바다정원
2,고흥군,돈가해장국,전라남도 고흥군 고흥읍 여산당촌길 46,가능,,061-833-6531,해장국,매월 첫째.셋째일요일,34.6075924,127.278208,남열해돋이해수욕장
2,고흥군,큰맘할매순대국,전라남도 고흥군 고흥읍 고흥군청로 33 103~105,,,061-835-7511,,첫째셋째월요일,34.6051552,127.2803792,남열해돋이해수욕장
2,고흥군,삼보횟집,전라남도 고흥군 도양읍 목넘가는길 12,가능,,061-844-8800,생선회,매월넷째주 수요일,34.5277321,127.1334632,녹동항
2,고흥군,청해식육식당,"전라남도 고흥군 도양읍 번영1길3 101,102호",가능,,061-842-3917,,연중무휴,34.5321768,127.1382841,녹동항
2,고흥군,순천식당,전라남도 고흥군 봉래면 나로도항길 117,가능,,061-833-6441,한식,연중무휴,34.4651998,127.4540901,힐링파크 쑥섬쑥섬 (애도)
2,고흥군,선비촌,전라남도 고흥군 금산면 거금중앙길 134,가능,,061-843-9097,한식,연중무휴,34.4627599,127.128405,송광암
2,고흥군,박여사아구,전라남도 고흥군 고흥읍 홍교당촌길 3,,,061-832-6868,,매주토요일,34.6088345,127.2826105,고흥 존심당 및 아문
2,고흥군,우리집오리,전라남도 고흥군 도양읍 천마로 51,가능,,061-842-0887,오리요리,매주수요일,34.5334487,127.1392595,녹동항
2,고흥군,평산횟집,전라남도 고흥군 금산면 평산길 80,가능,,061-843-8972,생선회,연중무휴,34.4889907,127.1768404,적대봉
2,고흥군,동경갈비,"전라남도 고흥군 금산면 거금중앙길 117-8,2층",,,061-842-9191,,매주일요일,34.4622102,127.1267057,송광암
2,고흥군,남쪽나라쉼터가든,전라남도 고흥군 포두면 우주로 1953,가능,,061-835-9449,한식,연중무휴,34.5332942,127.4258627,덕양서원(고흥)
2,고흥군,삼원락갈비,전라남도 고흥군 고흥읍 여산당촌길 35,가능,,061-834-5757,,연중무휴,34.6073103,127.2792781,남열해돋이해수욕장
2,고흥군,포두촌닭,전라남도 고흥군 포두면 우주로 685,가능,,061-835-4455,닭요리,매월 둘째.넷째월요일,34.5646455,127.3454872,마복산 목재문화체험장
2,고흥군,토박이,전라남도 고흥군 도양읍 우주항공로15 103호,가능,,061-842-8700,한식,매월 둘째.넷째금요일,34.5253902,127.140515,녹동항 바다정원
2,고흥군,맛난갈비,전라남도 고흥군 고흥읍 고흥로 1614,가능,,061-833-9291,,매주토요일,34.5984887,127.2769429,남열해돋이해수욕장
2,고흥군,풍경채,전라남도 고흥군 고흥읍 흥양길76,가능,,061-832-6777,한식,매주토요일일요일,34.6122571,127.2818226,고흥향교
2,고흥군,바다마을,전라남도 고흥군 도양읍 북문길7-4,가능,,061-833-9192,생선회,매주월요일,34.5283442,127.1331074,녹동항
2,고흥군,명태골,전라남도 고흥군 고흥읍 봉황길 6,,,061-832-1414,한식,매주토요일,34.6104005,127.2843858,고흥 존심당 및 아문
2,고흥군,황금오리,전라남도 고흥군 도양읍 우주항공로 43,가능,,061-842-5292,오리요리,매주일요일,34.5279829,127.1403351,녹동항 바다정원
2,고흥군,삼부자횟집,전라남도 고흥군 도양읍 동두메2길 5,가능,,061-842-1177,생선회,매주월요일,34.5255591,127.1363068,녹동항 바다정원
2,고흥군,양산박,전라남도 고흥군 풍양면 죽시장터길 32,가능,,061-834-5229,한식,매월 둘째.넷째 일요일,34.5748981,127.2411452,고흥 유자공원
2,고흥군,녹동민물장어직판장,전라남도 고흥군 도양읍 녹동신항2길 32,가능,,061-842-4300,,매주일요일,34.524982,127.144194,녹동항 바다정원
2,고흥군,정일품정육식당,"전라남도 고흥군 고흥읍 봉동주공길43, 104,105호",가능,,061-833-8866,,첫째셋째. 토요일,34.6055872,127.2917624,고흥 존심당 및 아문
2,고흥군,미운오리,전라남도 고흥군 고흥읍 호산로 845,가능,,061-833-9737,오리요리,매주일요일,34.6090458,127.2732163,남열해돋이해수욕장
2,고흥군,동방기사식당,전라남도 고흥군 과역면 고흥로 2921,가능,,061-832-9445,한식,연중무휴,34.6737589,127.360492,수도암(고흥)
2,고흥군,동강갈비탕,전라남도 고흥군 동강면 고흥로 4786-3,가능,,061-833-2814,,연중무휴,34.8223447,127.3463249,흥덕사
2,고흥군,송학식당,전라남도 고흥군 도양읍 명동길 12,가능,,061-842-3635,한식,매월 처째.셋째수요일,34.527166,127.1361424,녹동항 바다정원
2,고흥군,일미식당,전라남도 고흥군 두원면 두원로 473-1,가능,,061-835-4018,한식,매주일요일,34.6453447,127.2738382,고흥 무열사
2,고흥군,삼국시대감자탕녹동점,전라남도 고흥군 도양읍 우주항공로 6,가능,,061-842-3900,감자탕,연중무휴,34.5243791,127.141292,녹동항 바다정원
2,고흥군,덕성루,전라남도 고흥군 고흥읍 봉동주공길 3-1,가능,,061-834-2626,,매주월요일,34.607704,127.2884016,고흥 존심당 및 아문
2,보성군,외서댁꼬막나라,전라남도 보성군 벌교읍 조정래길 60,가능,,061-858-3330,한식,,34.848334,127.3442622,소화다리(부용교)
2,보성군,여자만,전라남도 보성군 벌교읍 채동선로 151,가능,,061-858-5092,음식점,"2, 4주 수요일",34.8373214,127.3419193,구 보성여관
2,보성군,보성명가,전라남도 보성군 보성읍 용문길 7,가능,,061-852-0091,한식,매월 첫째주 셋째주 일요일,34.7716496,127.0935124,보성문화원
2,보성군,청마루식당,전라남도 보성군 보성읍 중앙로 98-1,,,061-852-8011,한식,일요일,34.7702594,127.0805685,보성향교
2,보성군,백옥정,전라남도 보성군 미력면 예재로 1,가능,,061-853-5325,음식점,,34.7996872,127.0871592,삼우당충선공강성군부민후 문익점 부조묘
2,보성군,삼일풍천장어,전라남도 보성군 회천면 남부관광로 2313,가능,,061-852-1900,,매월 첫째주 셋째주 화요일,34.6698683,127.0859479,율포해수풀장
2,보성군,일품장어나라,전라남도 보성군 벌교읍 시장2길 12,가능,,061-858-6104,,월요일,34.8436308,127.3458565,구 보성여관
2,보성군,보리보리쌀,전라남도 보성군 벌교읍 조정래길 300,가능,,061-858-5496,한식뷔페,일요일,34.8653681,127.3414669,보성 벌교 홍교
2,보성군,달국자,전라남도 보성군 득량면 예당길 13,가능,,061-853-0038,음식점,,34.7783752,127.1841782,보성 강골마을
2,보성군,부용산꼬막식당,전라남도 보성군 벌교읍 벌교천1길 49,가능,,061-857-3533,한식,,34.8466437,127.3439438,소화다리(부용교)
2,보성군,보성아라낙지,전라남도 보성군 회천면 우암길 27-20,가능,,061-852-1549,,,34.6712238,127.0895328,율포해수욕장(솔밭해변)
2,보성군,한우랑돼지랑,전라남도 보성군 회천면 우암길 27-14,가능,,061-853-3399,,,34.6709875,127.0895452,율포해수욕장(솔밭해변)
2,보성군,한가네진땡이,전라남도 보성군 벌교읍 홍암로 28,가능,,061-857-2036,,일요일,34.8432959,127.3478982,구 보성여관
2,보성군,정가네원조꼬막회관,전라남도 보성군 벌교읍 조정래길 55,가능,,061-857-2211,한식,,34.8480988,127.3448207,소화다리(부용교)
2,보성군,성훈이네횟집,전라남도 보성군 회천면 우암길 27-24,가능,,061-852-1935,생선회,,34.6713404,127.0895344,율포해수욕장(솔밭해변)
2,보성군,수일억조횟집,전라남도 보성군 회천면 우암길 27-67,가능,,061-853-9797,생선회,,34.6718644,127.0891215,율포해수욕장(솔밭해변)
2,보성군,장수촌식당,전라남도 보성군 조성면 조성로 101-1,가능,,061-857-3020,한식,,34.80763,127.2458566,보성싱싱농원
2,보성군,대원정,전라남도 보성군 보성읍 새싹길 84,,,061-852-8623,한식,월요일,34.7727034,127.0806797,보성향교
2,보성군,청광도예원,전라남도 보성군 보성읍 사동길 52-11,가능,,061-853-4125,한식,매월 둘째주 넷째주 월요일,34.7244309,127.0885228,한국차박물관
2,보성군,오늘한점,전라남도 보성군 벌교읍 홍암로 120,가능,,061-857-8295,,첫째주 월요일,34.8466835,127.35511,태백산맥문학관
2,보성군,녹차골추어탕,전라남도 보성군 보성읍 녹차로 987-2,가능,,061-853-9281,추어탕,,34.7322927,127.0909475,보성 골망태다원
2,보성군,수복식당,전라남도 보성군 보성읍 중앙로 102-1,,,061-853-3032,한식,,34.770448,127.0803511,보성향교
2,보성군,사계절바다맛집,전라남도 보성군 회천면 남부관광로 2175,가능,,061-852-3060,한식,매월 첫째주 셋째주 월요일,34.6649693,127.0752339,율포해수풀장
2,보성군,대경,전라남도 보성군 벌교읍 채동선로 136-13,가능,,061-858-0119,음식점,월요일,34.8360611,127.3441352,구 보성여관
2,보성군,보성한우직판장,전라남도 보성군 회천면 우암1길 10,,,061-853-5266,한식,,34.6732447,127.0921372,율포오토캠핑리조트
2,보성군,원조꼬막식당,전라남도 보성군 벌교읍 태백산맥길 1,가능,,061-857-7675,한식,,34.8424453,127.3428241,구 보성여관
2,보성군,늘푸른 흑염소가든,전라남도 보성군 노동면 예재로 397,가능,,061-853-0206,한식,일요일,34.828791,127.074308,삼우당충선공강성군부민후 문익점 부조묘
2,보성군,보성관,전라남도 보성군 보성읍 송재로 161-3,,,061-852-2700,한식,매월 첫째주 셋째주 일요일,34.7704517,127.0797089,보성향교
2,보성군,다향회관,전라남도 보성군 보성읍 용문길 19,가능,,061-853-3396,한식,,34.7728014,127.0931499,보성문화원
2,보성군,율포봇재가든,전라남도 보성군 회천면 남부관광로 2299,가능,,061-852-3500,음식점,,34.6688007,127.085767,율포해수풀장
2,보성군,예당한우명가식육식당,전라남도 보성군 득량면 파청길 3,가능,,061-853-0332,소고기구이,,34.7792548,127.1830527,보성 강골마을
2,보성군,향우식당 한정식,전라남도 보성군 벌교읍 신정길 4-41,가능,,061-857-0847,한정식,첫째주 월요일,34.842958,127.3527865,태백산맥문학관
2,보성군,춘하추동회관,전라남도 보성군 보성읍 동산길 12-9,,,061-852-2787,한식,일요일,34.7689177,127.0803887,보성향교
2,보성군,해돋이횟집,전라남도 보성군 회천면 남부관광로 2305,가능,,061-852-6790,생선회,,34.669162,127.0858065,율포해수풀장
2,보성군,임가네식육식당,"전라남도 보성군 보성읍 봉화로 53, 301호",가능,,061-852-2669,,,34.7648481,127.076579,보성향교
2,보성군,갯마을횟집,전라남도 보성군 회천면 우암길 27-12,가능,,061-852-8103,생선회,,34.6708612,127.08956,율포해수욕장(솔밭해변)
2,보성군,해연,전라남도 보성군 벌교읍 장좌월곡길 166-27,가능,,061-857-2300,한정식,"2, 4주 월, 화요일",34.8335708,127.3227671,구 보성여관
2,보성군,강나루,전라남도 보성군 벌교읍 벌교천1길 9,가능,,061-857-9600,한식,,34.8443274,127.3473062,구 보성여관
2,보성군,보성녹차떡갈비보성녹돈특미관,전라남도 보성군 보성읍 봉화로 53,가능,,061-852-4545,,,34.7651401,127.0774548,보성향교
2,보성군,(유)보성녹차떡갈비 원조,전라남도 보성군 보성읍 흥성로 2541-4,가능,,061-853-0555,,매월 첫째주 셋째주 월요일,34.7660275,127.089675,보성향교
2,화순군,식물나라,전라남도 화순군 화순읍 유천리 299-0,가능,,061-372-2566,오리요리,매주월요일,35.0670107,126.9965969,만연폭포
2,화순군,낙지촌,전라남도 화순군 화순읍 서양로 337,가능,,061-372-2177,,연중무휴,35.0618446,126.999658,최경회사당
2,화순군,해태집,전라남도 화순군 화순읍 광덕로 247,,,,한식,첫째.세째 일요일 휴무,35.0669528,126.9923578,화순향교
2,화순군,정원카페,전라남도 화순군 화순읍 대리 97-2,가능,,061-373-8851,카페,연중무휴,35.0560281,126.9774031,대리칠충각
2,화순군,현대옥,전라남도 화순군 화순읍 칠충로 16,가능,,061-375-8686,한식,연중무휴,35.0531786,126.9741089,대리칠충각
2,화순군,오이시초밥,전라남도 화순군 화순읍 자치샘로 81-9,,,061-373-4848,,연중무휴,35.0598636,126.9899709,남산공원(화순)
2,화순군,폭포가든,전라남도 화순군 화순읍 안양산로 93-10,가능,,061-374-2229,닭요리,매주월요일,35.072999,127.0013792,만연폭포
2,화순군,달맞이흑두부,전라남도 화순군 동면 천덕리 480번지,가능,,061-372-8465,,연중무휴,35.0295449,127.0487878,환산정
2,화순군,고구려,전라남도 화순군 도곡면 천암리 117-3,가능,,061-373-0082,한식,연중무휴,35.0151951,126.9142118,도곡원네스 리조트
2,화순군,수만리커피,전라남도 화순군 화순읍 수만리 287-9,,,061-374-0933,카페,,35.0904775,127.019473,무등산편백자연휴양림(안양산자연휴양림)
2,화순군,약산흑염소,전라남도 화순군 화순읍 상삼2길 13-9,가능,,061-373-9292,한식,연중무휴,35.0531183,126.9883272,남산공원(화순)
2,화순군,조개까는꼼장어,전라남도 화순군 화순읍 대교로 87,,,061-373-5592,,연중무휴,35.0636513,126.9887347,화순향교
2,화순군,벽오동도곡점,전라남도 화순군 도곡면 원화리 348,가능,,061-374-3799,한식,연중무휴,35.0400575,126.9052647,도곡원네스 리조트
2,화순군,하오쯔짬뽕,전라남도 화순군 도곡면 천암리 696-32,가능,,061-372-4848,,연중무휴,35.013251,126.9121787,도곡원네스 리조트
2,화순군,초우,전라남도 화순군 도곡면 원화리 291-6,가능,,061-374-9978,한식,연중무휴,35.0346583,126.9071315,도곡원네스 리조트
2,화순군,카페벽오동,전라남도 화순군 화순읍 안양산로 145,,,061-372-6669,카페,연중무휴,35.0762087,127.0034083,만연폭포
2,화순군,산마을다람쥐,전라남도 화순군 화순읍 수만리 450번지 1호,가능,,061-372-1859,한식,,35.09239,127.0081559,무등산 양떼목장
2,화순군,완타치일품청국장,전라남도 화순군 능주면 석고리 194-1,가능,,061-375-9284,한식,,34.9922477,126.9574601,죽수절제아문
2,화순군,벽오동화순점,"전라남도 화순군 화순읍 유천리 2-12, ",가능,,061-373-9997,한식,연중무휴,35.0760907,127.0033094,만연폭포
2,화순군,내고향맛자랑,전라남도 화순군 도곡면 원화리 385,가능,,061-374-5420,한식,연중무휴,35.0452732,126.903892,화순광산이씨승지공비
2,화순군,양지식당,전라남도 화순군 능주면 관영리 226번지 6호,가능,,061-372-1602,한식,연중무휴,34.9866447,126.962831,죽수절제아문
2,화순군,가내수공업,전라남도 화순군 화순읍 서양로 340,가능,,061-375-6449,,연중무휴,35.0619798,127.0006428,만연폭포
2,화순군,달빛,전라남도 화순군 도곡면 원화리 367,가능,,061-375-0092,한식,연중무휴,35.0428831,126.9052492,화순광산이씨승지공비
2,화순군,유진정,전라남도 화순군 도곡면 원화리 341,가능,,061-375-5245,오리요리,연중무휴,35.0395076,126.9057089,도곡원네스 리조트
2,화순군,봉순이팥죽,전라남도 화순군 화순읍 칠충로 132,,,061-375-8735,죽,매주일요일,35.0602569,126.9834151,남산공원(화순)
2,화순군,도곡애떡갈비,전라남도 화순군 도곡면 원화리 349-1,가능,,061-375-0689,,연중무휴,35.0402163,126.9056552,화순광산이씨승지공비
2,화순군,연기향,전라남도 화순군 화순읍 서양로 354,가능,,061-372-7711,,연중무휴,35.0638139,127.0001334,만연폭포
2,화순군,부잣집,전라남도 화순군 도곡면 원화리 187-1,가능,,061-374-5086,,월요일,35.0290983,126.9090673,도곡원네스 리조트
2,화순군,손맛이 정말 좋아,전라남도 화순군 화순읍 충의로 88,가능,,061-374-8607,베트남음식,매주일요일,35.055416,126.9873828,남산공원(화순)
2,화순군,화성식육식당,전라남도 화순군 화순읍 훈리 65-2,,,061-374-2806,,연중무휴,35.0628127,126.9849223,화순향교
2,화순군,삼육구숯불구이전문점,전라남도 화순군 화순읍 만연로 66-3,가능,,061-372-3690,,연중무휴,35.0616911,126.9906897,남산공원(화순)
2,화순군,구지가,전라남도 화순군 화순읍 앵남리 658-8,,,061-373-9452,한식,연중무휴,35.0506988,126.9065601,화순광산이씨승지공비
2,화순군,둥근지붕,전라남도 화순군 도곡면 천암리 696-164,가능,,061-371-3333,한식,연중무휴,35.0193667,126.9084523,도곡원네스 리조트
2,화순군,별빛,전라남도 화순군 도곡면 원화리 189-2,가능,,061-374-5181,한식,매주목요일,35.0287025,126.9092101,도곡원네스 리조트
2,화순군,백년가든,전라남도 화순군 화순읍 화보로 4132,가능,,061-373-5161,삼계탕,연중무휴,35.0566159,126.9748804,대리칠충각
2,화순군,다다미,전라남도 화순군 화순읍 오성로 570,가능,,061-375-8966,한식,연중무휴,35.052651,126.970767,화순대리석불입상
2,화순군,색동두부,전라남도 화순군 도곡면 원화리 41,가능,,061-375-5066,,연중무휴,35.0336417,126.9078153,도곡원네스 리조트
2,화순군,임광복의뜨락,전라남도 화순군 화순읍 동구리 168-5,가능,,061-372-8015,한식,연중무휴,35.0820827,126.9849537,만연사(화순)
2,화순군,운주골추어탕&가자미물회,전라남도 화순군 화순읍 대리 300-1,가능,,061-372-1999,추어탕,연중무휴,35.053599,126.9711,화순대리석불입상
2,화순군,벽오동설렁탕전문점,전라남도 화순군 도곡면 원화리 318,가능,,061-374-3799,설렁탕,연중무휴,35.0370543,126.9054731,도곡원네스 리조트
2,화순군,쭈꾸미사랑,전라남도 화순군 도곡면 지강로 429 (외 1필지 1.2층),가능,,061-371-0008,,연중무휴,35.0323698,126.906936,도곡원네스 리조트
2,화순군,만강장어명품관,전라남도 화순군 도곡면 지강로 444,가능,,061-375-5525,,매주윌요실,35.0342763,126.9075478,도곡원네스 리조트
2,화순군,행복한임금님,전라남도 화순군 도곡면 지강로 532(1층),가능,,061-374-0211,한식,연중무휴,35.0413899,126.9047202,화순광산이씨승지공비
2,장흥군,고향식당,전라남도 장흥군 안양면 남부관광로 470,가능,,061-862-0731,한식,연중무휴,34.6660804,126.9531961,정남진 편백숲 우드랜드
2,장흥군,미소,전라남도 장흥군 장흥읍 건산로 19,가능,,061-864-8892,,"2, 4주 일요일",34.6784449,126.9092289,탐진강 생태습지원
2,장흥군,천관산쉼터,전라남도 장흥군 관산읍 방촌1길 44-141,가능,,061-867-7886,한식,월요일,34.5486614,126.937783,장흥 오헌고택 (구 위성탁 가옥)
2,장흥군,유리수산횟집,전라남도 장흥군 관산읍 옥당2길 2,가능,,061-867-8670,생선회,"첫째주,넷째주 월요일",34.563168,126.9371133,장흥 옥당리 효자송
2,장흥군,장흥천관한우식당,전라남도 장흥군 장흥읍 토요시장2길 15,가능,,061-864-5353,소고기구이,연중무휴,34.6762136,126.9025857,예양서원
2,장흥군,닭치고오리,전라남도 장흥군 장흥읍 의향길 1,가능,,061-864-9293,오리요리,연중무휴,34.6824746,126.9050195,정남진물과학관
2,장흥군,땅몰가든,전라남도 장흥군 안양면 남부관광로 500-18,,,061-862-0822,한식,,34.6636861,126.9540364,억불산
2,장흥군,관산반점,전라남도 장흥군 관산읍 칠관로 1562,,,061-867-2238,,"15일, 30일",34.5624861,126.937351,장흥 옥당리 효자송
2,장흥군,조은막창구이,전라남도 장흥군 동교3길 16,가능,,061-862-7007,한식,연중무휴,34.6800921,126.906766,탐진강 생태습지원
2,장흥군,화풍,전라남도 장흥군 장흥읍 물레방앗간길 25-13,가능,,061-862-0118,,연중무휴,34.6789334,126.9063113,탐진강 생태습지원
2,장흥군,황칠나라,"전라남도 장흥군 건산로 62, 건산로62-2",가능,,061-864-5288,한식,일요일,34.6819043,126.9075792,정남진물과학관
2,장흥군,싱싱회마을,전라남도 장흥군 동교3길 25,가능,,061-863-8555,생선회,2주 일요일,34.6807148,126.907682,탐진강 생태습지원
2,장흥군,대복2관,전라남도 장흥군 장흥읍 동교로 36-10,가능,,061-864-1500,한식,연중무휴,34.6834558,126.9052124,정남진물과학관
2,장흥군,정남진한우사랑,전라남도 장흥군 회진면 회진로 437,가능,,061-867-9292,소고기구이,일요일,34.4842645,126.9401828,장흥 회령진성
2,장흥군,갯마을횟집,전라남도 장흥군 안양면 수문용곡로 141,가능,,061-862-1203,생선회,수요일,34.6327748,127.0312768,장흥 키조개마을
2,장흥군,한우마을,전라남도 장흥군 장흥읍 칠거리예양로 46-12,가능,,061-864-5665,소고기구이,연중무휴,34.6758446,126.9023902,예양서원
2,장흥군,부부한우,전라남도 장흥군 장흥읍 토요시장3길 4-1,가능,,061-862-8747,소고기구이,연중무휴,34.6754327,126.903029,탐진강 생태습지원
2,장흥군,청수가든,전라남도 장흥군 관산읍 천관산길 104,가능,,061-867-2388,한식,연중무휴,34.5494404,126.9359708,장흥 오헌고택 (구 위성탁 가옥)
2,장흥군,정남진갈치전문점,전라남도 장흥군 장흥읍 동교3길 37,가능,,061-862-7113,,일요일,34.6797222,126.90633,탐진강 생태습지원
2,장흥군,안동국밥,전라남도 장흥군 장흥읍 남부관광로 23,가능,,061-862-0877,국밥,연중무휴,34.6770074,126.911911,탐진강 생태습지원
2,장흥군,장흥한우삼합구이,전라남도 장흥군 장흥읍 토요시장2길 9-2,가능,,061-864-0097,소고기구이,연중무휴,34.6757538,126.9025475,예양서원
2,장흥군,신들뫼바다,전라남도 장흥군 장흥읍 북부로 19,가능,,061-864-5335,,일요일,34.6843542,126.9048929,정남진물과학관
2,장흥군,등뼈,전라남도 장흥군 장흥읍 물레방앗간길 9,가능,,061-863-8006,감자탕,연중무휴,34.677868,126.9075576,탐진강 생태습지원
2,장흥군,조마루감자탕,전라남도 장흥군 장흥읍 남부관광로 27,가능,,061-863-4486,감자탕,연중무휴,34.6771274,126.912289,귀족호도박물관
2,장흥군,전주콩나물해장국밥,전라남도 장흥군 장흥읍 건산로 49,가능,,061-864-1991,국밥,연중무휴,34.6809493,126.9074853,탐진강 생태습지원
2,장흥군,탐진강오리,전라남도 장흥군 장흥읍 남외예양길 10,가능,,061-864-6656,오리요리,"첫째주,셋째주 월요일",34.6710884,126.8993447,장흥동학농민혁명기념관
2,장흥군,천지인,전라남도 장흥군 장흥읍 내평길 25-38,가능,,061-863-7772,한식,연중무휴,34.6654693,126.9169958,귀족호도박물관
2,장흥군,맛고을,전라남도 장흥군 관산읍 천관산길 106,가능,,061-867-8824,,"첫째주,셋째주 월요일",34.5493858,126.9358534,장흥 오헌고택 (구 위성탁 가옥)
2,장흥군,홍가네흑염소가든,전라남도 장흥군 장평면 곰치로 739,가능,,061-864-5989,한식,일요일,34.795593,126.942087,고산사(장흥)
2,장흥군,돈단지,전라남도 장흥군 장흥읍 물레방앗간길 16,가능,,061-864-7992,,"첫째주,셋째주 토요일",34.6785354,126.907328,탐진강 생태습지원
2,장흥군,가람감자탕,전라남도 장흥군 장흥읍 동교2길 14-7,가능,,061-864-1333,감자탕,연중무휴,34.6778245,126.9074616,탐진강 생태습지원
2,장흥군,녹원가,전라남도 장흥군 장흥읍 동부로 24,가능,,061-864-9294,한식,"2, 4주 화요일",34.6805549,126.9106111,탐진강 생태습지원
2,장흥군,운동장가든,전라남도 장흥군 장흥읍 읍성로 5-26,가능,,061-863-6114,한식,"매주 토요일,일요일",34.6694725,126.8931601,장흥동학농민혁명기념관
2,장흥군,세양회전문점,전라남도 장흥군 장흥읍 건산로 40,가능,,061-864-8222,생선회,없음,34.6801256,126.9083306,탐진강 생태습지원
2,장흥군,영천민물장어,전라남도 장흥군 안양면 안양로 151,가능,,061-862-9906,,일요일,34.6515989,126.9756802,억불산
2,장흥군,동방불패,전라남도 장흥군 장흥읍 동교3길 26,가능,,061-863-2580,,"첫째주,셋째주 일요일",34.6804711,126.9078072,탐진강 생태습지원
2,장흥군,명가아구찜,전라남도 장흥군 장흥읍 동교3길 31,,,061-863-7589,,,34.6808816,126.9082547,탐진강 생태습지원
2,장흥군,귀보아구찜,전라남도 장흥군 동교2길 50,가능,,061-863-5974,,"2, 4주 일요일",34.679536,126.9105347,탐진강 생태습지원
2,장흥군,빛고을맛집,전라남도 장흥군 관산읍 삼산관덕길 80,가능,,061-867-4644,한식,,34.5191826,126.9531355,장흥 삼산리 후박나무
2,장흥군,유희의반상,전라남도 장흥군 장흥읍 동교2길 1,가능,,061-863-6622,음식점,"2, 4주 월요일",34.6777575,126.9061336,탐진강 생태습지원
2,장흥군,바다하우스,전라남도 장흥군 안양면 수문용곡로 139,가능,,061-862-1021,생선회,월요일,34.6325807,127.0311176,장흥 키조개마을
2,장흥군,연송맛집,전라남도 장흥군 장흥읍 물레방앗간길 25-6,,,061-863-3727,한식,,34.6792603,126.906438,탐진강 생태습지원
2,장흥군,천관산한우식육식당,전라남도 장흥군 대덕읍 거정2길 10,가능,,061-867-5557,소고기구이,"첫째주,셋째주 일요일",34.4994252,126.8871207,천관문학관
2,장흥군,장흥일등한우식당,"전라남도 장흥군 장흥읍 토요시장3길 10-1, (2층)",가능,,061-863-9291,소고기구이,셋째주 월요일,34.6760104,126.9030755,탐진강 생태습지원
2,장흥군,정남진전망대횟집,전라남도 장흥군 관산읍 정남진해안로 212-57,가능,,061-867-4616,생선회,연중무휴,34.5101234,126.972183,정남진 전망대
2,장흥군,병영식당횟집,전라남도 장흥군 관산읍 정남진로 3-7,가능,,061-867-2276,생선회,일요일,34.5627842,126.9391837,장흥 방촌리 석장승
2,장흥군,오리앤오리,전라남도 장흥군 장흥읍 우드랜드길 84,가능,,061-862-5222,오리요리,연중무휴,34.6718355,126.925594,귀족호도박물관
2,장흥군,포차12번지,전라남도 장흥군 장흥읍 물레방앗간길 12,가능,,061-864-0067,한식,"첫째주,셋째주 일요일",34.6781053,126.90763,탐진강 생태습지원
2,장흥군,화끈한한우삼합구이,전라남도 장흥군 장흥읍 토요시장1길 33,가능,,061-863-7733,소고기구이,연중무휴,34.6756695,126.9031216,탐진강 생태습지원
2,장흥군,탐진강메기탕,전라남도 장흥군 장흥읍 송산길 56,가능,,061-864-6543,한식,연중무휴,34.6530231,126.8896441,탐진강
2,장흥군,명동식당관광,전라남도 장흥군 남부관광로 194,,,061-864-2727,,,34.6777645,126.930546,귀족호도박물관
2,장흥군,천관회관,전라남도 장흥군 관산읍 장흥대로 1674,가능,,061-867-2677,한식,"2, 4주 일요일",34.5539052,126.943518,장흥 방촌리 석장승
2,장흥군,강남아구찜 대구뽈테기,전라남도 장흥군 장흥읍 장흥대로 3267,가능,,061-864-1800,,월요일,34.664713,126.8868811,장흥동학농민혁명기념관
2,장흥군,금다원,전라남도 장흥군 장흥읍 장흥로 90,가능,,061-863-8567,한식,일요일,34.6854522,126.9121705,연곡서원
2,장흥군,탐마루,전라남도 장흥군 장흥읍 장흥로 1 (탐마루),가능,,061-862-8292,한식,화요일,34.6805733,126.9051764,예양서원
2,장흥군,남도,전라남도 장흥군 동교1길 19,가능,,061-863-5645,한식,"2, 4주 일요일",34.6771811,126.907566,탐진강 생태습지원
2,장흥군,문수헌,전라남도 장흥군 장흥읍 외평길 152,가능,,061-863-8484,한식,월요일,34.6640139,126.9131212,귀족호도박물관
2,장흥군,오얏리돌솥밥,전라남도 장흥군 장흥읍 북부로 70,가능,,061-864-8300,한식,일요일,34.6862246,126.9098597,정남진물과학관
2,장흥군,정남진만나숯불갈비식육식당,전라남도 장흥군 장흥읍 물레방앗간길 4,가능,,061-864-1818,,셋째주 월요일,34.6776609,126.90815,탐진강 생태습지원
2,장흥군,용곡회마을,전라남도 장흥군 안양면 용곡길 59,가능,,061-862-1199,,연중무휴,34.636703,127.0441621,스파리조트 안단테
2,장흥군,구쁘한우관,전라남도 장흥군 장흥읍 토요시장1길 53,가능,,061-863-5989,소고기구이,연중무휴,34.6772721,126.9031396,예양서원
2,장흥군,수종가든,전라남도 장흥군 장흥읍 우드랜드길 21,가능,,061-863-6822,한식,일요일,34.6756583,126.921,귀족호도박물관
2,장흥군,한들,전라남도 장흥군 토요시장1길 9,가능,,061-862-4533,한식,일요일,34.6735621,126.90218,탐진강 생태습지원
2,강진군,강진궁전한우촌명성축산영농조합법인,전라남도 강진군 강진읍 보은로 62,가능,,061-432-2771,소고기구이,,34.6337409,126.7669537,강진문화원
2,강진군,강진착한한우명품관,전라남도 강진군 강진읍 종합운동장길 50-10,가능,,061-434-0043,소고기구이,일요일,34.6440287,126.780137,강진 오감통
2,강진군,강진흑염소,전라남도 강진군 강진읍 보은로2길 18,가능,,061-434-4951,한식,,34.638591,126.7711403,강진문화원
2,강진군,거목마루,전라남도 강진군 성전면 도림로 34,가능,,061-434-8088,한식,일요일,34.6590031,126.7237801,고성사(강진)
2,강진군,남도국밥,전라남도 강진군 강진읍 보은로 71-1,가능,,061-433-9599,국밥,,34.6347372,126.7673648,강진문화원
2,강진군,달구지식당,전라남도 강진군 마량면 마량3길 27,가능,,061-432-3839,,,34.4513871,126.8185017,강진마도진만호성지
2,강진군,모란아구찜,전라남도 강진군 강진읍 보은로2길 24-1,가능,,061-433-1238,,,34.6389582,126.7706461,강진문화원
2,강진군,바우식당,전라남도 강진군 강진읍 보은로1길 29,가능,,061-432-0513,,첫째주 일요일,34.6385452,126.7690508,강진문화원
2,강진군,서문정,전라남도 강진군 강진읍 서문길 7 101호,가능,,061-432-5253,한식,,34.6390206,126.7636601,강진영랑생가
2,강진군,아궁이,전라남도 강진군 강진읍 보은로2길 20,가능,,061-432-2150,한식,,34.6387125,126.7710177,강진문화원
2,강진군,염대감 나주곰탕,전라남도 강진군 강진읍 영랑로 55,가능,,061-433-5454,,일요일,34.6401926,126.7667205,강진영랑생가
2,강진군,옛날팥죽,전라남도 강진군 성전면 신풍길 39-22,가능,,061-434-7733,죽,,34.7142496,126.709548,강진 청자골달마지마을
2,강진군,옥이생선구이정식,전라남도 강진군 강진읍 보은로안길 32,가능,,061-433-3392,생선구이,화요일,34.63853,126.7734232,강진 나이트 드림
2,강진군,우아민물나라,전라남도 강진군 성전면 사문로 98,가능,,061-432-5777,한식,"2, 4주 월요일",34.7278283,126.722659,녹향월촌마을
2,강진군,원정흑염소,전라남도 강진군 성전면 예향로 59-10,가능,,061-434-1001,한식,,34.6966306,126.7074624,강진 청자골달마지마을
2,강진군,인생극장 쪽갈비,전라남도 강진군 강진읍 서성안길 8,가능,,061-432-1245,,,34.6391571,126.7669877,강진군도서관
2,강진군,저두맛집,전라남도 강진군 강진읍 보은로3길 20,가능,,061-433-7114,한식,,34.6392446,126.772021,강진 오감통
2,강진군,전주콩나물국밥유명한집,전라남도 강진군 강진읍 탐진로 135,가능,,061-432-3236,국밥,,34.6428121,126.7695504,사의재저잣거리
2,강진군,조선제일국밥,전라남도 강진군 강진읍 보은로4길 24,가능,,061-434-4567,국밥,일요일,34.639736,126.7724382,강진 오감통
2,강진군,차이나 루,전라남도 강진군 강진읍 중앙로 113 16호,가능,,061-432-4977,,,34.6398658,126.768985,강진군도서관
2,강진군,청풍,전라남도 강진군 강진읍 동성로18,가능,,061-434-1230,닭요리,,34.6404179,126.7745601,강진 오감통
2,강진군,카페.제이피지(Cafe.jpg),전라남도 강진군 강진읍 사의재길 53-1,가능,,061-432-0005,카페,,34.6454178,126.7728118,사의재저잣거리
2,강진군,한끼,전라남도 강진군 강진읍 보은로1길 15,가능,,061-432-5030,,일요일,34.6376475,126.7698958,강진문화원
2,강진군,함지박,"전라남도 강진군 마량면 마량5길 20, 2층",가능,,061-433-3132,한식,,34.4500228,126.8175552,마량미항(마량항)
2,강진군,황칠코리아 목삼정,전라남도 강진군 강진읍 덕남로 87,가능,,061-434-3738,한식,일요일,34.6141461,126.7551655,옥련사(강진)
2,해남군,돈오리뚝배기,전라남도 해남군 해남읍 교육청길 37,가능,,061-532-4171,오리요리,"2, 4주 토요일",34.5681097,126.6090457,해촌서원
2,해남군,다도해,전라남도 해남군 송지면 땅끝마을길 51,가능,,061-533-2793,한식,,34.2991381,126.5280192,갈두마을(땅끝마을)
2,해남군,전라도가정식백반,전라남도 해남군 송지면 땅끝마을길 43,가능,,061-532-5004,,,34.2999977,126.5276334,갈두마을(땅끝마을)
2,해남군,금강골민물장어,전라남도 해남군 해남읍 해리2길 7,가능,,061-535-3599,,일요일,34.5726964,126.610145,해촌서원
2,해남군,태양정,전라남도 해남군 삼산면 매정길 53,가능,,061-535-4751,오리요리,,34.5052853,126.611457,남도한옥민박마을
2,해남군,청솔복집,전라남도 해남군 해남읍 북부순환로 97,가능,,061-535-0186,복어요리,,34.5735451,126.6012123,해남문화원
2,해남군,궁전해물탕,전라남도 해남군 해남읍 남부순환로 48,가능,,061-535-2992,해물탕,일요일,34.5671913,126.6050644,해남문화원
2,해남군,진수산민물숯불장어,전라남도 해남군 송지면 산정1길 132,,,061-535-9422,,연중무휴,34.3686915,126.5179583,송지 대죽리 조개잡이 체험장
2,해남군,황궁물회,전라남도 해남군 해남읍 북부순환로 148,가능,,061-533-2158,생선회,"2, 4주 일요일",34.5754977,126.5963276,해남문화예술회관
2,해남군,소담소담,전라남도 해남군 북일면 오소재로 12,가능,,061-533-7749,한식,매주 일요일 휴,34.46824,126.6768405,성도사
2,해남군,차경식당,전라남도 해남군 북평면 백도로 134,가능,,061-536-6859,,첫째 세쩨 월요일 휴무,34.4174567,126.6325401,오산어촌체험마을
2,해남군,만호가든,전라남도 해남군 삼산면 해남화산로 607-4,가능,,061-537-6540,한식,,34.514813,126.5485226,김남주 생가
2,해남군,가학산흑염소요리전문점,전라남도 해남군 계곡면 해남로 1453,가능,,061-534-7638,한식,"첫째,셋째 일요일휴무",34.6461912,126.6600875,해남 방춘정
2,해남군,땅끝바다횟집,전라남도 해남군 송지면 땅끝마을길 38-7,가능,,061-534-6422,생선회,,34.2995981,126.5272179,갈두마을(땅끝마을)
2,해남군,고기나라,전라남도 해남군 해남읍 남부순환로 59,가능,,061-536-2223,한식,,34.5660473,126.6052548,해남문화원
2,해남군,매화정,전라남도 해남군 삼산면 고산로 689,가능,,061-536-5050,,화요일,34.5066836,126.6121758,남도한옥민박마을
2,해남군,미송가든,전라남도 해남군 산이면 산이로 529,가능,,061-534-1005,한식,,34.618794,126.5100042,해남 해바라기농장
2,해남군,금강산횟집,전라남도 해남군 문내면 관광레저로 5,가능,,061-535-5114,생선회,,34.5733509,126.3060526,명량해협 울돌목
2,해남군,남창휴게소,전라남도 해남군 북평면 백도로 143,가능,,061-535-0088,한식,,34.4184426,126.6326074,오산어촌체험마을
2,해남군,땅끝기와집,전라남도 해남군 해남읍 법원길 29,가능,,061-534-2322,한정식,일요일,34.574169,126.5910864,해남문화예술회관
2,영암군,삼화기사님한정식뷔페,전라남도 영암군 덕진면 예향로 1796,,,061-471-0585,한식뷔페,4주 일요일,34.8245209,126.6957,녹동서원
2,영암군,소문난만두김밥전문점,전라남도 영암군 영암읍 중앙로 20,가능,,061-473-7484,김밥,매주일요일,34.7983375,126.696627,녹동서원
2,영암군,독천갈낙탕,전라남도 영암군 학산면 영산로12-10,가능,,061-472-6909,한식,연중무휴,34.7250108,126.5701554,영암 장천리 선사주거지
2,영암군,언덕위에하얀집,전라남도 영암군 덕진면 여운재로 565,가능,,061-471-7000,카페,연중무휴,34.8263817,126.741935,영암최성호가옥
2,영암군,우정회관,전라남도 영암군 영암읍 낭주로 79,가능,,061-473-5400,한식,연중무휴,34.796212,126.7062006,녹동서원
2,영암군,국일관횟집,전라남도 영암군 영암읍 열무정로 29,가능,,061-471-9192,생선회,연중무휴,34.799182,126.7001239,녹동서원
2,영암군,장수촌가든,전라남도 영암군 삼호읍 대보둑로 188-5,가능,,061-472-3895,한식,화요일,34.727847,126.54418,영암 장천리 선사주거지
2,영암군,철판요리전문점,전라남도 영암군 영암읍 회의촌길 14-15,가능,,061-471-1030,한식,연중무휴,34.7921371,126.6868622,월출산 기찬랜드
2,영암군,나주곰탕,전라남도 영암군 삼호읍 대불로 400,가능,,061-464-8859,,매주일요일,34.763864,126.3948581,고하도이충무공유적
2,영암군,영암돼통령,전라남도 영암군 영암읍 동문안길 29,가능,,061-473-9282,한식,연중무휴,34.7984639,126.69922,녹동서원
2,영암군,궁전본가,전라남도 영암군 영암읍 낭주로 206,가능,,061-471-7500,한정식,연중무휴,34.8061301,126.7000558,녹동서원
2,영암군,신토불이감자탕,"전라남도 영암군 영암읍 중앙로 17-1, 45-15",가능,,061-471-5118,감자탕,"첫째,세째일요일",34.7984338,126.6962621,녹동서원
2,영암군,남도음식문화원금강산,전라남도 영암군 삼호읍 녹색로 853,가능,,061-464-9333,한식,연중무휴,34.7636437,126.4732557,전라남도 농업박물관
2,영암군,옛날기사님식당,전라남도 영암군 삼호읍 대불로 96-5,가능,,061-462-5413,,연중무휴,34.7389139,126.3890344,현대삼호중공업
2,영암군,우가양평해장국,전라남도 영암군 삼호읍 삼호중앙로 225,,,061-462-2005,해장국,연중무휴,34.7458954,126.475243,영암호(철새도래지)
2,영암군,복돼지식당,전라남도 영암군 도포면 마한로 856,가능,,061-471-5649,,연중무휴,34.8398378,126.6279426,김완장군묘소 및 신도비
2,영암군,일품 양평 해장국,전라남도 영암군 삼호읍 신항로 90,,,061-462-8777,해장국,토요일,34.7468732,126.3785743,현대삼호중공업
2,영암군,대불식당,전라남도 영암군 영암읍 군청로 2-22,,,061-473-2365,,연중무휴,34.7994961,126.6961621,녹동서원
2,영암군,삼정식당,전라남도 영암군 삼호읍 대불로 404,가능,,061-464-6161,,매월 둘째네째일요일,34.7643122,126.3952986,삼학도
2,영암군,매력한우기찬랜드명품관,전라남도 영암군 영암읍 기찬랜드로 17,가능,,061-473-7788,소고기구이,연중무휴,34.7926221,126.6858134,한국트로트가요센터
2,영암군,믿음한우식육식당,전라남도 영암군 삼호읍 대불주거로 64,가능,,061-464-1787,소고기구이,일요일,34.7472725,126.4652968,영암호(철새도래지)
2,영암군,미락가든,전라남도 영암군 영암읍 교동로 22,가능,,061-473-4013,한식,첫째셋째일요일 11월 -3월 무휴,34.7955744,126.6877295,영암문화원
2,영암군,태백식육식당,전라남도 영암군 시종면 마한로 1257,가능,,061-472-5960,,명절,34.8669433,126.608773,김완장군묘소 및 신도비
2,영암군,영암매력한우삼호명품관,전라남도 영암군 삼호읍 녹색로 592,가능,,061-464-0085,소고기구이,연중무휴,34.7787959,126.452476,전라남도 농업박물관
2,영암군,한마리더,전라남도 영암군 영암읍 서문안길 8,가능,,061-473-8256,한식,매주일요일,34.7985906,126.6952952,녹동서원
2,영암군,목원가든,전라남도 영암군 군서면 평리길 99-31,,,061-471-0404,한식,매월 세째주 일요일,34.7747182,126.6282847,영암 왕인박사마을
2,영암군,남도큰집,전라남도 영암군 영암읍 동문로 70,가능,,061-471-7022,,연중무휴,34.8018068,126.7003222,녹동서원
2,영암군,월출산이야기,전라남도 영암군 군서면 구림로 43-24,가능,,061-472-0507,,매월 세째주 일요일,34.7600674,126.6284815,영암 왕인촌마을 [농촌체험휴양마을]
2,영암군,영암맛집,전라남도 영암군 영암읍 성밖로 42,가능,,061-472-9079,한식,연중무휴,34.7979397,126.6961911,녹동서원
2,영암군,맛나감자탕(삼호점),전라남도 영암군 삼호읍 대불주거로 109,가능,,061-462-6565,감자탕,매주수요일,34.7496822,126.461043,전라남도 농업박물관
2,영암군,청해,전라남도 영암군 삼호읍 대불주거7로1길 7,,,061-461-0026,,월요일,34.7564796,126.45472,전라남도 농업박물관
2,영암군,전통나주곰탕윤미경1호점,전라남도 영암군 삼호읍 삼호중앙로 189,가능,,061-464-3229,,매월 첫째.셋째주 토요일,34.7452399,126.471665,영암호(철새도래지)
2,영암군,영암왕족발,전라남도 영암군 영암읍 동문안길 31,,,061-471-0040,,연중무휴,34.7987322,126.699313,녹동서원
2,영암군,꼬미꼬미수산,전라남도 영암군 삼호읍 방아제로 3,,,061-462-3532,생선회,매월 첫짜.셋째주 일요일,34.7459388,126.472185,영암호(철새도래지)
2,영암군,낙지일번지(가),전라남도 영암군 학산면 독천로 174,가능,,061-472-4115,,매월 2일,34.7251645,126.5681612,영암 장천리 선사주거지
2,영암군,돈돼지삼겹살,전라남도 영암군 삼호읍 삼호중앙로 204-14,가능,,061-462-9008,,"2, 4주 일요일",34.7441375,126.4728487,영암호(철새도래지)
2,영암군,서릿등,전라남도 영암군 도포면 회호정길 41-38,가능,,061-473-0244,한식,일요일,34.8508892,126.6433307,김완장군묘소 및 신도비
2,영암군,아리솔참숯불갈비,전라남도 영암군 미암면 흑석로 1879,가능,,061-472-2722,,일요일,34.7220199,126.5667653,영암 장천리 선사주거지
2,영암군,구림식당,전라남도 영암군 학산면 영산로 12-14,가능,,061-472-4659,한식,일요일,34.7250569,126.5704118,영암 장천리 선사주거지
2,영암군,남도추어탕,전라남도 영암군 삼호읍 신항로 90,,,061-463-3651,추어탕,매월 토요일(2회),34.7468732,126.3785743,현대삼호중공업
2,영암군,남도식당,전라남도 영암군 시종면 마한로 1269-1,가능,,061-471-7476,한식,연중무휴,34.8681367,126.60889,김완장군묘소 및 신도비
2,영암군,내가찜한코다리찜,전라남도 영암군 학산면 독천로 230,가능,,061-462-8825,,"2, 4주 일요일",34.7258042,126.5741297,구고사 및 김완장군부조묘
2,영암군,고향한식뷔페식당,전라남도 영암군 시종면 마한로 1261,가능,,061-473-2003,한식뷔페,연중무휴,34.8674997,126.6086806,김완장군묘소 및 신도비
2,영암군,인현순대,전라남도 영암군 신북면 간은정로 18-3,가능,,061-471-6005,순대,연중무휴,34.8892331,126.6927908,영팔정
2,영암군,중원회관,전라남도 영암군 영암읍 군청로 2-13,,,061-473-6700,한식,연중무휴,34.7993561,126.6966099,녹동서원
2,영암군,약수터식당출장뷔페,"전라남도 영암군 영암읍 군청로 1-18, 1층",가능,,061-472-2876,한식,연중무휴,34.8012147,126.697901,녹동서원
2,영암군,국&뼈,전라남도 영암군 삼호읍 대불주거5로7길 3,가능,,061-463-8999,음식점,일요일,34.7527511,126.451011,전라남도 농업박물관
2,영암군,명품곱창,전라남도 영암군 삼호읍 중앙촌길 6,가능,,061-462-8950,곱창,연중무휴,34.74578,126.467982,영암호(철새도래지)
2,영암군,장어랑생고기,전라남도 영암군 삼호읍 신항로 114,가능,,061-462-5525,,연중무휴,34.7482308,126.3768802,현대삼호중공업
2,영암군,김가네김밥전문점,전라남도 영암군 영암읍 중앙로 61,,,061-473-9187,김밥,매주일요일,34.8014973,126.6989064,녹동서원
2,영암군,안면도,전라남도 영암군 학산면 독천로 157-42,,,061-471-6365,음식점,매주 일요일 저녁,34.7256393,126.5666318,영암 장천리 선사주거지
2,영암군,장어마을,전라남도 영암군 영암읍 천황사로 292,가능,,061-471-4226,,연중무휴,34.7774903,126.7238154,월출산국립공원
2,영암군,한국관,전라남도 영암군 영암읍 열무정로 22,가능,,061-471-0779,한식,연중무휴,34.7987339,126.6991847,녹동서원
2,영암군,진국명가,전라남도 영암군 군서면 영암로 1177,가능,,061-473-3668,,"2, 4주 일요일",34.7872641,126.6607054,한국트로트가요센터
2,무안군,카부(Kabu),"전라남도 무안군 삼향읍 남악5로60번길 34, 1층",가능,,061-984-7017,,일요일,34.8100062,126.4746814,목포평화광장
2,무안군,콩시루남악점,"전라남도 무안군 삼향읍 남악5로60번길 9-14, 1층 ",,,061-287-0058,한식,"2, 4주 일요일",34.8115009,126.4725623,목포평화광장
2,무안군,부산어묵베이커리목포남악점,"전라남도 무안군 삼향읍 남악로234, 비동 101호(트리폴리앙프라자)",가능,,061-281-0040,어묵,매주월요일,34.8050804,126.464252,목포평화광장
2,무안군,남악새우석화포차,"전라남도 무안군 삼향읍 남악3로82번길41, 101,102호",가능,,,포장마차,연중무휴,34.81334,126.4648771,목포평화광장
2,무안군,정식당,"전라남도 무안군 삼향읍 남악3로82번길41, 영산주차프라자 103호,104호",가능,,061-283-8933,한식,매주일요일,34.8133406,126.4648768,목포평화광장
2,무안군,임성자매식당,전라남도 무안군 삼향읍 임성로 147,가능,,061-287-5292,한식,매주  일요일,34.821675,126.4431979,춤추는 바다분수
2,무안군,박찬호초밥,"전라남도 무안군 삼향읍 대죽서로15번길22, 103.104호",가능,,061-287-1080,,연중무휴,34.8112278,126.4612393,목포평화광장
2,무안군,김밥매니아남악주공점,"전라남도 무안군 삼향읍 남악4로40, 펠리시티 2차 202동 102호",가능,,061-281-8087,김밥,4주 수요일,34.8091664,126.4663816,목포평화광장
2,무안군,유달탕찜,"전라남도 무안군 삼향읍 남악5로60번길1, 1층",가능,,061-281-4492,한식,연중무휴,34.8109965,126.4716714,목포평화광장
2,무안군,남악참숯불갈비,"전라남도 무안군 삼향읍 남악5로52번길 29-13, 1층",가능,,061-282-3395,,"2, 4주 일요일",34.8097959,126.4747358,목포평화광장
2,무안군,놀부부대찌개,"전라남도 무안군 삼향읍 대죽서로38, 101호 ",가능,,061-287-7055,"찌개,전골",월요일,34.8120919,126.4622486,목포평화광장
2,무안군,별암유성횟집남악점,전라남도 무안군 삼향읍 대죽서로15번길34,가능,,061-283-8899,생선회,연중무휴,34.8122803,126.4612512,목포평화광장
2,무안군,자연회수산,전라남도 무안군 삼향읍 남악5로52번길 29-10 1층,가능,,061-283-9355,생선회,"2, 4주 일요일",34.8095245,126.4747878,목포평화광장
2,무안군,오리명가고향정,"전라남도 무안군 삼향읍 남악5로70번길12, 1층",,,061-285-0772,오리요리,"2, 4주 월요일",34.8116277,126.4727656,목포평화광장
2,무안군,채움식육식당,"전라남도 무안군 삼향읍 남악4로34번길6, 144호 145호(에드가채움주상복합상가)",가능,,061-281-5735,,매주일요일,34.8078251,126.4664134,목포평화광장
2,무안군,낙향식당,전라남도 무안군 삼향읍 남악4로 60번가길 30,가능,,061-281-3971,한식,연중무휴,34.8115185,126.4677141,목포평화광장
2,무안군,묵은지명가,"전라남도 무안군 삼향읍 남악3로82번길7, 제일파킹프라자 111,112호",가능,,061-287-0079,한식,연중무휴,34.8133244,126.4612606,목포평화광장
2,무안군,산들산채정식,전라남도 무안군 삼향읍 남악5로 34번길 11-4,가능,,061-281-9583,한식,일요일,34.8089989,126.4725705,목포평화광장
2,무안군,굴다리쉼터시즌2,전라남도 무안군 삼향읍 삼향로 72,가능,,061-287-2081,한식,매일 토/일 휴일 월요일부터 금요일까지 영업,34.8200538,126.4521827,춤추는 바다분수
2,무안군,해미정,전라남도 무안군 삼향읍 남악5로 26번길 31-1,가능,,061-283-4462,한식,첫째 셋째주 일요일,34.8081158,126.4739115,전라남도 농업박물관
2,무안군,송옥모밀,전라남도 무안군 삼향읍 남악5로26번길33,가능,,061-284-9969,,"2, 4주 월요일",34.8081969,126.4739666,전라남도 농업박물관
2,무안군,운현궁,전라남도 무안군 삼향읍 삼향로128-12,가능,,061-282-8965,,매주일요일,34.8248346,126.4502063,무안 유교리고가
2,무안군,황금향,"전라남도 무안군 삼향읍 남악3로 82번길 7 124,125호",가능,,061-243-1133,,매주일요일,34.8133251,126.4612605,목포평화광장
2,무안군,바다양푼이동태탕.찜 남악점,"전라남도 무안군 삼향읍 남악5로60번길9, 1층",,,061-282-5290,,매주일요일,34.8110157,126.4725688,목포평화광장
2,무안군,사계진미,"전라남도 무안군 삼향읍 대죽서로15번길30, 1층(101.105호)",가능,,061-287-9291,닭갈비,연중무휴,34.811777,126.4612574,목포평화광장
2,무안군,호돌이감자탕,"전라남도 무안군 삼향읍 남악5로72번길30, 1층",,,061-284-6419,감자탕,첫째주 셋째주 월요일,34.8114475,126.4742881,목포평화광장
2,무안군,오가네돼지랑오리랑,"전라남도 무안군 삼향읍 남악5로70번길6, 1층",,,061-283-4457,오리요리,"2, 4주 일요일",34.8116266,126.4721079,목포평화광장
2,무안군,갯마을,"전라남도 무안군 삼향읍 남악5로52번길 5-13, 1층",가능,,061-285-3330,,일요일,34.8106705,126.4718519,목포평화광장
2,무안군,최고집,"전라남도 무안군 삼향읍 남악5로34번길 15-9, 1층",가능,,061-284-6401,,매주일요일,34.809377,126.4727562,목포평화광장
2,무안군,비룡,전라남도 무안군 삼향읍 대죽서로15번길16,가능,,061-287-0100,,매주화요일,34.810532,126.4612748,목포평화광장
2,무안군,꽃게랑낙지랑,"전라남도 무안군 남악5로34번길 11-3, 1층",가능,,061-285-0677,게요리,첫째 셋째 일요일,34.8088696,126.4722916,목포평화광장
2,무안군,어주민물장어탕 남악점,전라남도 무안군 삼향읍 남악4로 82번가길 4-7,가능,,061-285-1255,,매주일요일,34.8134018,126.4676489,목포평화광장
2,무안군,뻘통낙지,"전라남도 무안군 삼향읍 남악2로74번가길14, 1층",가능,,061-282-8562,,매주일요일,34.8135518,126.4582687,목포평화광장
2,무안군,대패에 빠지다,"전라남도 무안군 삼향읍 대죽서로30, 102호",가능,,061-287-5186,,연중무휴,34.8113604,126.4622532,목포평화광장
2,무안군,병천순대돈드림 남악점,"전라남도 무안군 삼향읍 대죽서로15번길26, 102,103호(한양프라자3차)",가능,,061-281-6760,순대,매주일요일,34.8113915,126.4612706,목포평화광장
2,무안군,염대감 나주곰탕 남악점,"전라남도 무안군 삼향읍 남악3로82번길17, 태광프라자 106호 107호",가능,,061-285-5850,,"2, 4주 토요일",34.8131524,126.4624377,목포평화광장
2,무안군,소도둑,"전라남도 무안군 삼향읍 남악3로74, 206호",가능,,061-285-7622,소고기구이,연중무휴,34.8121129,126.4606719,목포평화광장
2,무안군,봉대산,"전라남도 무안군 해제면 현해로 1670, 1층",가능,,061-454-2628,한식,"매월 첫째,세째주 일요일 ",35.1120264,126.2956939,무안 발산마을미륵당산
2,함평군,선미식당,전라남도 함평군 엄다면 엄다길 62,가능,,061-322-7013,한식,일요일,35.0096153,126.5167572,자산서원
2,함평군,대동식당,전라남도 함평군 대동면 대동길 5-29,가능,,061-323-3308,한식,"매주 토요일,일요일",35.0691468,126.5301967,함평향교
2,함평군,영빈정,전라남도 함평군 월야면 밀재로 1527-2,가능,,061-323-9233,한식,연중무휴,35.1798739,126.6290726,팔열부정각
2,함평군,남매식당,전라남도 함평군 함평읍 중앙길 187,,,061-322-2430,한식,셋째주 일요일,35.0649264,126.5173087,함평 기각리 붉가시나무 자생북한지
2,함평군,영선식당,전라남도 함평군 대동면 상강길 10,가능,,061-322-0913,한식,첫째 셋째 일요일,35.0755025,126.5437043,함평 향교리 느티나무·팽나무·개서어나무 숲
2,함평군,진고개가든,전라남도 함평군 손불면 손무로 881,가능,,061-323-3937,한식,예약제로만 운영,35.143393,126.418252,함평 양재리의 이팝나무
2,함평군,가야정,전라남도 함평군 함평읍 함영로 1018,,,061-323-3788,한식,연중무휴,35.0668858,126.525598,함평 기각리 붉가시나무 자생북한지
2,함평군,대흥식당,전라남도 함평군 함평읍 시장길 112,가능,,061-322-3953,한식,매주 둘째주 넷째주 화요일,35.0649858,126.5229435,함평군립미술관
2,함평군,꽃섬해물탕,전라남도 함평군 대동면 대동길 147,가능,,061-323-4452,해물탕,,35.0748878,126.5427287,함평 향교리 느티나무·팽나무·개서어나무 숲
2,함평군,뼈대감자탕,전라남도 함평군 함평읍 영수길 267,가능,,061-342-3585,감자탕,일요일,35.0661713,126.5240158,함평 기각리 붉가시나무 자생북한지
2,함평군,강운촌닭,전라남도 함평군 대동면 함장로 1625-17,가능,,061-322-1906,닭요리,토요일,35.0828801,126.5470033,함평 향교리 느티나무·팽나무·개서어나무 숲
2,함평군,초록식당,전라남도 함평군 함평읍 중앙길 96-7,,,061-322-5287,한식,,35.0643274,126.5220813,함평군립미술관
2,함평군,숯과닭발,전라남도 함평군 함평읍 중앙길 165,,,061-322-8111,닭발,연중무휴,35.0648924,126.5185227,함평 기각리 붉가시나무 자생북한지
2,함평군,선진분식,전라남도 함평군 함평읍 영수길 334,가능,,061-322-1160,분식,월요일,35.0665858,126.5280566,함평향교
2,함평군,참새와방앗간,전라남도 함평군 학교면 사거리길 31,,,061-322-0301,한식,연중무휴,35.0226643,126.5335433,자산서원
2,함평군,돈장군,전라남도 함평군 대동면 대동길 149-16,가능,,061-324-5282,,,35.0760176,126.5427735,함평 향교리 느티나무·팽나무·개서어나무 숲
2,함평군,와우바베큐,전라남도 함평군 함평읍 남일길 27,가능,,061-322-9995,한식,일요일,35.0627501,126.5164733,함평군립미술관
2,함평군,정창촌닭,전라남도 함평군 대동면 대동길 5-42,가능,,061-322-5757,닭요리,일요일,35.0692182,126.5303913,함평향교
2,함평군,월야88장어,전라남도 함평군 월야면 월야월봉길 61-6,가능,,061-323-1326,,"매월 첫째주,셋째주 월요일",35.1635625,126.6256251,함평 용월리 지석묘군
2,함평군,신흥상회,전라남도 함평군 손불면 석산로 68,가능,,061-322-9431,,연중무휴,35.1005583,126.4651366,함평해수찜
2,함평군,철성가든,전라남도 함평군 대동면 나막길 44,가능,,061-323-2545,한식,,35.0774857,126.5759723,함평 향교리 느티나무·팽나무·개서어나무 숲
2,함평군,석정,전라남도 함평군 손불면 석산로 60,가능,,061-322-8929,한식,월요일,35.1000026,126.4656647,함평해수찜
2,함평군,천지면옥,전라남도 함평군 함평읍 함장로 1119,가능,,061-324-1009,냉면,"매주 토요일, 일요일",35.0585617,126.5178985,함평군립미술관
2,함평군,먹거리백화점,전라남도 함평군 학교면 사거리길 24,,,061-323-8464,한식,연중무휴,35.0225323,126.5340285,자산서원
2,함평군,산지검은돈,전라남도 함평군 함평읍 영수길 91,가능,,061-323-9229,,연중무휴,35.0607296,126.5181964,함평군립미술관
2,함평군,바다이야기,전라남도 함평군 손불면 석산로 62,가능,,061-322-4478,한식,"2, 4주 목요일",35.1002058,126.4654364,함평해수찜
2,함평군,영산강,전라남도 함평군 월야면 밀재로 1515,가능,,061-323-1635,한식,,35.1798762,126.6277162,팔열부정각
2,함평군,영심이백반,전라남도 함평군 함평읍 함영로 1393,가능,,061-324-0585,한식,연중무휴,35.0874349,126.4962292,보광사(함평)
2,함평군,갈비세상,전라남도 함평군 함평읍 영수길 278,,,061-324-4569,,화요일,35.0659337,126.524849,함평군립미술관
2,함평군,진미복집,전라남도 함평군 학교면 학다리길 336-23,가능,,061-322-3412,복어요리,월요일,35.0187383,126.5372882,자산서원
2,함평군,해물나라,전라남도 함평군 월야면 밀재로 1564,,,061-323-6990,한식,"매월 첫째주 월요일, 셋째주 월요일",35.1780984,126.6325673,팔열부정각
2,함평군,한새들식육식당,전라남도 함평군 월야면 밀재로 1490,가능,,061-323-3325,,일요일,35.179079,126.6249103,팔열부정각
2,함평군,해월축산,전라남도 함평군 해보면 해삼로 367,가능,,061-323-3708,,"매주 둘째,넷째주 일요일",35.1816721,126.6048883,모평마을
2,함평군,다래가든,전라남도 함평군 엄다면 곤재로 210,가능,,061-324-2674,한식,일요일,35.0406982,126.5156434,함평군립미술관
2,함평군,고기굽는사람들,전라남도 함평군 함평읍 함영로 1012,가능,,061-323-6292,,일요일,35.0663402,126.5261825,함평향교
2,함평군,미양기사식당,전라남도 함평군 함평읍 함영로 1373,가능,,061-323-5153,한식,연중무휴,35.0864144,126.4980378,함평문화원
2,함평군,천지나비회관,전라남도 함평군 학교면 함영로 501-9,가능,,061-322-1212,한식,일요일,35.0218667,126.5321767,자산서원
2,함평군,금송식육식당,전라남도 함평군 함평읍 중앙길 54-11,가능,,061-324-5775,,월요일,35.0629461,126.5235179,함평군립미술관
2,함평군,함평모란정,전라남도 함평군 함평읍 중앙길 32-10,가능,,061-324-5551,한식,일요일,35.0615343,126.5245078,함평군립미술관
2,함평군,한우마을,전라남도 함평군 월야면 밀재로 1516,가능,,061-323-4081,소고기구이,,35.1794107,126.6277914,팔열부정각
2,함평군,주포수산,전라남도 함평군 함평읍 주포로 563,가능,,061-322-3090,생선회,화요일,35.0872458,126.446961,돌머리해변
2,함평군,옥당기사식당,전라남도 함평군 함평읍 함영로 1352,가능,,061-322-5282,한식,,35.0860424,126.5005628,함평문화원
2,함평군,함평천지민물장어,전라남도 함평군 함평읍 영수길 104,가능,,061-322-9595,,연중무휴,35.0607646,126.5189251,함평군립미술관
2,함평군,돌머리횟집,전라남도 함평군 함평읍 주포로 555,가능,,061-324-0935,생선회,수요일,35.0868387,126.4469835,돌머리해변
2,함평군,손맛불맛곱창,전라남도 함평군 함평읍 장군로 1039,가능,,061-324-9952,곱창,수요일,35.0688906,126.500109,보광사(함평)
2,함평군,초원식당,전라남도 함평군 학교면 학교화산길 79,가능,,061-322-8899,한식,연중무휴,35.0535842,126.5394542,함평향교
2,함평군,월야애호박,전라남도 함평군 월야면 밀재로 1561,,,061-324-1900,,연중무휴,35.178529,126.6325342,팔열부정각
2,영광군,칠산장어,전라남도 영광군 군서면 백수로 1382-5,가능,,061-352-8292,,매주월요일,35.2842673,126.4579569,무령서원
2,영광군,옛촌,전라남도 영광군 군서면 함영로 3328,가능,,061-351-2345,한식,,35.248442,126.5029628,이흥서원
2,영광군,고목나무,전라남도 영광군 군서면 함영로6길 21,가능,,061-352-3089,한식,,35.242062,126.5018011,이흥서원
2,영광군,지산갯벌장어,전라남도 영광군 백수읍 백수로 726,가능,,061-352-6242,,,35.2819212,126.3895503,영광정유재란열부순절지
2,영광군,해안성,전라남도 영광군 백수읍 백수로 897,가능,,061-353-7100,,"첫째,셋째주 월요일",35.2822219,126.4083679,원불교영산성지
2,영광군,사거리식당,전라남도 영광군 백수읍 백수로10길40,가능,,061-353-5200,한식,매주일요일,35.281085,126.422601,원불교영산성지
2,영광군,백수식당,전라남도 영광군 백수읍 천마길 11-1,가능,,061-352-7551,한식,"2, 4주 월요일",35.2828272,126.4203984,원불교영산성지
2,영광군,해안로장어촌,전라남도 영광군 백수읍 해안로 1373,가능,,061-353-4547,,"2, 4주 월요일",35.3626336,126.4138948,모래미 해변
2,영광군,모래골,전라남도 영광군 백수읍 해안로 1389,가능,,061-351-0036,한식,"2, 4주 화요일",35.3629402,126.415155,모래미 해변
2,영광군,노을,전라남도 영광군 백수읍 해안로 565-9,가능,,061-353-1122,카페,,35.3231792,126.3799073,영광정유재란열부순절지
2,영광군,고두섬횟집,전라남도 영광군 백수읍 해안로 633,가능,,061-352-0001,생선회,화요일,35.3277672,126.3791772,영광정유재란열부순절지
2,영광군,거시기횟집,전라남도 영광군 백수읍 해안로 737,가능,,061-351-6290,생선회,"첫째,셋째주 월요일",35.3363223,126.3843095,영광정유재란열부순절지
2,영광군,일번지식당,전라남도 영광군 법성면 굴비로 37,가능,,061-356-2268,한식,,35.3596965,126.4468156,법성포
2,영광군,수정돈가,전라남도 영광군 법성면 굴비로 51,가능,,061-356-9289,,매주일요일,35.3584468,126.4469528,법성포
2,영광군,다복정식당,전라남도 영광군 법성면 굴비로 55,,,061-356-6560,한식,,35.3580516,126.4469774,법성포
2,영광군,굴비로정식,전라남도 영광군 법성면 굴비로 63,가능,,061-356-2814,한식,,35.3575538,126.4473702,법성포
2,영광군,진미향,전라남도 영광군 법성면 굴비로 64,가능,,061-356-6555,한식,,35.3572411,126.4467549,법성포
2,영광군,한울타리,전라남도 영광군 법성면 굴비로 7,가능,,061-356-2590,한식,,35.3618289,126.4444551,법성포
2,영광군,월봉재,전라남도 영광군 법성면 굴비로 87,가능,,061-356-7660,한정식,"2, 4주 월요일",35.3562832,126.4492253,법성포
2,영광군,강화식당,전라남도 영광군 법성면 굴비로 9-2,,,061-356-2562,한식,"2, 4주 월요일",35.3616506,126.4449074,법성포
2,영광군,오늘의바다굴비정식,전라남도 영광군 법성면 굴비로1길 10-1,가능,,061-356-4746,,"첫째,셋째주 월요일",35.3622518,126.4429621,법성포
2,영광군,도래지한정식,전라남도 영광군 법성면 굴비로1길 106-14,가능,,061-356-8855,한정식,,35.3605226,126.4350373,백제불교최초도래지
2,영광군,다랑가지,전라남도 영광군 법성면 굴비로1길 62-8,가능,,061-356-5588,한식,,35.3619866,126.4368745,백제불교최초도래지
2,영광군,신토불이굴비정식,전라남도 영광군 법성면 굴비로1길 82,가능,,061-356-8500,한식,,35.360519,126.4354848,백제불교최초도래지
2,영광군,정일품한정식,전라남도 영광군 법성면 굴비로4길 5-2,가능,,061-356-5545,한정식,"2, 4주 월요일",35.3553628,126.4486496,법성포
2,영광군,신법성토우,전라남도 영광군 법성면 법성면 법성포로3길 26-9,가능,,061-356-8424,한식,,35.3604996,126.4445574,법성포
2,영광군,장어명가청산,전라남도 영광군 법성면 법성포로 15-7,가능,,061-356-9592,,,35.3606109,126.4412343,법성포
2,영광군,성원반점,전라남도 영광군 법성면 법성포로 17,가능,,061-356-8386,,셋째주 목요일,35.3602939,126.440906,법성포
2,영광군,졸복이네집,전라남도 영광군 법성면 법성포로 23-23,가능,,061-356-5650,복어요리,"첫째,셋째주 월요일",35.3597087,126.4417384,법성포
2,영광군,꿀메,전라남도 영광군 법성면 법성포로 29-15,가능,,061-356-9293,한식,매주일요일,35.3593564,126.4411488,법성포
2,영광군,아미정,전라남도 영광군 법성면 법성포로 35,가능,,061-356-6400,한식,,35.3591377,126.4404797,법성포
2,영광군,(주)법성포굴비정식,전라남도 영광군 법성면 법성포로 7,가능,,061-356-7575,한식,,35.3611961,126.4413959,법성포
2,영광군,인의정,전라남도 영광군 법성면 법성포로3길 26-11,가능,,061-356-0321,한식,,35.3602398,126.444496,법성포
2,영광군,굴비골한우프라자,전라남도 영광군 법성면 법성포로2길 28,가능,,061-356-8860,소고기구이,,35.3605129,126.4436164,법성포
2,영광군,동원정,전라남도 영광군 법성면 법성포로3길 12-19,가능,,061-356-3323,한정식,,35.3590448,126.4444075,법성포
2,영광군,굴비단길,전라남도 영광군 법성면 법성포로3길 12-29,가능,,061-356-6300,한식,,35.3588965,126.444899,법성포
2,영광군,숯불구이삼겹살,전라남도 영광군 법성면 법성포로3길 20-2,가능,,061-356-8280,,"2, 4주 일요일",35.3596898,126.4436796,법성포
2,영광군,귀빈굴비한정식,전라남도 영광군 법성면 법성포로3길 6-15,가능,,061-356-4666,한정식,,35.358591,126.4439945,법성포
2,영광군,영광굴비정식,전라남도 영광군 법성면 법성포로3길 6-5,가능,,061-356-8882,한정식,,35.3587103,126.443477,법성포
2,영광군,풍성한집,전라남도 영광군 법성면 법성포로3길 60,가능,,061-356-0733,한정식,연중무휴,35.3591464,126.445582,법성포
2,영광군,천년가든,전라남도 영광군 불갑면 강항로1길 50-15,가능,,061-352-2333,한식,,35.2077857,126.5160176,내산서원
2,영광군,청풍장어,전라남도 영광군 불갑면 녹산로 186,가능,,061-351-2008,,"매주 둘째,넷째주 화요일",35.2380519,126.5123301,불갑저수지 수변공원
2,영광군,대가,전라남도 영광군 불갑면 방마로 370,가능,,061-352-6856,한식,"매월 둘째,넷째주 화요일",35.2124695,126.5263003,내산서원
2,영광군,보리향기,전라남도 영광군 불갑면 불갑사로 350,가능,,061-353-6327,한식,"매월 첫째,셋째주 월요일",35.2033973,126.538196,불갑사 관광지
2,영광군,민속정,전라남도 영광군 불갑면 불갑사로 352,가능,,061-353-5507,닭요리,"매월 둘째주,넷째주 월요일",35.203298,126.5384705,불갑사 관광지
2,영광군,서정회관,전라남도 영광군 염산면 천년로 8-1,가능,,061-352-9009,한식,,35.2169967,126.3727428,기독교인 순교지
2,영광군,옛섬골향토음식점,전라남도 영광군 염산면 향화로 2-10,가능,,061-352-1598,한식,"매월 첫째,셋째주월요일",35.1686337,126.3603067,칠산타워
2,영광군,향화골향토음식점,전라남도 영광군 염산면 향화로 2-10,가능,,061-351-8634,한식,"매월첫째,셋째주 월요일",35.1686337,126.3603067,칠산타워
2,영광군,민가네,전라남도 영광군 염산면 향화로 707,가능,,061-352-7878,한식,매주토요일,35.2169499,126.3744872,기독교인 순교지
2,영광군,단주숯불갈비,전라남도 영광군 영광읍 단신길 2,가능,,061-353-4311,,매주일요일,35.2801549,126.499046,우도농악전수관
2,영광군,어촌아구,전라남도 영광군 영광읍 대하길2길 11,가능,,061-353-6277,,매주월요일,35.2741195,126.4984425,우도농악전수관
2,영광군,새마을상회,전라남도 영광군 영광읍 대하길2길 20,가능,,061-351-7088,한식,,35.2740296,126.4995745,우도농악전수관
2,영광군,소&돼지꿈,전라남도 영광군 영광읍 천년로11길 31,가능,,061-351-2305,,매주일요일,35.275018,126.4996904,우도농악전수관
2,영광군,종가집,전라남도 영광군 영광읍 대하길2길 35,가능,,061-351-8585,한식,매주일요일,35.2745024,126.5009381,우도농악전수관
2,영광군,대신가든,전라남도 영광군 영광읍 대하길3길 11,가능,,061-352-4242,한식,"첫째주,셋째주 토요일",35.274515,126.4984913,우도농악전수관
2,영광군,삼삼한식당,전라남도 영광군 영광읍 대하길3길 12,가능,,061-351-3312,한식,"2, 4주 일요일",35.2742906,126.498584,우도농악전수관
2,영광군,국일관,전라남도 영광군 영광읍 대하길4길 10,가능,,061-351-2020,한식,매주일요일,35.2758843,126.4976639,우도농악전수관
2,영광군,조선화로집영광점,전라남도 영광군 영광읍 대하길4길 11,가능,,061-353-9044,,,35.2761111,126.4978299,우도농악전수관
2,영광군,동보성,전라남도 영광군 영광읍 대하길4길 21-16,가능,,061-352-9114,,매주일요일,35.2768408,126.4987786,우도농악전수관
2,영광군,일번지경복궁,전라남도 영광군 영광읍 대하길4길 23,가능,,061-353-3359,한식,매주화요일,35.2764316,126.4990639,우도농악전수관
2,영광군,고을촌,전라남도 영광군 영광읍 대하길4길 9-16,가능,,061-353-0203,한식,,35.2765231,126.4974695,우도농악전수관
2,영광군,어메고깃집,전라남도 영광군 영광읍 대하길4길 9-2,가능,,061-351-0066,한식,매주일요일,35.2761544,126.4976648,우도농악전수관
2,영광군,해성식당,전라남도 영광군 영광읍 물무로 102-2,,,061-351-3595,한식,일요일(격주),35.2765378,126.5110492,영광문화원
2,영광군,조선옥,전라남도 영광군 영광읍 물무로 167,가능,,061-351-2224,한식,일요일(격주),35.2754451,126.5170443,영광향교
2,영광군,깨비네식당,전라남도 영광군 영광읍 물무로 71,가능,,061-351-3252,한식,"매월 둘째,네째주 일요일",35.2774324,126.5081311,우도농악전수관
2,영광군,여수회관,전라남도 영광군 영광읍 물무로2길 47,,,061-351-4097,한식,일요일,35.2768657,126.5112866,영광문화원
2,영광군,사랑방,전라남도 영광군 영광읍 백산길 10-1,가능,,061-351-3844,한식,연중무휴,35.2767919,126.5029984,우도농악전수관
2,영광군,명가감자탕,전라남도 영광군 영광읍 백산길 14-17,가능,,061-353-0752,감자탕,매주일요일,35.2770755,126.5044012,우도농악전수관
2,영광군,싱글벙글,전라남도 영광군 영광읍 백산길 3-10,가능,,061-351-2326,한식,연중무휴,35.2767349,126.5023005,우도농악전수관
2,영광군,청운갈비,전라남도 영광군 영광읍 백산길 6-38,가능,,061-353-8333,,,35.2762722,126.5038329,우도농악전수관
2,영광군,밀향기,전라남도 영광군 영광읍 함영로 3448,가능,,061-353-1155,칼국수,,35.2579256,126.5059822,이흥서원
2,영광군,산채로,전라남도 영광군 영광읍 함영로9길 64,가능,,061-353-4759,한식,"첫째,셋째주 월요일",35.2546128,126.509893,이흥서원
2,영광군,칠산별미횟집,전라남도 영광군 홍농읍 계마길 39-9,가능,,061-356-7160,생선회,"2, 4주 일요일",35.3935554,126.4066706,계마항
2,영광군,갯마을횟집,전라남도 영광군 홍농읍 계마길 39-9,가능,,061-356-8168,생선회,"2, 4주 일요일",35.3935554,126.4066706,계마항
2,영광군,사거리식육식당,전라남도 영광군 홍농읍 동부로 2,,,061-356-7006,,,35.395094,126.4467649,영광 성산리지석묘군
2,영광군,기와집,전라남도 영광군 홍농읍 상하길 11,가능,,061-356-0060,한식,,35.3933835,126.4433195,영광 성산리지석묘군
2,영광군,복화정,전라남도 영광군 홍농읍 상하길2길 4,가능,,061-356-7707,한식,4주 토요일,35.3947937,126.4446997,영광 성산리지석묘군
2,영광군,백악관,전라남도 영광군 홍농읍 홍농로 438,가능,,061-356-7744,한식,매주일요일,35.3935936,126.4453816,영광 성산리지석묘군
2,영광군,군산식당,전라남도 영광군 홍농읍 홍농로 439,가능,,061-356-0858,한식,,35.3939777,126.4451366,영광 성산리지석묘군
2,영광군,늘봄회관,전라남도 영광군 홍농읍 홍농로 446,가능,,061-356-3287,한식,,35.3941,126.4461134,영광 성산리지석묘군
2,영광군,한아름식육식당,전라남도 영광군 홍농읍 홍농로 487,가능,,061-356-3801,,,35.397749,126.4478953,영광 성산리지석묘군
2,영광군,중국성,전라남도 영광군 홍농읍 홍농로 558,가능,,061-356-6860,,"2, 4주 월요일",35.4036098,126.449586,영광 성산리지석묘군
2,영광군,남도미향,전라남도 영광군 홍농읍 홍농로 587,가능,,061-356-6799,,,35.4065896,126.4485971,영광 성산리지석묘군
2,장성군,1105,전라남도 장성군 삼계면 능성로 548,가능,,061-392-0824,,"첫째주, 셋째주 토요일",35.2605998,126.6771538,가산서원
2,장성군,이레추어탕,전라남도 장성군 서삼면 축령로 371,가능,,061-394-8900,추어탕,일요일,35.3339249,126.7664413,봉암서원
2,장성군,동화옛날짜장,전라남도 장성군 동화면 삼동로 717,가능,,061-393-1037,,"2, 4주 월요일",35.283874,126.7382393,장성 황룡 전적
2,장성군,어램프,전라남도 장성군 북하면 단풍로 1122,가능,,061-392-9300,,월요일,35.3698101,126.8604072,장성호 출렁다리(장성호 수변길)
2,장성군,향토식당,전라남도 장성군 장성읍 매화3길 9,가능,,061-392-9230,한식,연중무휴,35.3020999,126.7856569,장성문화원
2,장성군,억조식당,전라남도 장성군 삼서면 태산로 2,가능,,061-393-7150,한식,"2, 4주 일요일",35.2296273,126.6465829,함평 예덕리 신덕 고분군
2,장성군,자라봉,전라남도 장성군 진원면 불태3로 154,가능,,061-393-9711,,"설날, 추석",35.2529984,126.8629378,진원리오층석탑
2,장성군,25시남양집해장국,전라남도 장성군 장성읍 충무1길 6,가능,,061-395-1040,해장국,연중무휴,35.2995151,126.780964,장성문화원
2,장성군,옥천뚝배기,전라남도 장성군 삼서면 해삼로 1106,가능,,061-395-1007,한식,"첫째주, 셋째주 일요일 ",35.2295977,126.6464398,함평 예덕리 신덕 고분군
2,장성군,느그집,전라남도 장성군 장성읍 매화1길 18,가능,,061-395-0353,한식,일요일,35.2996961,126.7840276,장성문화원
2,장성군,대명산 장어,전라남도 장성군 장성읍 단풍로 236,가능,,061-392-3006,,"2, 4주 월요일",35.3228665,126.8017506,장성향교
2,장성군,대호가든,전라남도 장성군 장성읍 단풍로 179,가능,,061-395-9922,한식,연중무휴,35.3189875,126.7980396,봉암서원
2,장성군,추암골산장,전라남도 장성군 서삼면 추암로 537,가능,,061-393-0960,한식,"추석, 설날",35.3568633,126.7279154,장성 축령산 편백숲 (장성 치유의 숲)
2,장성군,역전식육식당,전라남도 장성군 장성읍 충무8길 6,가능,,061-393-2084,,연중무휴,35.2986689,126.7822171,장성문화원
2,장성군,미경이네추어탕,전라남도 장성군 북하면 중평1길 2,가능,,061-392-6464,추어탕,"첫째주, 셋째주 월요일",35.4084066,126.8843726,장성 가인마을 한봉단지
2,장성군,소고집,전라남도 장성군 삼계면 주산2길 13,가능,,061-393-0037,한식,일요일,35.2546686,126.6716227,가산서원
2,장성군,다래원,전라남도 장성군 남면 못재로 169,가능,,061-392-3211,한식,"설날,추석 3일",35.2514068,126.8117581,고산서원
2,장성군,산내들식당,전라남도 장성군 서삼면 모암길 60-11,가능,,061-393-5455,한식,연중무휴,35.3748824,126.7581071,모암마을 [산촌체험마을]
2,장성군,양송식당,전라남도 장성군 장성읍 매화2길 12,가능,,061-393-9325,한식,일요일,35.3009333,126.7847588,장성문화원
2,장성군,청자연,전라남도 장성군 황룡면 구석길 53-2,가능,,061-394-9909,한식,월요일,35.3039312,126.7455301,필암서원 [유네스코 세계문화유산]
2,장성군,산처럼물처럼,전라남도 장성군 북하면 단풍로 1728-3,가능,,061-392-2024,카페,월요일,35.4001872,126.8814197,장성호관광지
2,장성군,금호순대국밥,전라남도 장성군 황룡면 강변로 471,가능,,061-393-5400,,"첫째주, 셋째주 토요일",35.2858995,126.7676187,황룡강
2,장성군,온다,전라남도 장성군 장성읍 충무1길 4,가능,,061-394-8002,카페,"2, 4주 토요일",35.2996393,126.7809176,장성문화원
2,장성군,다온정,전라남도 장성군 황룡면 함장로 5200,가능,,061-394-0399,한식,일요일,35.2931741,126.7581016,장성 황룡 전적
2,장성군,곡간 자연밥상,전라남도 장성군 홍길동로 431,가능,,061-393-3900,한식,월요일,35.3186207,126.7265578,홍길동 생가
2,장성군,무봉리토종순대국,전라남도 장성군 삼계면 주산1길 60-1,가능,,061-394-6177,,연중무휴,35.2549845,126.6711258,가산서원
2,장성군,중화요리명가,전라남도 장성군 장성읍 매화3길 3,가능,,061-392-0301,,화요일,35.3024691,126.7852204,장성문화원
2,장성군,장원숯불갈비,전라남도 장성군 장성읍 영천로 173-11,가능,,061-392-1011,,"첫째주, 셋째주 월요일",35.3009627,126.7819892,장성문화원
2,장성군,저작거리,전라남도 장성군 삼계면 주산1길 60,가능,,061-394-0031,한식,연중무휴,35.2548352,126.6710512,가산서원
2,장성군,광명,전라남도 장성군 북이면 백양로 201,가능,,061-392-9952,한식,셋째주 목요일,35.4208599,126.8236767,장성 자라뫼마을 [농촌전통테마]
2,장성군,솔밭가든,전라남도 장성군 북하면 백양로 827,가능,,061-392-7680,한식,연중무휴,35.4082679,126.8746099,장성호관광지
2,장성군,신광회관,전라남도 장성군 장성읍 신흥로 5-5,가능,,061-393-3615,한식,연중무휴,35.3432872,126.8163047,장성향교
2,장성군,소와나무,전라남도 장성군 북하면 백양로 902-1,가능,,061-392-7396,한식,"첫째, 셋째주 월요일",35.4076932,126.882697,장성호관광지
2,장성군,금바위회관,전라남도 장성군 장성읍 용강길 9,가능,,061-393-2404,한식,연중무휴,35.3638989,126.8101388,장성호 출렁다리(장성호 수변길)
2,장성군,어상생선전문점,전라남도 장성군 북이면 방장로 816,가능,,061-392-2827,한식,셋째주 화요일,35.4358319,126.7929137,죽림서원
2,장성군,손달옥한방족발,전라남도 장성군 장성읍 청운길 24,가능,,061-393-3030,,월요일,35.3019472,126.7816357,장성문화원
2,장성군,정읍식당,전라남도 장성군 북하면 백양로 1112,가능,,061-392-7427,한식,연중무휴,35.4255738,126.8792156,장성 가인마을 한봉단지
2,장성군,황금코다리 장성점,전라남도 장성군 장성읍 단풍로 46,가능,,061-393-9266,한식,"명절(추석,설)",35.3083944,126.7915283,봉암서원
2,장성군,친구야,전라남도 장성군 장성읍 매화7길 10,가능,,061-393-2340,한식,연중무휴,35.2994225,126.7835668,장성문화원
2,장성군,백양숯불고기,전라남도 장성군 북하면 단풍로 1870,가능,,061-392-2277,한식,연중무휴,35.4099999,126.8831164,장성 가인마을 한봉단지
2,장성군,축령산사랑가득국밥,전라남도 장성군 장성읍 삼월길 18,가능,,061-392-0338,국밥,매주 일요일 장날이 일요일이면 영업함,35.2917403,126.7746586,황룡강
2,장성군,석정가든,전라남도 장성군 북하면 용두길 70,가능,,061-392-0092,한식,연중무휴,35.4039358,126.8814263,장성호관광지
2,장성군,남면농원,전라남도 장성군 진원면 못재로 180,가능,,061-392-6339,한식,일요일,35.252284,126.8121164,고산서원
2,장성군,내고향가든,전라남도 장성군 삼계면 영장로 1663,가능,,061-395-0055,한식,일요일,35.2548154,126.6701554,가산서원
2,장성군,석송정,전라남도 장성군 장성읍 청운길 51,가능,,061-393-6700,한식,연중무휴,35.3045559,126.7815255,장성문화원
2,장성군,송家네,전라남도 장성군 북하면 단풍로 1862,가능,,061-395-9001,,연중무휴,35.4094783,126.8834435,장성 가인마을 한봉단지
2,장성군,진남맴생이탕,전라남도 장성군 남면 못재로 221,가능,,061-392-4512,한식,연중무휴,35.2554828,126.8094319,고산서원
2,장성군,신일회관,전라남도 장성군 장성읍 청운길 54,가능,,061-392-2020,한식,연중무휴,35.3045404,126.7819926,장성문화원
2,장성군,토루,전라남도 장성군 남면 청양길 46-20,가능,,061-393-7555,한식,"매주 일요일 전일예약제 - 토요일은 5시간 전에 예약, 평일은 전날 예약",35.2433364,126.772698,황룡강
2,장성군,승아네감자탕,전라남도 장성군 삼계면 주산1길 62,가능,,061-394-9898,감자탕,,35.25507,126.6710191,가산서원
2,장성군,향숙이네식당,전라남도 장성군 북이면 백양로 2-10,가능,,061-392-0809,한식,셋째주 월요일,35.4312388,126.8091678,장성 자라뫼마을 [농촌전통테마]
2,장성군,호산식당,전라남도 장성군 장성읍 미락단지길 32,가능,,061-393-8449,한식,"2, 4주 금요일",35.3459141,126.8188298,장성호 출렁다리(장성호 수변길)
2,장성군,진한사골명가국밥,전라남도 장성군 장성읍 매화1길 11,가능,,061-392-3999,국밥,연중무휴,35.3002623,126.7837396,장성문화원
2,장성군,댐아래오리마을,전라남도 장성군 장성읍 미락단지길 40,가능,,061-395-1009,오리요리,"매월 첫째주, 셋째주 월요일",35.3465015,126.8191579,장성호 출렁다리(장성호 수변길)
2,장성군,돈숯불갈비,전라남도 장성군 장성읍 충무2길 11,가능,,061-392-9774,,연중무휴,35.2987656,126.7818878,장성문화원
2,장성군,소담,전라남도 장성군 장성읍 전고개로 250,가능,,061-394-2345,한식,"2, 4주 월요일",35.3382221,126.8151274,장성향교
2,장성군,불태산진원성 한우 전문점,전라남도 장성군 진원면 고산로 17,가능,,061-392-6492,소고기구이,"추석, 설날 ",35.2731542,126.8359175,고산서원
2,장성군,김영희 동태찜&코다리냉면 장성점,전라남도 장성군 장성읍 영천로 172-1,가능,,061-393-3907,냉면,연중무휴,35.3004796,126.7827945,장성문화원
2,장성군,거송회관,전라남도 장성군 장성읍 미락단지길 26,가능,,061-394-8866,한식,2주 월요일,35.345408,126.8185782,장성호 출렁다리(장성호 수변길)
2,장성군,학교가자,전라남도 장성군 장성읍 안평장동길 13,가능,,061-395-2002,한식,2주 월요일,35.3322673,126.781479,봉암서원
2,장성군,단풍두부,전라남도 장성군 북하면 백양로 1115-7,가능,,061-392-1515,,"2, 4주 월요일(가을철 휴무없음)",35.4262666,126.8783185,장성 가인마을 한봉단지
2,장성군,젠시오,전라남도 장성군 장성읍 역전로 159,가능,,061-393-4466,,화요일,35.3058566,126.7820535,장성문화원
2,장성군,국일반점,전라남도 장성군 장성읍 청운4길 3,가능,,061-394-8970,,월요일,35.3026553,126.7844246,장성문화원
2,장성군,강서방생선구이,전라남도 장성군 진원면 학산길 2,가능,,061-393-5233,생선구이,월요일,35.2658051,126.8643745,진원리오층석탑
2,진도군,용천,전라남도 진도군 의신면 초평길64,가능,,061-544-1073,한식,연중무휴,34.4154905,126.3363953,진도 신비의 바닷길
2,진도군,진가면옥,전라남도 진도군 진도읍 서문길8-13,가능,,061-542-2412,냉면,연중무휴,34.4852317,126.2629841,철마공원
2,진도군,한우곰탕,전라남도 진도군 진도읍 남동1길32,,,061-542-0825,,매주토요일,34.4810837,126.2614909,철마공원
2,진도군,나루터,전라남도 진도군 군내면 진도대로 8463,가능,,061-542-3066,게요리,"매월 첫째,셋째 화요일",34.570222,126.2997327,이충무공승전공원
2,진도군,좋은자리,전라남도 진도군 진도읍 쌍정2길30,,,061-544-9998,한식,,34.4823541,126.2648445,철마공원
2,진도군,매화횟집,전라남도 진도군 진도읍 남산로 106,가능,,061-544-8222,생선회,연중무휴,34.4740297,126.2641583,진도문화원
2,진도군,한우리,전라남도 진도군 진도읍 남동1길28,,,061-544-0670,소고기구이,매주일요일,34.481124,126.2612818,철마공원
2,진도군,달님이네맛집,전라남도 진도군 진도읍 서문길8-21,가능,,061-542-3335,게요리,연중무휴,34.485162,126.2635034,철마공원
2,진도군,해미원,전라남도 진도군 진도읍 교동5길109,가능,,061-543-6997,,연중무휴,34.4872043,126.2516309,진도향교
2,진도군,옥천횟집.한정식,전라남도 진도군 진도읍 성내리 39-9,가능,,061-543-5664,생선회,연중무휴,34.4841095,126.2654651,철마공원
2,진도군,이레식당,전라남도 진도군 진도읍 철마길4-1,가능,,061-544-3670,한식,"매월 첫째,셋째일요일",34.4842676,126.2643355,철마공원
2,진도군,해담,전라남도 진도군 진도읍 왕온로141,가능,,061-544-0034,한식,매주월요일,34.4738194,126.2644311,진도문화원
2,진도군,명희식당,전라남도 진도군 진도읍 동외3길25,가능,,061-543-8600,한식,매주토요일,34.4830571,126.2703731,진도무형문화재전수관
2,진도군,청호회관,전라남도 진도군 진도읍 성내리 39-20,가능,,061-544-6991,,"2, 4주 수요일",34.4838095,126.2654415,철마공원
2,진도군,청해대복식당,전라남도 진도군 진도읍 쌍정리 257-20,가능,,061-544-9981,한식,,34.4796436,126.2664568,진도문화원
2,진도군,숯불구이 화우정,전라남도 진도군 진도읍 남동리 779-4,가능,,061-542-8877,한식,매주일요일,34.4784011,126.2647629,진도문화원
2,진도군,우림,전라남도 진도군 진도읍 동외리 1036-2,가능,,061-542-3333,한식,매주일요일,34.4823957,126.2732726,진도무형문화재전수관
2,진도군,횟집서우담,전라남도 진도군 진도읍 남산로130-46,가능,,061-543-5900,생선회,연중무휴,34.4773379,126.2682978,진도문화원
2,진도군,갯마을횟집,전라남도 진도군 의신면 초사리 614,가능,,061-544-1519,생선회,"매월 첫째,셋째 목요일",34.4044403,126.3271795,모도
2,진도군,제주촌갈비,전라남도 진도군 진도읍 남동1길40-8,가능,,061-544-4919,,"매월 둘째주,넷째주 일요일",34.4806751,126.2623386,철마공원
2,진도군,산호복집,전라남도 진도군 진도읍 남동1길38,가능,,061-544-8383,복어요리,연중무휴,34.4809635,126.2622299,철마공원
2,진도군,이조숯불갈비,전라남도 진도군 진도읍 남문길12-1,가능,,061-544-8183,,연중무휴,34.4791078,126.2640794,진도문화원
2,진도군,장어랑돼지랑,전라남도 진도군 의신면 운림산방로269,가능,,061-542-9233,,"매월 첫째,셋째 수요일",34.4648344,126.3023009,진도 의신사천마을 [농촌체험휴양마을]
2,진도군,맛나식당,전라남도 진도군 진도읍 남산로124-1,가능,,061-544-6171,한식,연중무휴,34.4764818,126.2641688,진도문화원
2,진도군,묵은지,전라남도 진도군 진도읍 남동1길12-5,가능,,061-543-2242,한식,매월첫째주 월요일,34.4811688,126.2596077,철마공원
2,진도군,신호등회관,전라남도 진도군 진도읍 남동1길66,가능,,061-544-4449,한식,매월셋째주화요일,34.4804683,126.2653938,진도문화원
2,진도군,문화회타운,전라남도 진도군 진도읍 남동1길40-12,가능,,061-542-7788,생선회,"매월 첫째주,셋째주 화요일",34.4805326,126.2618467,철마공원
2,진도군,진도아리랑회센터,전라남도 진도군 진도읍 쌍정1길 8-6,가능,,061-544-0587,생선회,"매월 첫째,셋째 월요일",34.4796355,126.2664543,진도문화원
2,신안군,수국반점,전라남도 신안군 도초면 불섬길 85-5,가능,,061-275-1123,,연중무휴,34.7150309,125.9361087,서남문대교
2,신안군,천사짜장짬뽕,전라남도 신안군 압해읍 압해로 1587-3,가능,,061-271-9874,,연중무휴,34.8568894,126.2495367,천사섬 분재공원
2,신안군,보물섬,전라남도 신안군 증도면 보물섬길 8,가능,,061-271-0631,한식,연중무휴,35.0022425,126.1328977,증도(신안)
2,신안군,솔식당,전라남도 신안군 자은면 구영2길 52-2,가능,,061-271-6200,한식,연중무휴,34.8850318,126.0452561,자은도
2,신안군,신안가든,전라남도 신안군 지도읍 해제지도로 1237-16,가능,,061-275-9545,한식,연중무휴,35.0580292,126.2110807,일심사(신안)
2,신안군,자매감자탕,전라남도 신안군 지도읍 동촌길 2,가능,,061-262-2323,감자탕,연중무휴,35.0599943,126.2069109,지도
2,신안군,소작촌식당,전라남도 신안군 암태면 중부로 1922,가능,,061-271-5988,한식,연중무휴,34.8379811,126.1120857,암태도
2,신안군,정가네백반뷔페,전라남도 신안군 압해읍 압해로 817-1,가능,,,한식뷔페,연중무휴,34.8623334,126.3187905,압해도
2,신안군,오리촌,전라남도 신안군 지도읍 동천길 58-26,가능,,061-261-7890,오리요리,연중무휴,35.0526329,126.259118,원갑사
2,신안군,샨샤,전라남도 신안군 암태면 장단고길 17-2,가능,,061-271-1867,,매주일요일,34.8287747,126.1122274,암태도
2,신안군,보해반점,전라남도 신안군 임자면 대광해수욕장길 18-4,가능,,061-246-1310,,연중무휴,35.0899769,126.0819429,임자도
2,신안군,우가,전라남도 신안군 임자면 임자로 136-1,가능,,061-275-0799,한식,매주일요일,35.086287,126.1082979,임자도
2,신안군,중앙식당,전라남도 신안군 하의면 곰실길 11-10,가능,,061-275-4080,한식,연중무휴,34.6072128,126.0379296,하의도
2,신안군,신도화정,전라남도 신안군 암태면 중부로 1809,가능,,061-261-2025,한식,연중무휴,34.8281874,126.1137564,암태도
2,신안군,임자족발포차,전라남도 신안군 임자면 임자로 150-8,가능,,061-275-8958,,연중무휴,35.0868167,126.1073828,임자도
2,신안군,나주곰탕 쉼터카페,전라남도 신안군 자은면 중부로 2961,가능,,061-261-5373,카페,연중무휴,34.8880385,126.0415852,자은도
2,신안군,봉자네일번지,전라남도 신안군 압해읍 압해로 1844,가능,,061-271-9540,한식,연중무휴,34.8487902,126.2278869,천사섬 분재공원
2,신안군,꽃피는무화가,전라남도 신안군 압해읍 압해로 393-2,가능,,061-271-5552,한식,연중무휴,34.8412387,126.3521846,압해도
2,신안군,부일호횟집,전라남도 신안군 임자면 독우길 234,가능,,061-261-1210,생선회,연중무휴,35.0980046,126.0533564,임자 대광해수욕장
2,신안군,낙지식당,전라남도 신안군 압해면 압해로 859,가능,,061-271-0003,한식,연중무휴,34.8644097,126.3147698,압해도
2,신안군,명승중화요리,전라남도 신안군 지도읍 해제지도로 1241,가능,,061-275-5554,,연중무휴,35.0590882,126.2109552,일심사(신안)
2,신안군,지도횟집,전라남도 신안군 지도읍 송도2길 47,가능,,061-275-7119,생선회,연중무휴,35.045296,126.2039908,지도
2,신안군,대안반점,전라남도 신안군 임자면 임자로 262,가능,,061-261-8288,,연중무휴,35.0898533,126.0960677,임자도
2,신안군,마나,전라남도 신안군 임자면 이흑암길 24-6,가능,,061-275-8006,한식,연중무휴,35.082234,126.1100387,임자도
2,신안군,뻘뚱,전라남도 신안군 팔금면 탑목개길 163-1,가능,,061-242-1294,,연중무휴,34.7837987,126.1428344,팔금도
2,신안군,이학회백반,전라남도 신안군 암태면 중부로 1795,가능,,061-271-6700,한식,연중무휴,34.8269617,126.1137244,암태도
2,신안군,신안맛집,전라남도 신안군 암태면 중부로 1816,가능,,061-271-3555,한식,연중무휴,34.8285764,126.1143667,암태도
2,신안군,소문난집,전라남도 신안군 지도읍 읍내리 서촌길 14,가능,,061-275-2230,한식,연중무휴,35.0594411,126.2059252,지도
2,신안군,천사바다횟집,전라남도 신안군 암태면 진작지길227-17,가능,,061-271-4242,생선회,연중무휴,34.8779718,126.1450547,천사대교
2,신안군,천사섬퍼플활어회타운,전라남도 신안군 안좌면 소곡두리길 257-9,가능,,061-271-6552,생선회,연중무휴,34.7189431,126.1196743,퍼플교
2,신안군,백길천사횟집,전라남도 신안군 자은면 자은서부1길 86-12,가능,,061-271-5100,생선회,연중무휴,34.8616649,126.0530534,자은 백길해수욕장
2,신안군,한양왕갈비탕,전라남도 신안군 압해읍 압해로 1564,가능,,061-271-9282,,연중무휴,34.8586674,126.2511876,천사섬 분재공원
2,신안군,사랑가든,전라남도 신안군 압해읍 압해로 493,가능,,061-271-1403,한식,연중무휴,34.8475481,126.3451692,압해도
2,신안군,헤밍웨이,전라남도 신안군 압해읍 학교리 336-16,가능,,061-273-8020,양식,연중무휴,34.8684672,126.3169448,압해도
2,신안군,고깃배횟집,전라남도 신안군 압해면 압해로 1850,가능,,061-271-9182,생선회,연중무휴,34.8484171,126.2280555,천사섬 분재공원
2,신안군,한양,전라남도 신안군 지도읍 서촌길 17-10,가능,,061-275-0022,한식,연중무휴,35.0603767,126.2050886,지도
2,신안군,1004맛드림,전라남도 신안군 자은면 두봉길 10-50,가능,,061-271-7416,한식,연중무휴,34.8578044,126.0656846,자은 백길해수욕장
2,신안군,갯벌횟집,전라남도 신안군 압해읍 대촌길 37-88,가능,,061-271-9810,생선회,연중무휴,34.8580701,126.2316726,천사섬 분재공원
2,신안군,털보네식당,전라남도 신안군 임자면 대광해수욕장길 174,가능,,061-262-0010,한식,연중무휴,35.1025078,126.0733304,임자 대광해수욕장
2,신안군,분계여인송회식당,전라남도 신안군 자은면 자은서부2길 631-31,가능,,061-262-7780,한식,연중무휴,34.8703226,125.9833006,자은 분계해수욕장
2,신안군,맛나제,전라남도 신안군 자은면 중부로 3008,가능,,061-271-6060,한식,연중무휴,34.8913947,126.0404403,자은도
2,신안군,천사대교횟집,전라남도 신안군 암태면 박달로 84,가능,,061-271-7003,생선회,연중무휴,34.8618798,126.1490275,천사대교
2,신안군,송도회타운3호점,전라남도 신안군 지도읍 송도2길 38,가능,,061-275-5800,생선회,연중무휴,35.0453544,126.2028807,지도
2,광양시,맛집,전라남도 광양시 오류5길 76 1층,,,070-8872-1230,한식,매월 첫째주 셋째주 월요일,34.9376884,127.6975061,구봉산 전망대
2,광양시,서광쉼터,전라남도 광양시 광양읍 매천로 731,,,061-761-4245,한식,월요일,34.9790434,127.5770255,광양 장도박물관
2,광양시,성도반점,전라남도 광양시 금영로 179(2층),가능,,061-792-4445,,월요일,34.9659624,127.718227,광양 윤동주 유고보존 정병욱 가옥
2,광양시,광양닭곰탕,전라남도 광양시 항만13로 42-18 1층,가능,,061-910-6095,,연중무휴,34.927606,127.6990602,이순신대교
2,광양시,매화골토담,전라남도 광양시 광양읍 칠성리 1007-17,,,061-762-6243,한식,일요일,34.9784225,127.578118,광양 장도박물관
2,광양시,곰바우감자탕,전라남도 광양시 폭포사랑길 99,가능,,061-799-1479,감자탕,첫째 넷째 일요일,34.9402884,127.7319563,배알도 수변공원
2,광양시,대호돼지국밥,전라남도 광양시 영수길 63,가능,,061-792-5291,국밥,연중무휴,34.9644092,127.7162976,광양 윤동주 유고보존 정병욱 가옥
2,광양시,더집밥,전라남도 광양시 항만13로 27-16 1층,가능,,061-762-7997,한식,연중무휴,34.9269897,127.6986084,이순신대교
2,광양시,공단국밥,"전라남도 광양시 옥곡면 신금산단4길 21, 신금산단4길 21",가능,,061-772-9488,국밥,연중무휴,34.9766479,127.7169298,광양 윤동주 유고보존 정병욱 가옥
2,광양시,중화요리이가,전라남도 광양시 동광1길 8,가능,,061-795-4987,,"2, 4주 수요일",34.9402854,127.7006083,구봉산 전망대
2,광양시,연경,"전라남도 광양시 불로로 163, 1727-2(3층중1층전부), 불로로 163",가능,,061-794-0071,,연중무휴,34.9445093,127.6972293,구봉산 전망대
2,광양시,장수관,"전라남도 광양시 광포3길 49, (1,2층) ",가능,,061-793-4503,,매주월요일,34.9610225,127.7250527,배알도 수변공원
2,광양시,모락,"전라남도 광양시 중동로 32 (동광양농협), 1층",가능,,061-793-1189,한식,"매주 토요일,일요일",34.9406609,127.6929081,구봉산 전망대
2,광양시,광양 고려삼계탕,전라남도 광양시 광양읍 덕례리 1729-2,,,061-762-1561,삼계탕,연중무휴,34.9638642,127.5742592,보광사(광양)
2,광양시,명륜진사갈비 덕례점,전라남도 광양시 광양읍 덕례리 1791-6,가능,,061-762-2880,,연중무휴,34.9645318,127.5670215,보광사(광양)
2,광양시,시골밥상,전라남도 광양시 광양읍 기두4길 11,,,061-763-8829,한식,매주월요일,34.9755427,127.6066718,광양와인동굴
2,광양시,아꼼,전라남도 광양시 광양읍 구산리 767-5,,,,한식,연중무휴,34.9819141,127.5802229,광양만권 경제자유구역 홍보관
2,광양시,향원,전라남도 광양시 광양읍 읍내리263-1,가능,,061-763-3021,복어요리,연중무휴,34.9762528,127.5861841,광양문화원
2,해남군,가장맛있는족발,전라남도 해남군 해남읍 남부순환로 11,가능,,061-537-5849,,첫째.셋째 수요일,34.569927,126.6068946,해남향교
2,해남군,거담옹기설렁탕,전라남도 해남군 해남읍 북부순환로 75,가능,,061-533-0505,설렁탕,,34.5732674,126.6035521,해남향교
2,해남군,속풀이하는마을,전라남도 해남군 해남읍 교육청길 49,,,061-536-6668,한식,매주일요일,34.5677842,126.6079471,해남문화원
2,해남군,구교리,전라남도 해남군 해남읍 북부순환로 215,가능,,061-535-0992,한식,월요일,34.5774359,126.5893109,해남문화예술회관
2,해남군,엄마밥상,전라남도 해남군 산이면 관광레저로 1745,가능,,061-533-3333,한식,,34.694585,126.3635238,서동사(해남)
2,해남군,꽃님이네,전라남도 해남군 해남읍 북부순환로 96,가능,,061-534-7400,한식,일요일,34.5737487,126.6013941,해남문화원
2,해남군,사거리공룡식당,전라남도 해남군 황산면 공룡박물관길 80,,,061-532-2024,한식,연중무휴,34.5766591,126.4346992,우항리 공룡화석 자연사유적지
2,해남군,곤드레만드레,전라남도 해남군 해남읍 북부순환로 135,가능,,061-537-2020,한식,"2, 4주 일요일",34.5748564,126.5972174,해남문화예술회관
2,해남군,우리곰탕,전라남도 해남군 해남읍 용머리길 28,가능,,061-534-3198,,매주 일요일 휴무,34.5623683,126.5884449,해남문화예술회관
2,해남군,중앙닭갈비,전라남도 해남군 해남읍 명문길 4,가능,,061-532-2059,닭갈비,"2, 4주 일요일",34.5756638,126.5964333,해남문화예술회관
2,해남군,솥뚜껑삼겹살,전라남도 해남군 해남읍 구교2길 41,가능,,061-536-1516,,,34.5785005,126.5930877,해남문화예술회관
2,해남군,아름다운식당,전라남도 해남군 문내면 명량로 155,가능,,061-533-1963,한식,,34.5926148,126.3129191,해남 명량대첩비
2,해남군,땅끝정인숙칼국수,전라남도 해남군 현산면 현산북평로 805,가능,,061-536-0880,칼국수,,34.4160315,126.5917309,태영사
2,해남군,김가네쉼터,전라남도 해남군 북평면 백도로 15,가능,,061-533-0906,한식뷔페,,34.4094357,126.6255854,오산어촌체험마을
2,해남군,자연과사람들,전라남도 해남군 화원면 영호길 68,가능,,061-533-9656,한식,,34.698468,126.3439999,서동사(해남)
2,화수군,제주흑돈촌,전라남도 화순군 화순읍 만연로 18,,,061-372-7700,,일요일,35.0572308,126.9903381,남산공원(화순)
2,화수군,경복궁,전라남도 화순군 화순읍 학포로 2584-1,가능,,061-371-2222,,연중무휴,35.040435,126.9630216,화순대리석불입상
2,화수군,나주불고기,전라남도 화순군 화순읍 광덕로 251,,,061-374-1982,한식,매주월요일,35.0672389,126.9923489,화순향교
2,화수군,본가모밀25시,전라남도 화순군 화순읍 중앙로 121,,,061-375-0383,분식,매주일요일,35.060514,126.9947926,남산공원(화순)
2,화수군,바다양푼이동태탕,전라남도 화순군 화순읍 진각로 134-1,,,061-374-7254,,연중무휴,35.0631293,126.9868177,화순향교
2,화수군,하나나주곰탕,전라남도 화순군 화순읍 자치샘로 74,,,061-375-1114,,"2, 4주 토요일",35.0601414,126.9885313,남산공원(화순)
2,보성군,녹차장어가든,전라남도 보성군 회천면 녹차로 619,가능,,061-852-9595,,매월 첫째주 셋째주 월요일,34.7074083,127.0899259,봇재다원
2,보성군,옛날손짜장,전라남도 보성군 벌교읍 녹색로 6184,가능,,061-857-8868,,화요일,34.837523,127.4094199,거차뻘배마을
2,보성군,보성맛집 부뚜막,전라남도 보성군 보성읍 신흥길 16,,,061-852-6633,한식,토요일,34.7686588,127.0806075,보성향교
2,보성군,암돼지한우암소전문 예당식육식당,전라남도 보성군 보성읍 현충로 42-3,가능,,061-852-3658,소고기구이,,34.7655587,127.0773011,보성향교
2,보성군,중화요리 하오츠,전라남도 보성군 보성읍 현충로 13,,,061-852-0708,,,34.7640066,127.0748997,보성향교
2,보성군,만리장성,전라남도 보성군 복내면 송재로 1830-4,,,061-852-1801,,일요일,34.8934396,127.1323656,화순 쌍봉사 철감선사탑
2,보성군,잉꼬식당,전라남도 보성군 벌교읍 시장2길 17,가능,,061-857-7950,한식,"2, 4주 월요일",34.8439967,127.3464843,구 보성여관
2,보성군,조성식당,전라남도 보성군 조성면 조성로 79,가능,,061-857-1331,한식,일요일,34.8063382,127.2438857,보성싱싱농원
2,보성군,오리야,전라남도 보성군 벌교읍 시장1길 5-27,,,061-858-7001,오리요리,,34.8457713,127.3442204,구 보성여관
2,보성군,역전식당,전라남도 보성군 벌교읍 계성1길 3-1,,,061-857-2073,한식,화요일,34.8427251,127.344321,구 보성여관
2,보성군,고려회관,전라남도 보성군 벌교읍 채동선로 294,가능,,061-858-2959,한식,,34.84735,127.3424165,소화다리(부용교)
2,보성군,다인정,전라남도 보성군 보성읍 갱맹골길 236-7,가능,,061-858-0763,한식,,34.765691,127.0748417,보성향교
2,보성군,보성녹돈갈비,전라남도 보성군 벌교읍 조정래길 141-12,가능,,061-852-5201,,,34.8526701,127.3363107,보성 벌교 홍교
2,보성군,우리식육식당,전라남도 보성군 회천면 시장길 39,,,061-853-8801,,매월 둘째주 넷째주 토요일,34.6688711,127.0629903,정응민예적지(판소리공원)
2,보성군,두무포산장,전라남도 보성군 벌교읍 장호길 697-9,가능,,061-857-9992,한식,"2, 4주 월요일",34.8364321,127.4119831,거차뻘배마을
2,보성군,벌교중화요리,전라남도 보성군 벌교읍 태백산맥길 5-1,가능,,061-858-0099,,일요일,34.8427639,127.3431719,구 보성여관
2,보성군,일품관,전라남도 보성군 득량면 녹색로 3710,가능,,061-852-1821,한식,셋째주 수요일,34.7782658,127.185343,보성 강골마을
2,보성군,머시기숯불구이,전라남도 보성군 벌교읍 채동선로 270,가능,,061-858-5525,한식,"2, 4주 수요일",34.8460662,127.3439982,소화다리(부용교)
2,보성군,흥성꼬막정식,전라남도 보성군 벌교읍 채동선로 135,가능,,061-857-6009,한식,,34.8360298,127.3424192,구 보성여관
2,보성군,조성새재식당,전라남도 보성군 조성면 조성4길 6,가능,,061-857-9160,한식,,34.8074755,127.2476191,보성싱싱농원
2,보성군,체리원,전라남도 보성군 벌교읍 채동선로 275,,,061-858-8580,,월요일,34.8464701,127.3432392,소화다리(부용교)
2,보성군,풀하우스 횟집,전라남도 보성군 회천면 남부관광로 2307,가능,,061-852-5703,생선회,,34.6693301,127.0855707,율포해수풀장
2,보성군,신토불이가든,전라남도 보성군 보성읍 봉화로 116,가능,,061-853-8081,오리요리,,34.7659072,127.0847624,보성향교
2,보성군,차이나연경,전라남도 보성군 보성읍 신일길 3-18,,,061-852-6998,,화요일,34.7682523,127.0822821,보성향교
2,보성군,늘푸른산장,전라남도 보성군 보성읍 일림로 1619,가능,,061-852-6027,한식,,34.7519634,127.061166,대계서원
2,보성군,대천중화요리,전라남도 보성군 벌교읍 채동선로 144,가능,,061-857-8100,,일요일,34.8369066,127.3426584,구 보성여관
2,보성군,칭하오,전라남도 보성군 벌교읍 녹색로 5580,가능,,061-858-5882,,월요일,34.8371527,127.3499956,구 보성여관
2,보성군,덕산식당,전라남도 보성군 보성읍 봉화로 106,가능,,061-852-3374,한식,"2, 4주 월요일",34.7658118,127.0838745,보성향교
2,보성군,도야족발보쌈,전라남도 보성군 벌교읍 조정래길 150,가능,,061-857-0006,,,34.8526175,127.3374038,보성 벌교 홍교
2,보성군,남태평양횟집,전라남도 보성군 회천면 남부관광로 2148,가능,,061-852-5850,생선회,,34.6628974,127.0725197,율포해수풀장
2,보성군,호동맛집가든,전라남도 보성군 벌교읍 장호길 691,가능,,061-857-6168,한식,,34.8369507,127.4119772,거차뻘배마을
2,보성군,청정횟집,전라남도 보성군 보성읍 신흥길 25,가능,,061-853-2548,생선회,,34.7690684,127.0794807,보성향교
2,보성군,원조홍교꼬막회관,전라남도 보성군 벌교읍 태백산맥길 3,,,061-857-1035,한식,,34.8425821,127.3432103,구 보성여관
2,보성군,율포회센터,전라남도 보성군 회천면 남부관광로 2272,가능,,061-852-7778,생선회,첫째주 셋째주 월요일,34.6668803,127.0837145,율포해수풀장
2,보성군,만리회관,전라남도 보성군 회천면 우암길 4,가능,,061-852-8025,,,34.6704649,127.0867153,율포해수풀장
2,진도군,우나라돈세상,전라남도 진도군 진도읍 남산로129,,,061-544-7022,,연중무휴,34.4770043,126.2636355,진도문화원
2,진도군,다온식당,전라남도 진도군 임회면 십일시길35,가능,,061-543-3303,한식,"매월첫째주,둘째주 일요일",34.4093995,126.1919523,진도 상만리 오층석탑과 비자나무
2,진도군,박가네 왕갈비,전라남도 진도군 진도읍 남산로133,가능,,061-544-7472,,"매월 첫째,셋째주 일요일",34.4773081,126.2636104,진도문화원
2,곡성군,신포우리만두,전라남도 곡성군 곡성읍 읍내11길8,가능,,061-363-6677,만두,매주토.일 휴무,35.2814595,127.293785,곡성레저문화센터
2,곡성군,광주가든,전라남도 곡성군 죽곡면 대황강로 1071,가능,,061-363-6700,한식,매주월요일,35.1616816,127.3394654,대황강출렁다리
2,곡성군,삼기국밥,전라남도 곡성군 곡성읍 읍내 22길 9 - 1,가능,,061-363-0424,국밥,연중무휴,35.2828225,127.2994744,"섬진강두꺼비, 여행자카페 1933오후(관광두레 주민사업체)"
2,곡성군,우거지품은순대국우품포차 곡성점,전라남도 곡성군 석곡면 강변로 13-1,가능,,061-363-3403,,,35.1311697,127.25504,대황강 자연휴식공원
2,곡성군,자네왓능가,전라남도 곡성군 목사동면 강변로 477,가능,,061-362-3242,한식,연중무휴,35.1276765,127.2969421,보성강
2,곡성군,큰손탕집,전라남도 곡성군 곡성읍 읍내17길 11,가능,,061-363-5118,한식,월요일,35.2818175,127.2935377,곡성레저문화센터
2,곡성군,만수가든,전라남도 곡성군 오곡면 오죽로 2072,가능,,061-363-8808,한식,연중무휴,35.2683762,127.3155515,덕양사
2,곡성군,곡성장어명가,전라남도 곡성군 오곡면 섬진강로 1069,가능,,061-363-4545,,"2, 4주 화요일",35.1964061,127.3747305,압록유원지
2,곡성군,두목소머리국밥,전라남도 곡성군 곡성읍 곡성로 848,가능,,061-363-9953,국밥,매주월요일,35.2791385,127.2965291,곡성레저문화센터
2,곡성군,은하원,전라남도 곡성군 곡성읍 곡성로 832,가능,,061-363-1633,,매주수요일,35.2784894,127.2951673,곡성레저문화센터
2,곡성군,뜨란채밥상,전라남도 곡성군 곡성읍 중앙로 108-2,가능,,061-363-8413,한식,매주 토.일,35.2806308,127.2946813,곡성레저문화센터
2,곡성군,김가네,전라남도 곡성군 곡성읍 중앙로 18,가능,,061-363-7403,한식,연중무휴,35.2761065,127.2869383,서산사(곡성)
2,곡성군,대한수산물회판매장,전라남도 곡성군 곡성읍 읍내10길 17,가능,,061-363-4767,생선회,연중무휴,35.279284,127.2952562,곡성레저문화센터
2,곡성군,매월향,전라남도 곡성군 입면 청계동로 1225,가능,,061-362-5580,,매주월요일,35.2991134,127.2035801,의마총
2,곡성군,광명숯불구이,전라남도 곡성군 옥과면 리문5길 9,가능,,061-363-3161,,연중무휴,35.275507,127.135992,옥과향교
2,곡성군,동막골식당,전라남도 곡성군 곡성읍 곡성로 882,가능,,061-362-1880,한식,연중무휴,35.2807018,127.2999444,곡성문화원
2,곡성군,오뚜기회센터,전라남도 곡성군 옥과면 옥과 2길 3,가능,,061-363-8244,생선회,연중무휴,35.2760264,127.1343929,옥과향교
2,곡성군,소문난왕짬뽕,전라남도 곡성군 오곡면 대황강로 1635,가능,,061-363-3881,,첫째.셋째 월요일,35.1935435,127.3745654,압록유원지
2,곡성군,류정수옛날손짜장,전라남도 곡성군 삼기면 곡순로 1237,가능,,061-362-5133,,연중무휴,35.2271061,127.2274658,구성재
2,곡성군,미실란밥cafe반하다,전라남도 곡성군 곡성읍 섬진강로 2584,가능,,061-363-6060,닭요리,일요일,35.3018996,127.2998803,곡성 메타세쿼이아길
2,곡성군,유나네뼈다귀국밥,전라남도 곡성군 곡성읍 학교로 3,가능,,061-363-2882,국밥,연중무휴,35.2769337,127.2897877,곡성레저문화센터
2,곡성군,진미식당,전라남도 곡성군 삼기면 곡순로 1260,가능,,061-363-3688,한식,매주월요일,35.2286653,127.2254857,도림사(곡성)
2,곡성군,백운산장,전라남도 곡성군 오곡면 대황강로 1563,가능,,061-362-2890,한식,연중무휴,35.1888159,127.3693452,압록유원지
2,곡성군,본때,전라남도 곡성군 곡성읍 군청로 49,가능,,061-363-4242,감자탕,매주일요일,35.2815455,127.290619,곡성레저문화센터
2,곡성군,기차마을가든,전라남도 곡성군 오곡면 기차마을로 233,가능,,061-363-1103,한식,연중무휴,35.2768621,127.3071982,섬진강기차마을
2,곡성군,청학회관,전라남도 곡성군 곡성읍 군청로 45,가능,,061-363-5800,,매주  토.일 휴무,35.2813508,127.2912475,곡성레저문화센터
2,곡성군,모심정,전라남도 곡성군 죽곡면 섬진강로 1005,가능,,061-362-7447,한식,연중무휴,35.1914041,127.3777216,압록유원지
2,곡성군,아구먹구돼지먹구,전라남도 곡성군 옥과면 리문5길 24,가능,,061-363-9595,한식,매주일요일,35.2742641,127.136485,옥과향교
2,곡성군,순한한우명품관곡성축협,전라남도 곡성군 곡성읍 곡성로 856,가능,,061-362-3392,소고기구이,매월첫째주 월요일 휴무,35.2797685,127.2984376,곡성문화원
2,곡성군,황금코다리곡성점,전라남도 곡성군 오곡면 기차마을로 217-4,가능,,061-363-0023,한식,매주월요일,35.2761848,127.308084,섬진강기차마을
2,곡성군,북경원,전라남도 곡성군 석곡면 석곡로 24,가능,,061-362-3106,,"2, 4주 일요일",35.1292334,127.253587,대황강 자연휴식공원
2,곡성군,seumool,전라남도 곡성군 오곡면 승법길 20,가능,,061-363-2121,카페,매주둘째.넷째월요일,35.2787644,127.3029611,섬진강기차마을
2,곡성군,자농뜰방,전라남도 곡성군 입면 입면로 417-5,가능,,,닭요리,연중무휴,35.3008258,127.1816413,의마총
2,완도군,대박집,전라남도 완도군 완도읍 개포로62번길 9-10,가능,,061-555-3690,한식,"2, 4주 일요일",34.3172707,126.7456997,완도문화원
2,완도군,빙그레국밥,전라남도 완도군 완도읍 개포로 7,가능,,061-555-1618,국밥,연중무휴,34.3169414,126.7511001,주도
2,완도군,삼교리 동치미 막국수,전라남도 완도군 완도읍 장보고대로 251,가능,,061-555-0516,국수,연중무휴,34.3163714,126.752821,주도
2,완도군,선옥이네,전라남도 완도군 완도읍 해변공원로 111,가능,,061-554-1400,한식,"2, 4주 수요일",34.323394,126.7478655,완도문화원
2,완도군,달목성한정식,전라남도 완도군 완도읍 청해진서로549,가능,,061-554-8900,한정식,"첫째,셋째일요일",34.3064343,126.70916,완도 정도리 구계등
2,완도군,청솔가든,전라남도 완도군 완도읍 장보고대로 174-2,가능,,061-553-8830,한식,,34.3192815,126.7461534,완도문화원